park_number,park_name,street_address,acres,label_field,amenity1,amenity2,amenity3,amenity4,amenity5,amenity6,amenity7,amenity8,amenity9,amenity10,amenity11,amenity12,amenity13,amenity14,amenity15,amenity16,amenity17,amenity18,amenity19,amenity20,amenity21,amenity22,amenity23,amenity24,amenity25,amenity26,amenity27,amenity28,amenity29,amenity30,amenity31,amenity32,amenity33,amenity34,amenity35,amenity36,amenity37,amenity38,amenity39,amenity40,amenity41,amenity42,amenity43,amenity44,amenity45,amenity46,amenity47,amenity48,amenity49,amenity50,amenity51,amenity52,amenity53,amenity54,amenity55,amenity56,amenity57,amenity58,amenity59,amenity60,amenity61,amenity62,amenity63,amenity64,amenity65,amenity66,zip_number,ward_number,parkclass_number,amenity_sum,parkclass_number,park_class,ward_number,ward,zip_number,zip
177,BRAINERD,1246 W 92ND ST,8.23,Brainerd,0,0,0,0,0,0,6,3,0,0,0,0,0,0,0,0,1,0,0,0,0,0,0,0,0,0,0,0,1,0,0,0,0,0,0,2,0,0,0,0,0,1,0,0,0,0,0,0,0,0,1,2,3,0,0,0,0,0,0,0,0,0,0,0,0,0,32,23,10,20,10,COMMUNITY PARK,23,21,32,60620
1122,LUELLA,10021 S LUELLA AVE,1.2,Luella,0,0,0,0,0,0,2,1,0,0,0,0,0,0,0,0,0,0,0,0,0,0,0,0,0,0,0,0,0,0,0,0,0,0,0,0,0,0,0,0,0,1,0,0,0,0,0,0,0,0,0,0,0,0,0,0,0,0,0,0,0,0,0,0,0,0,25,41,1,4,1,NEIGHBORHOOD PARK,41,10,25,60617
1210,DIXON (LORRAINE),8931 S DAUPHIN AVE,5.31,Dixon,0,0,0,0,0,0,0,0,0,0,0,0,0,0,0,0,0,0,0,0,0,0,0,0,0,0,0,0,0,0,0,0,0,0,0,0,0,0,0,0,0,1,0,0,0,0,0,0,0,0,0,0,0,0,0,0,0,0,0,0,0,0,0,0,0,0,49,1,4,1,4,PASSIVE PARK,1,8,49,60619
405,DEBOW (RUSSELL),1126 E 80TH ST,0.55,Debow,0,0,0,0,0,0,0,0,0,0,0,0,0,0,0,0,0,0,0,0,0,0,0,0,0,0,0,0,0,0,0,0,0,0,0,0,0,0,0,0,0,1,0,0,0,0,0,0,0,0,0,0,0,0,0,0,0,0,0,0,0,0,0,0,0,0,49,1,1,1,1,NEIGHBORHOOD PARK,1,8,49,60619
29,AVALON,1215 E 83RD ST,27.84,Avalon,0,0,0,0,0,0,4,1,0,0,0,0,0,0,0,0,2,0,0,0,0,1,0,0,0,0,0,0,1,0,0,0,0,0,0,6,0,0,1,0,0,1,0,0,0,0,0,0,0,0,1,1,6,1,0,0,0,0,0,0,0,0,0,0,0,0,49,1,9,26,9,REGIONAL PARK,1,8,49,60619
363,BURNSIDE (AMBROSE),9400 S GREENWOOD AVE,5.92,Burnside,0,0,0,0,0,0,2,1,0,0,0,0,0,0,0,0,0,0,0,0,0,0,0,0,0,0,0,0,0,0,0,0,0,0,0,2,0,0,0,0,0,1,0,0,0,0,0,0,0,0,1,0,0,0,0,0,0,0,0,0,0,0,0,0,0,0,49,1,10,7,10,COMMUNITY PARK,1,8,49,60619
244,GATELY (JAMES),810 E 103RD ST,25.04,Gately,0,0,0,1,0,0,6,3,0,0,0,0,0,0,0,0,2,0,0,0,0,0,0,0,0,0,0,0,0,0,0,0,0,0,0,4,0,0,0,0,0,1,0,0,0,0,0,0,0,0,0,1,0,0,0,0,0,0,0,0,0,0,0,0,0,0,48,1,10,18,10,COMMUNITY PARK,1,8,48,60628
388,WASHINGTON (DINAH),8215 S EUCLID AVE,0.42,Washington (Dinah),0,0,0,0,0,0,0,0,0,0,0,0,0,0,0,0,0,0,0,0,0,0,0,0,0,0,0,0,0,0,0,0,0,0,0,0,0,0,0,0,0,0,1,0,0,0,0,0,0,0,0,0,0,0,0,0,0,0,0,0,0,0,0,0,0,0,25,1,3,1,3,MINI-PARK,1,8,25,60617
237,OWENS (JESSE),2100 E 88TH ST,17.23,Owens,0,0,0,0,0,0,2,1,0,0,0,0,0,0,0,0,1,0,0,0,0,0,0,0,0,0,0,0,1,0,0,0,0,0,0,3,0,0,0,0,0,1,0,0,0,0,0,0,0,0,1,1,6,0,0,0,0,0,0,0,0,0,0,0,0,0,25,1,10,17,10,COMMUNITY PARK,1,8,25,60617
231,ROSENBLUM (J. LESLIE),2000 E 75TH ST,10.84,Rosenblum,0,0,0,0,0,0,4,2,0,0,0,0,0,0,0,0,1,0,0,0,0,0,0,0,0,0,0,0,0,0,0,0,0,0,0,0,0,0,0,0,0,1,0,0,0,0,7,0,0,0,0,1,0,0,0,0,0,0,0,0,0,0,0,0,0,0,21,1,10,16,10,COMMUNITY PARK,1,8,21,60649
440,LUNA,5558 S GREEN ST,0.16,Luna,0,0,0,0,0,0,0,0,0,0,0,0,0,0,0,0,0,0,0,0,0,0,0,0,0,0,0,0,0,0,0,0,0,0,0,0,0,0,0,0,0,0,1,0,0,0,0,0,0,0,0,0,0,0,0,0,0,0,0,0,0,0,0,0,0,0,46,2,3,1,3,MINI-PARK,2,16,46,60621
1051,MORAN (TERRANCE),5727 S RACINE AVE,1.71,Moran,0,0,0,0,0,0,2,1,0,0,0,0,0,0,0,0,0,0,0,0,0,0,0,0,0,0,0,0,0,0,0,0,3,0,0,0,0,0,0,0,0,1,0,0,0,0,0,0,0,0,1,0,0,0,0,0,0,0,0,0,0,0,0,0,0,0,46,2,1,8,1,NEIGHBORHOOD PARK,2,16,46,60621
391,EDMONDS (MOLLY),711 W 60TH PL,0.31,Edmonds,0,0,0,0,0,0,0,0,0,0,0,0,0,0,0,0,0,0,0,0,0,0,0,0,0,0,0,0,0,0,0,0,0,0,0,0,0,0,0,0,0,0,1,0,0,0,0,0,0,0,0,0,0,0,0,0,0,0,0,0,0,0,0,0,0,0,46,2,3,1,3,MINI-PARK,2,16,46,60621
1086,CARPENTER (PHILO),6155 S CARPENTER ST,0.21,Carpenter,0,0,0,0,0,0,0,0,0,0,0,0,0,0,0,0,0,0,0,0,0,0,0,0,0,0,0,0,0,0,0,0,0,0,0,0,0,0,0,0,0,0,1,0,0,0,0,0,0,0,0,0,0,0,0,0,0,0,0,0,0,0,0,0,0,0,46,2,3,1,3,MINI-PARK,2,16,46,60621
415,JUNCTION GROVE,345 W 64TH ST,0.22,Junction Grove,0,0,0,0,0,0,0,0,0,0,0,0,0,0,0,0,0,0,0,0,0,0,0,0,0,0,0,0,0,0,0,0,0,0,0,0,0,0,0,0,0,0,1,0,0,0,0,0,0,0,0,0,0,0,0,0,0,0,0,0,0,0,0,0,0,0,46,2,3,1,3,MINI-PARK,2,16,46,60621
436,PERIWINKLE,100 W 66TH ST,0.51,Periwinkle,0,0,0,0,0,0,0,0,0,0,0,0,0,0,0,0,0,0,0,0,0,0,0,0,0,0,0,0,0,0,0,0,0,0,0,0,0,0,0,0,0,0,1,0,0,0,0,0,0,0,0,0,0,0,0,0,0,0,0,0,0,0,0,0,0,0,46,2,1,1,1,NEIGHBORHOOD PARK,2,16,46,60621
22,GAGE (GEORGE),2415 W 55TH ST,29.22,Gage,0,0,0,0,0,0,2,1,0,0,0,0,0,0,0,0,3,0,0,0,0,1,0,0,0,0,0,0,2,0,0,2,0,0,0,3,0,0,1,0,0,1,0,0,0,0,0,0,0,0,1,2,8,1,1,0,0,0,0,0,0,0,0,0,0,0,33,2,9,29,9,REGIONAL PARK,2,16,33,60629
437,PARK NO. 437,5653 S LOOMIS ST,0.21,Park No. 437,0,0,0,0,0,0,0,0,0,0,0,0,0,0,0,0,0,0,0,0,0,0,0,0,0,0,0,0,0,0,0,0,0,0,0,0,0,0,0,0,0,0,0,0,0,0,0,0,0,0,0,0,0,0,0,0,0,0,0,0,0,0,0,0,0,0,5,2,6,0,6,UNIMPROVED PARK,2,16,5,60636
486,WINNEMAC,5001 N LEAVITT ST,22.01,Winnemac,0,0,0,0,0,0,0,0,0,0,0,0,0,0,0,0,1,0,0,0,0,0,0,0,0,0,0,0,0,0,0,0,0,0,0,4,0,0,0,0,0,1,0,0,0,0,0,0,0,0,0,1,2,0,0,0,0,0,0,0,0,0,0,0,0,0,44,3,1,9,1,NEIGHBORHOOD PARK,3,47,44,60625
402,VOGLE (HENRY JR.),2100 W LAWRENCE AVE,0.22,Vogle,0,0,0,0,0,0,0,0,0,0,0,0,0,0,0,0,0,0,0,0,0,0,0,0,0,0,0,0,0,0,0,0,0,0,0,0,0,0,0,0,0,0,1,0,0,0,0,0,0,0,0,0,0,0,0,0,0,0,0,0,0,0,0,0,0,0,44,3,3,1,3,MINI-PARK,3,47,44,60625
158,SUNKEN GARDENS,2634 W SUNNYSIDE AVE,0.16,Sunken Gardens,0,0,0,0,0,0,0,0,0,0,0,0,0,0,0,0,0,0,0,0,0,0,0,0,0,0,0,0,0,0,0,0,0,0,0,0,0,0,0,0,0,0,0,0,0,0,0,0,0,0,0,0,0,0,0,0,0,0,0,0,0,0,0,0,0,0,44,3,4,0,4,PASSIVE PARK,3,47,44,60625
110,WELLES (GIDEON),2333 W SUNNYSIDE AVE,15.1,Welles,0,0,0,0,0,0,0,0,0,0,0,0,0,0,0,0,1,0,0,0,0,1,0,0,0,0,0,0,1,0,0,0,10,0,1,6,0,0,0,0,0,1,0,0,1,0,0,0,0,0,0,0,3,0,0,0,0,0,0,0,0,0,0,0,0,0,44,3,9,25,9,REGIONAL PARK,3,47,44,60625
103,CHASE (SALMON),4725 N ASHLAND AV,4.57,Chase,0,0,0,0,0,0,0,0,0,0,0,0,0,0,0,0,1,1,0,0,0,1,0,0,0,0,0,0,1,0,0,0,0,0,0,2,0,0,1,0,0,1,0,0,0,0,0,0,0,0,0,0,4,1,0,0,0,0,0,0,0,0,0,0,0,0,30,3,10,13,10,COMMUNITY PARK,3,47,30,60640
1107,ZATTERBERG (HELEN),4246 N HERMITAGE AVE,0.19,Zatterberg,0,0,0,0,0,0,0,0,0,0,0,0,0,0,0,0,0,0,0,0,0,0,0,0,0,0,0,0,0,0,0,0,0,0,0,0,0,0,0,0,0,0,1,0,0,0,0,0,0,0,0,0,0,0,0,0,0,0,0,0,0,0,0,0,0,0,23,3,3,1,3,MINI-PARK,3,47,23,60613
1281,FILBERT,1822 W LARCHMONT AVE,0.1,Filbert,0,0,0,0,0,0,0,0,0,0,0,0,0,0,0,0,0,0,0,0,0,0,0,0,0,0,0,0,0,0,0,0,0,0,0,0,0,0,0,0,0,0,1,0,0,0,0,0,0,0,0,0,0,0,0,0,0,0,0,0,0,0,0,0,0,0,23,3,3,1,3,MINI-PARK,3,47,23,60613
1124,MERRYMAN (THERON),3736 N MARSHFIELD AVE,0.18,Merryman,0,0,0,0,0,0,0,0,0,0,0,0,0,0,0,0,0,0,0,0,0,0,0,0,0,0,0,0,0,0,0,0,0,0,0,0,0,0,0,0,0,0,1,0,0,0,0,0,0,0,0,0,0,0,0,0,0,0,0,0,0,0,0,0,0,0,23,3,3,1,3,MINI-PARK,3,47,23,60613
521,PARK NO. 521,1426 W WARNER AVE,0.07,Park No. 521,0,0,0,0,0,0,0,0,0,0,0,0,0,0,0,0,0,0,0,0,0,0,0,0,0,0,0,0,0,0,0,0,0,0,0,0,0,0,0,0,0,0,0,0,0,0,0,0,0,0,0,0,0,0,0,0,0,0,0,0,0,0,0,0,0,0,23,3,4,0,4,PASSIVE PARK,3,47,23,60613
185,REVERE (PAUL),2509 W IRVING PARK RD,9.24,Revere,0,0,0,0,0,0,0,0,0,0,0,0,0,0,0,0,1,0,0,0,0,0,0,0,0,0,0,0,1,0,0,0,0,0,0,3,0,0,0,0,0,1,0,0,0,0,0,0,0,0,0,1,4,0,0,0,0,0,0,0,0,0,0,0,0,0,15,3,10,11,10,COMMUNITY PARK,3,47,15,60618
457,CLARK (RICHARD),3400 N ROCKWELL AVE,21.56,Clark (Richard),0,0,0,0,0,0,0,0,0,0,1,0,0,0,0,0,2,0,0,0,0,0,0,0,0,0,0,0,0,0,0,0,0,0,0,0,1,0,0,0,0,0,0,0,0,0,0,0,0,0,0,0,0,0,0,0,0,0,0,0,0,0,0,0,0,0,15,3,4,4,4,PASSIVE PARK,3,47,15,60618
348,GOOSEBERRY,4648 N MALDEN ST,0.18,Gooseberry,0,0,0,0,0,0,0,0,0,0,0,0,0,0,0,0,0,0,0,0,0,0,0,0,0,0,0,0,0,0,0,0,0,0,0,0,0,0,0,0,0,0,1,0,0,0,0,0,0,0,0,0,0,0,0,0,0,0,0,0,0,0,0,0,0,0,30,4,3,1,3,MINI-PARK,4,46,30,60640
343,ASTER,4639 N KENMORE AVE,0.16,Aster,0,0,0,0,0,0,0,0,0,0,0,0,0,0,0,0,0,0,0,0,0,0,0,0,0,0,0,0,0,0,0,0,0,0,0,0,0,0,0,0,0,0,1,0,0,0,0,0,0,0,0,0,0,0,0,0,0,0,0,0,0,0,0,0,0,0,30,4,3,1,3,MINI-PARK,4,46,30,60640
1002,CLARENDON COMM. CTR.,4501 N CLARENDON AVE,8.3,Clarendon Comm. Ctr.,0,0,0,0,0,0,2,1,0,0,0,0,1,0,0,0,1,0,0,0,0,1,0,0,0,0,0,0,1,0,0,0,0,0,0,3,0,0,0,0,0,1,0,0,0,0,0,0,0,0,1,1,2,0,0,0,0,0,0,0,0,0,0,0,0,0,30,4,10,15,10,COMMUNITY PARK,4,46,30,60640
487,BRONCHO BILLY,4437 N MAGNOLIA AVE,0.2,Broncho Billy,0,0,0,0,0,0,2,1,0,0,0,0,0,0,0,0,0,0,0,0,0,0,0,0,0,0,0,0,0,0,0,0,0,0,0,0,0,0,0,0,0,1,0,0,0,0,0,0,0,0,1,0,0,0,0,0,0,0,0,0,0,0,0,0,0,0,30,4,3,5,3,MINI-PARK,4,46,30,60640
488,CHALLENGER,1100 W IRVING PARK RD,2.94,Challenger,0,0,0,0,0,0,0,0,0,0,0,0,0,0,0,0,0,0,0,0,1,0,0,0,0,0,0,0,0,0,0,0,0,0,0,0,0,0,0,0,0,0,0,0,0,0,0,0,0,0,0,0,0,0,0,0,0,0,0,0,0,0,0,0,0,0,23,4,1,1,1,NEIGHBORHOOD PARK,4,46,23,60613
364,GILL (JOSEPH),825 W SHERIDAN RD,2.21,Gill,0,0,0,0,0,0,0,0,0,0,0,0,0,0,0,0,0,0,0,0,0,1,0,0,0,0,0,0,1,0,0,0,0,0,1,1,0,0,0,0,0,1,0,0,0,0,0,0,0,0,0,0,0,0,0,0,0,0,0,0,0,0,0,0,0,0,23,4,10,5,10,COMMUNITY PARK,4,46,23,60613
392,JUNIPER,3656 N GREENVIEW AVE,0.29,Juniper,0,0,0,0,0,0,0,0,0,0,0,0,0,0,0,0,0,0,0,0,0,0,0,0,0,0,0,0,0,0,0,0,0,0,0,0,0,0,0,0,0,0,1,0,0,0,0,0,0,0,1,0,0,0,0,0,0,0,0,0,0,0,0,0,0,0,23,4,3,2,3,MINI-PARK,4,46,23,60613
420,COCHRAN (JOHN),5554 N MAGNOLIA AVE,0.28,Cochran,0,0,0,0,0,0,0,0,0,0,0,0,0,0,0,0,0,0,0,0,0,0,0,0,0,0,0,0,0,0,0,0,0,0,0,0,0,0,0,0,0,0,1,0,0,0,0,0,0,0,0,0,0,0,0,0,0,0,0,0,0,0,0,0,0,0,30,5,3,1,3,MINI-PARK,5,48,30,60640
435,BROMANN (CHARLES),5400 N BROADWAY,0.14,Bromann,0,0,0,0,0,0,0,0,0,0,0,0,0,0,0,0,0,0,0,0,0,0,0,0,0,0,0,0,0,0,0,0,0,0,0,0,0,0,0,0,0,0,1,0,0,0,0,0,0,0,0,0,0,0,0,0,0,0,0,0,0,0,0,0,0,0,30,5,3,1,3,MINI-PARK,5,48,30,60640
1279,CEDAR,5315 N WINTHROP AVE,0.34,Cedar,0,0,0,0,0,0,0,0,0,0,0,0,0,0,0,0,0,0,0,0,0,0,0,0,0,0,0,0,0,0,0,0,0,0,0,0,0,0,0,0,0,0,1,0,0,0,0,0,0,0,1,0,0,0,0,0,0,0,0,0,0,0,0,0,0,0,30,5,3,2,3,MINI-PARK,5,48,30,60640
1085,CARMEN,1224 W CARMEN AVE,0.14,Carmen,0,0,0,0,0,0,0,0,0,0,0,0,0,0,0,0,0,0,0,0,0,0,0,0,0,0,0,0,0,0,0,0,0,0,0,0,0,0,0,0,0,0,1,0,0,0,0,0,0,0,0,0,0,0,0,0,0,0,0,0,0,0,0,0,0,0,30,5,3,1,3,MINI-PARK,5,48,30,60640
385,BUTTERCUP,4913 N SHERIDAN RD,0.88,Buttercup,0,0,0,0,0,0,0,0,0,0,0,0,0,0,0,0,0,0,0,0,0,0,0,0,0,0,0,0,0,0,0,0,0,0,0,0,0,0,0,0,0,1,0,0,0,0,0,0,0,0,0,0,0,0,0,0,0,0,0,0,0,0,0,0,0,0,30,5,1,1,1,NEIGHBORHOOD PARK,5,48,30,60640
299,HICKORY,4834 N WINTHROP AVE,0.23,Hickory,0,0,0,0,0,0,0,0,0,0,0,0,0,0,0,0,0,0,0,0,0,0,0,0,0,0,0,0,0,0,0,0,0,0,0,0,0,0,0,0,0,0,1,0,0,0,0,0,0,0,0,0,0,0,0,0,0,0,0,0,0,0,0,0,0,0,30,5,3,1,3,MINI-PARK,5,48,30,60640
517,PARK NO. 517,5914-5924 N SHERIDAN RD,0.52,Park No. 517,0,0,0,0,0,0,0,0,0,0,0,0,0,0,0,0,0,0,0,0,0,0,0,0,0,0,0,0,0,0,0,0,0,0,0,0,0,0,0,0,0,0,0,0,0,0,0,0,0,0,0,0,0,0,0,0,0,0,0,0,0,0,0,0,0,0,20,5,4,0,4,PASSIVE PARK,5,48,20,60660
1265,LANE (GEORGE) BEACH,1000 W THORNDALE AVE,0.79,Lane Beach,0,0,0,0,0,0,0,0,2,0,0,0,0,0,0,0,0,0,0,0,0,0,0,0,0,0,0,0,0,0,0,0,0,0,0,0,0,0,0,0,0,1,0,0,0,0,0,0,0,0,0,0,0,0,0,0,0,0,0,0,0,0,0,0,0,0,20,5,4,3,4,PASSIVE PARK,5,48,20,60660
462,BROADWAY ARMORY,5917 N BROADWAY,1.75,Broadway Armory,0,0,0,0,0,0,0,0,0,0,0,0,0,0,0,0,0,0,0,0,0,1,0,0,0,0,0,0,1,1,0,0,0,0,0,0,0,0,0,0,0,0,0,0,0,0,0,0,0,0,0,0,0,0,0,0,0,0,0,0,0,0,0,0,0,0,20,5,10,3,10,COMMUNITY PARK,5,48,20,60660
559,PARK NO. 559,6151 N SHERIDAN RD,0.57,Park No. 559,0,0,0,0,0,0,0,0,0,0,0,0,0,0,0,0,0,0,0,0,0,0,0,0,0,0,0,0,0,0,0,0,0,0,0,0,0,0,0,0,0,0,0,0,0,0,0,0,0,0,0,0,0,0,0,0,0,0,0,0,0,0,0,0,0,0,20,5,4,0,4,PASSIVE PARK,5,48,20,60660
227,SENN (NICHOLAS),5887 N RIDGE AVE,8.13,Senn,0,0,0,1,0,0,4,3,0,0,0,0,0,0,0,0,0,1,0,0,0,0,0,0,0,0,0,0,0,0,0,0,0,0,0,0,0,0,0,0,0,1,0,0,0,0,0,0,0,0,1,0,1,0,0,0,0,0,0,0,0,0,0,0,0,0,20,5,10,12,10,COMMUNITY PARK,5,48,20,60660
1164,MASON (ELIZABETH),4100 W WEST END AVE,0.79,Mason,0,0,0,0,0,0,0,0,0,0,0,0,0,0,0,0,0,0,0,0,0,0,0,0,0,0,0,0,0,0,0,0,0,0,0,0,0,0,0,0,0,1,0,0,0,0,0,0,0,0,1,0,0,0,0,0,0,0,0,0,0,0,0,0,0,0,50,6,1,2,1,NEIGHBORHOOD PARK,6,28,50,60624
1149,SAINT LOUIS,347 N ST LOUIS AVE,0.37,Saint Louis,0,0,0,0,0,0,2,1,0,0,0,0,0,0,0,0,0,0,0,0,0,0,0,0,0,0,0,0,0,0,0,0,0,0,0,0,0,0,0,0,0,1,0,0,0,0,0,0,0,0,1,0,0,0,0,0,0,0,0,0,0,0,0,0,0,0,50,6,3,5,3,MINI-PARK,6,28,50,60624
204,GARFIELD (JAMES),100 N CENTRAL PARK DR,184.72,Garfield,0,0,0,1,0,0,6,3,0,0,0,0,0,0,1,0,3,0,1,0,0,1,0,0,1,0,0,0,1,0,0,0,0,0,0,9,0,0,1,0,0,3,0,0,0,0,0,0,0,0,2,2,6,0,0,0,0,0,0,1,0,0,0,0,0,0,50,6,2,42,2,CITYWIDE PARK,6,28,50,60624
1102,GLADYS (GUNDERSON),3307 W GLADYS AVE,0.29,Gladys,0,0,0,0,0,0,2,1,0,0,0,0,0,0,0,0,0,0,0,0,0,0,0,0,0,0,0,0,0,0,0,0,0,0,0,0,0,0,0,0,0,1,0,0,0,0,0,0,0,0,1,0,0,0,0,0,0,0,0,0,0,0,0,0,0,0,50,6,3,5,3,MINI-PARK,6,28,50,60624
422,PARK NO. 422,3200 W CONGRESS PKWY,0.54,Park No. 422,0,0,0,0,0,0,0,0,0,0,0,0,0,0,0,0,0,0,0,0,0,0,0,0,0,0,0,0,0,0,0,0,0,0,0,0,0,0,0,0,0,1,0,0,0,0,0,0,0,0,1,0,0,0,0,0,0,0,0,0,0,0,0,0,0,0,50,6,1,2,1,NEIGHBORHOOD PARK,6,28,50,60624
1026,CLARK (JOHN),4615 W JACKSON BLVD,1.95,Clark (John),0,0,0,0,0,0,2,1,0,0,0,0,0,0,0,0,1,0,0,0,0,0,0,0,0,0,0,0,0,0,0,0,0,0,0,1,0,0,1,0,0,1,0,0,0,0,0,0,0,0,0,0,0,0,0,0,0,0,0,0,0,0,0,0,0,0,26,6,1,7,1,NEIGHBORHOOD PARK,6,28,26,60644
1035,HORAN (ALBERT),3035 W VAN BUREN ST,2.76,Horan,0,0,0,0,0,0,2,1,0,0,0,0,0,0,0,0,0,0,0,0,0,0,0,0,0,0,0,0,0,0,0,0,0,0,0,1,0,0,0,0,0,1,0,0,0,0,0,0,0,0,1,0,0,0,0,0,0,0,0,0,0,0,0,0,0,0,2,6,1,6,1,NEIGHBORHOOD PARK,6,28,2,60612
229,HIAWATHA,8029 W FOREST PRESERVE AVE,12.08,Hiawatha,0,0,0,0,0,0,0,0,0,0,0,0,2,0,0,0,1,0,0,0,0,1,0,0,0,0,0,0,1,0,0,0,2,0,0,1,0,0,0,0,0,1,0,0,0,0,0,0,0,1,1,4,2,0,0,0,0,0,0,0,0,0,0,0,0,0,55,7,10,17,10,COMMUNITY PARK,7,36,55,60634
121,"BELL (GEORGE,JR.)",3020 N OAK PARK AVE,3.69,Bell,0,0,0,0,0,0,0,1,0,0,0,0,0,0,0,0,1,0,0,0,0,0,0,0,0,0,0,0,0,0,0,0,0,0,0,2,0,0,0,0,0,1,0,0,0,0,0,0,0,0,1,0,2,0,1,0,0,0,0,0,0,0,0,0,0,0,55,7,1,9,1,NEIGHBORHOOD PARK,7,36,55,60634
148,SHABBONA,6935 W ADDISON,18.59,Shabbona,0,0,0,0,0,0,2,1,0,0,0,0,0,0,0,0,1,0,0,0,0,1,0,0,0,0,0,0,1,1,0,0,2,0,1,4,0,0,0,0,0,1,0,0,0,0,0,0,0,0,1,1,5,0,0,0,0,0,0,0,0,0,0,0,0,0,55,7,9,22,9,REGIONAL PARK,7,36,55,60634
123,RIIS (JACOB),6100 W FULLERTON AVE,56.84,Riis,0,0,0,1,0,0,0,0,0,0,0,0,0,0,1,0,2,0,0,0,0,0,0,0,0,0,0,0,1,0,0,0,0,1,0,0,0,0,1,0,0,2,0,0,0,0,0,0,0,0,0,2,10,1,0,1,0,0,0,1,0,0,0,0,0,0,38,7,9,24,9,REGIONAL PARK,7,36,38,60639
1280,AIELLO (JOHN),2133 N MCVICKER AVE,0.34,Aiello,0,0,0,0,0,0,0,0,0,0,0,0,0,0,0,0,0,0,0,0,0,0,0,0,0,0,0,0,0,0,0,0,0,0,0,0,0,0,0,0,0,0,1,0,0,0,0,0,0,0,0,0,0,0,0,0,0,0,0,0,0,0,0,0,0,0,38,7,3,1,3,MINI-PARK,7,36,38,60639
129,AMUNDSEN (ROALD),6200 W BLOOMINGDALE AVE,15.46,Amundsen,0,0,0,0,0,0,0,0,0,0,0,0,0,0,0,0,1,0,0,0,0,1,0,0,0,0,0,0,0,0,0,0,0,0,0,4,0,0,0,0,0,1,0,0,0,0,0,0,0,0,1,1,0,0,0,0,0,0,0,0,0,0,0,0,0,0,38,7,10,9,10,COMMUNITY PARK,7,36,38,60639
127,RUTHERFORD SAYRE,6871 W BELDEN AVE,12.33,Rutherford Sayre,0,0,0,0,0,0,0,0,0,0,0,0,0,0,0,0,1,0,0,0,0,1,0,0,1,0,0,0,1,0,0,0,0,0,0,2,0,0,0,0,0,1,0,0,0,0,0,0,0,1,1,0,2,0,0,0,0,0,0,0,0,0,0,0,0,0,13,7,10,11,10,COMMUNITY PARK,7,36,13,60635
7,SHERMAN (JOHN),1307 W 52ND ST,60.6,Sherman,0,0,0,0,0,0,4,2,0,0,0,0,0,0,1,0,3,0,0,0,0,1,0,0,0,0,0,0,1,0,0,2,0,0,0,3,0,0,1,0,0,3,0,0,0,0,0,0,0,0,1,2,2,1,1,0,0,0,0,1,0,0,0,0,0,0,51,8,9,29,9,REGIONAL PARK,8,15,51,60609
1008,HERMITAGE,5839 S WOOD ST,3.95,Hermitage,0,0,0,0,0,0,2,1,0,0,0,0,0,0,0,0,1,0,0,0,0,0,0,0,0,0,0,0,0,0,0,0,0,0,0,1,0,0,0,0,0,1,0,0,0,0,0,0,0,0,1,0,0,0,1,0,0,0,0,0,0,0,0,0,0,0,5,8,1,8,1,NEIGHBORHOOD PARK,8,15,5,60636
243,LINDBLOM (ROBERT),6054 S DAMEN AVE,17.76,Lindblom,0,0,0,0,0,0,4,2,0,0,0,0,0,0,0,0,1,0,0,0,0,1,0,0,0,0,0,0,1,0,0,0,0,0,0,4,0,0,1,0,0,1,0,0,0,0,0,0,0,0,0,2,2,0,0,0,0,0,0,0,0,0,0,0,0,0,5,8,9,19,9,REGIONAL PARK,8,15,5,60636
1137,OAKLEY,6441 S OAKLEY AVE,0.35,Oakley,0,0,0,0,0,0,0,0,0,0,0,0,0,0,0,0,0,0,0,0,0,0,0,0,0,0,0,0,0,0,0,0,0,0,0,0,0,0,0,0,0,0,1,0,0,0,0,0,0,0,0,0,0,0,0,0,0,0,0,0,0,0,0,0,0,0,5,8,3,1,3,MINI-PARK,8,15,5,60636
403,WOLCOTT (ALEXANDER),6551 S WOLCOTT AVE,0.14,Wolcott,0,0,0,0,0,0,0,0,0,0,0,0,0,0,0,0,0,0,0,0,0,0,0,0,0,0,0,0,0,0,0,0,0,0,0,0,0,0,0,0,0,0,1,0,0,0,0,0,0,0,0,0,0,0,0,0,0,0,0,0,0,0,0,0,0,0,5,8,3,1,3,MINI-PARK,8,15,5,60636
441,DREXEL (FRANCIS),6931 S DAMEN AVE,0.28,Drexel,0,0,0,0,0,0,0,0,0,0,0,0,0,0,0,0,0,0,0,0,0,0,0,0,0,0,0,0,0,0,0,0,0,0,0,0,0,0,0,0,0,0,1,0,0,0,0,0,0,0,0,0,0,0,0,0,0,0,0,0,0,0,0,0,0,0,5,8,3,1,3,MINI-PARK,8,15,5,60636
1273,SUMAC,4201 S CHAMPLAIN AVE,0.31,Sumac,0,0,0,0,0,0,2,1,0,0,0,0,0,0,0,0,0,0,0,0,0,0,0,0,0,0,0,0,0,0,0,0,0,0,0,0,0,0,0,0,0,0,1,0,0,0,0,0,0,0,0,0,0,0,0,0,0,0,0,0,0,0,0,0,0,0,37,9,3,4,3,MINI-PARK,9,4,37,60653
504,MANDRAKE (HENRY BROWN),900 E PERSHING RD.,9.31,Mandrake,0,0,0,0,0,0,4,2,0,0,0,0,0,0,0,0,0,0,0,0,0,0,0,0,0,0,0,0,0,0,0,0,0,0,0,2,0,0,0,0,0,1,0,0,0,0,0,0,0,0,0,0,2,1,0,0,0,0,0,0,0,0,0,0,0,0,37,9,10,12,10,COMMUNITY PARK,9,4,37,60653
485,KENNICOTT (JONATHAN),4434 S LAKE PARK AVE,2.5,Kennicott,0,0,0,0,0,0,0,0,0,0,0,0,0,0,0,0,1,0,0,0,0,1,0,0,0,0,0,0,1,0,0,0,0,0,0,0,0,0,0,0,0,1,0,0,0,0,0,0,0,0,0,0,0,0,0,0,0,0,0,0,0,0,0,0,0,0,37,9,10,4,10,COMMUNITY PARK,9,4,37,60653
532,PARK NO. 532,4101 S. LAKE PARK AVE,2.85,Park No. 532,0,0,0,0,0,0,0,0,0,0,0,0,0,0,0,0,0,0,0,0,0,0,0,0,0,0,0,0,0,0,0,0,0,0,0,0,0,0,0,0,0,0,0,0,0,0,0,0,0,0,0,0,0,0,0,0,0,0,0,0,0,0,0,0,0,0,37,9,1,0,1,NEIGHBORHOOD PARK,9,4,37,60653
325,HOLLY,4052 S ELLIS AVE,0.41,Holly,0,0,0,0,0,0,0,0,0,0,0,0,0,0,0,0,0,0,0,0,0,0,0,0,0,0,0,0,0,0,0,0,0,0,0,0,0,0,0,0,0,0,1,0,0,0,0,0,0,0,1,0,0,0,0,0,0,0,0,0,0,0,0,0,0,0,37,9,3,2,3,MINI-PARK,9,4,37,60653
1209,CHAMBERLAIN TRIANGLE,4233 S GREENWOOD AVE,0.09,Chamberlain Triangle,0,0,0,0,0,0,0,0,0,0,0,0,0,0,0,0,0,0,0,0,0,0,0,0,0,0,0,0,0,0,0,0,0,0,0,0,0,0,0,0,0,0,0,0,0,0,0,0,0,0,0,0,0,0,0,0,0,0,0,0,0,0,0,0,0,0,37,9,4,0,4,PASSIVE PARK,9,4,37,60653
492,ARMSTRONG (LILLIAN HARDIN),4433 S ST LAWRENCE,8.6,Armstrong,0,0,0,0,0,0,4,2,0,0,0,0,0,0,0,0,1,0,0,0,0,0,0,0,0,0,0,0,0,0,0,0,0,0,0,2,0,0,0,0,0,1,0,0,0,0,0,0,0,0,0,0,0,0,0,0,0,0,0,0,0,0,0,0,0,0,37,9,10,10,10,COMMUNITY PARK,9,4,37,60653
324,HARSH (VIVIAN G.),4464 S OAKENWALD AVE,0.16,Harsh,0,0,0,0,0,0,0,0,0,0,0,0,0,0,0,0,0,0,0,0,0,0,0,0,0,0,0,0,0,0,0,0,0,0,0,0,0,0,0,0,0,0,1,0,0,0,0,0,0,0,1,0,0,0,0,0,0,0,0,0,0,0,0,0,0,0,37,9,3,2,3,MINI-PARK,9,4,37,60653
362,BROOKS (GWENDOLYN),4542 S GREENWOOD AVE,2.35,Brooks (Gwendolyn),0,0,0,0,0,0,0,0,0,0,0,0,0,0,0,0,0,0,0,0,0,0,0,0,0,0,0,0,0,0,0,0,0,0,0,0,0,0,0,0,0,1,0,0,0,0,0,0,0,0,1,0,0,0,0,0,0,0,0,0,0,0,0,0,0,0,37,9,1,2,1,NEIGHBORHOOD PARK,9,4,37,60653
351,HONEYSUCKLE,4637 S CHAMPLAIN AVE,0.21,Honeysuckle,0,0,0,0,0,0,0,0,0,0,0,0,0,0,0,0,0,0,0,0,0,0,0,0,0,0,0,0,0,0,0,0,0,0,0,0,0,0,0,0,0,0,1,0,0,0,0,0,0,0,0,0,0,0,0,0,0,0,0,0,0,0,0,0,0,0,37,9,3,1,3,MINI-PARK,9,4,37,60653
494,WASHINGTON (HAROLD),5200 S HYDE PARK BLVD,12.97,Washington (Harold),0,0,0,0,0,0,0,0,0,0,0,0,0,0,0,0,0,0,0,0,0,0,0,0,0,0,0,0,0,0,0,0,0,0,0,0,0,0,0,0,0,1,0,0,0,0,0,0,0,0,1,0,8,0,0,0,0,0,0,0,0,0,0,0,1,0,18,9,1,11,1,NEIGHBORHOOD PARK,9,4,18,60615
277,NICHOLS (JOHN FOUNTAIN),1342 E 54TH ST,10.39,Nichols,0,0,0,0,0,0,0,0,0,0,0,0,0,0,0,0,0,0,0,0,0,0,0,0,0,0,0,0,1,0,0,0,0,0,0,1,0,0,0,0,0,2,0,0,0,0,0,0,0,0,0,0,2,0,0,0,0,0,0,0,0,0,0,0,0,0,18,9,10,6,10,COMMUNITY PARK,9,4,18,60615
278,"HOUSTON (JESSIE ""MA"")",5001 S COTTAGE GROVE AVE,3.93,Houston,0,0,0,0,0,0,4,2,0,0,0,0,0,0,0,0,0,0,0,0,0,0,0,0,0,0,0,0,0,0,0,0,0,0,0,0,0,0,0,0,0,1,0,0,0,0,0,0,0,0,0,0,0,0,0,0,0,0,0,0,0,0,0,0,0,0,18,9,1,7,1,NEIGHBORHOOD PARK,9,4,18,60615
1274,SYCAMORE,5109 S GREENWOOD AVE,0.56,Sycamore,0,0,0,0,0,0,0,0,0,0,0,0,0,0,0,0,0,0,0,0,0,0,0,0,0,0,0,0,0,0,0,0,0,0,0,0,0,0,0,0,0,1,0,0,0,0,0,0,0,0,0,0,0,0,0,0,0,0,0,0,0,0,0,0,0,0,18,9,1,1,1,NEIGHBORHOOD PARK,9,4,18,60615
279,ELM,5215 S WOODLAWN AVE,0.46,Elm,0,0,0,0,0,0,0,0,0,0,0,0,0,0,0,0,0,0,0,0,0,0,0,0,0,0,0,0,0,0,0,0,0,0,0,0,0,0,0,0,0,0,0,0,0,0,0,0,0,0,0,0,0,0,0,0,0,0,0,0,0,0,0,0,0,0,18,9,4,0,4,PASSIVE PARK,9,4,18,60615
280,SPRUCE,1437 E 54TH ST,1.08,Spruce,0,0,0,0,0,0,0,0,0,0,0,0,0,0,0,0,0,0,0,0,0,0,0,0,0,0,0,0,0,0,0,0,0,0,0,0,0,0,0,0,0,1,0,0,0,0,0,0,0,0,0,0,0,0,0,0,0,0,0,0,0,0,0,0,0,0,18,9,1,1,1,NEIGHBORHOOD PARK,9,4,18,60615
1272,BUTTERNUT,5324 S WOODLAWN AVE,0.38,Butternut,0,0,0,0,0,0,0,0,0,0,0,0,0,0,0,0,0,0,0,0,0,0,0,0,0,0,0,0,0,0,0,0,0,0,0,0,0,0,0,0,0,0,1,0,0,0,0,0,0,0,0,0,0,0,0,0,0,0,0,0,0,0,0,0,0,0,18,9,3,1,3,MINI-PARK,9,4,18,60615
1010,KENWOOD COMM.,1330 E 50TH ST,9.46,Kenwood Comm.,0,0,0,0,0,0,0,0,0,0,0,0,0,0,0,0,1,1,0,0,0,0,0,0,0,0,0,0,0,0,0,0,0,0,0,2,0,0,0,0,0,1,0,0,0,0,0,0,0,1,1,2,2,0,0,0,0,0,0,0,0,0,0,0,0,0,18,9,10,11,10,COMMUNITY PARK,9,4,18,60615
291,STOUT (FLORENCE),5446 S GREENWOOD AVE,2.7,Stout,0,0,0,0,0,0,0,0,0,0,0,0,0,0,0,0,0,0,0,0,0,0,0,0,0,0,0,0,0,0,0,0,0,0,0,1,0,0,0,0,0,2,0,0,0,0,0,0,0,0,0,0,0,0,0,0,0,0,0,0,0,0,0,0,0,0,18,9,1,3,1,NEIGHBORHOOD PARK,9,4,18,60615
292,COLEMAN (BESSIE),900 E 54TH PL,0.47,Coleman,0,0,0,0,0,0,0,0,0,0,0,0,0,0,0,0,0,0,0,0,0,0,0,0,0,0,0,0,0,0,0,0,0,0,0,0,0,0,0,0,0,0,1,0,0,0,0,0,0,0,1,0,0,0,0,0,0,0,0,0,0,0,0,0,0,0,18,9,3,2,3,MINI-PARK,9,4,18,60615
126,KELVYN (WILLIAM),4438 W WRIGHTWOOD AVE,8.5,Kelvyn,0,0,0,1,0,0,2,1,0,0,0,0,0,0,0,0,1,0,0,0,0,1,0,0,0,0,0,0,1,0,0,0,0,0,0,2,0,0,0,0,0,1,0,0,1,0,0,0,0,0,1,0,2,0,0,0,0,0,0,0,0,0,0,0,0,0,38,10,10,14,10,COMMUNITY PARK,10,30,38,60639
131,CRAGIN,2611 N LOCKWOOD AVE,2.8,Cragin,0,0,0,0,0,0,0,0,0,0,0,0,0,0,0,0,1,0,0,0,0,0,0,0,0,0,0,0,0,0,0,0,0,0,0,2,0,0,0,0,0,1,0,0,0,0,0,0,0,1,1,0,2,0,0,0,0,0,0,0,0,0,0,0,0,0,38,10,1,8,1,NEIGHBORHOOD PARK,10,30,38,60639
122,BLACKHAWK,2318 N LAVERGNE AVE,6.23,Blackhawk,0,0,0,0,0,0,0,1,0,0,0,0,0,0,0,0,1,0,0,0,0,0,0,0,0,0,0,0,1,0,0,0,0,0,1,3,0,0,0,0,0,1,0,0,0,0,1,0,0,0,1,0,5,0,0,0,0,0,0,0,0,0,0,0,0,0,38,10,10,15,10,COMMUNITY PARK,10,30,38,60639
125,HERMOSA,2240 N KILBOURN AVE,4.7,Hermosa,0,0,0,0,0,0,2,1,0,0,0,0,0,0,0,0,1,0,0,0,0,0,0,0,0,0,0,0,0,0,0,0,0,0,0,1,0,0,0,0,0,1,0,0,0,0,0,0,0,0,1,1,0,0,1,0,0,0,0,0,0,0,0,0,0,0,38,10,1,9,1,NEIGHBORHOOD PARK,10,30,38,60639
132,GREENBAUM (HENRY),1729 N KILDARE AVE,1.65,Greenbaum,0,0,0,0,0,0,2,1,0,0,0,0,0,0,0,0,0,0,0,0,0,0,0,0,0,0,0,0,0,0,0,0,0,0,0,1,0,0,0,0,0,1,0,0,1,0,0,0,0,0,1,0,0,0,0,0,0,0,0,0,0,0,0,0,0,0,38,10,1,7,1,NEIGHBORHOOD PARK,10,30,38,60639
130,GALEWOOD,5729 W BLOOMINGDALE AVE,2.12,Galewood,0,0,0,0,0,0,3,2,0,0,0,0,0,0,0,0,1,0,0,0,0,0,0,0,0,0,0,0,0,0,0,0,0,0,0,2,0,0,0,0,0,1,0,0,0,0,0,0,0,0,1,0,0,0,1,0,0,0,0,0,0,0,0,0,0,0,38,10,1,11,1,NEIGHBORHOOD PARK,10,30,38,60639
1093,DEGEORGE (BERNICE),4905 W WABANSIA AVE,0.29,Degeorge,0,0,0,0,0,0,0,0,0,0,0,0,0,0,0,0,0,0,0,0,0,0,0,0,0,0,0,0,0,0,0,0,0,0,0,0,0,0,0,0,0,0,1,0,0,0,0,0,0,0,0,0,0,0,0,0,0,0,0,0,0,0,0,0,0,0,38,10,3,1,3,MINI-PARK,10,30,38,60639
501,PARSONS (LUCY),4701 W BELMONT AVE,0.3,Parsons,0,0,0,0,0,0,0,0,0,0,0,0,0,0,0,0,0,0,0,0,0,0,0,0,0,0,0,0,0,0,0,0,0,0,0,0,0,0,0,0,0,0,1,0,0,0,0,0,0,0,1,0,0,0,0,0,0,0,0,0,0,0,0,0,0,0,8,10,6,2,6,UNIMPROVED PARK,10,30,8,60641
188,GREEN BRIAR,2650 W PETERSON AVE,3.33,Green Briar,0,0,0,0,0,0,2,1,0,0,0,0,0,0,0,0,0,0,0,0,0,0,0,0,0,0,0,0,1,0,0,0,0,0,0,2,0,0,0,0,0,1,0,0,0,0,0,0,0,0,1,0,1,0,0,0,0,0,0,0,0,0,0,0,0,0,53,11,10,9,10,COMMUNITY PARK,11,40,53,60659
241,MATHER (STEPHEN TYNG),5835 N LINCOLN AVE,14.06,Mather,0,0,0,0,0,0,4,2,0,0,0,0,0,0,0,0,2,0,0,0,0,0,0,0,0,0,0,0,0,0,0,0,4,0,0,4,0,0,0,0,0,1,0,0,0,0,0,0,0,0,0,1,6,0,0,0,0,0,0,0,0,0,0,0,0,0,53,11,9,24,9,REGIONAL PARK,11,40,53,60659
1031,GROSS,2708 W LAWRENCE AVE,1.4,Gross,0,0,0,0,0,0,4,1,0,0,0,0,0,0,0,0,1,0,0,0,0,0,0,0,0,0,0,0,0,0,0,0,0,0,0,0,0,0,0,0,0,1,0,0,0,0,0,0,0,0,0,0,0,0,0,0,0,0,0,0,0,0,0,0,0,0,44,11,1,7,1,NEIGHBORHOOD PARK,11,40,44,60625
156,JACOB,4674 N VIRGINIA AVE,0.39,Jacob,0,0,0,0,0,0,0,0,0,0,0,0,0,0,0,0,0,0,0,0,0,0,0,0,0,0,0,0,0,0,0,0,0,0,0,0,0,0,0,0,0,0,1,0,0,0,0,0,0,0,0,0,0,0,0,0,0,0,0,0,0,0,0,0,0,0,44,11,3,1,3,MINI-PARK,11,40,44,60625
159,RAVENSWOOD MANOR,4626 N MANOR AVE,0.54,Ravenswood Manor,0,0,0,0,0,0,0,0,0,0,0,0,0,0,0,0,0,0,0,0,0,0,0,0,0,0,0,0,0,0,0,0,0,0,0,0,0,0,0,0,0,1,0,0,0,0,0,0,0,0,0,0,0,0,0,0,0,0,0,0,0,0,0,0,0,0,44,11,1,1,1,NEIGHBORHOOD PARK,11,40,44,60625
157,BUFFALO,4500 N CALIFORNIA AVE,0.07,Buffalo,0,0,0,0,0,0,0,0,0,0,0,0,0,0,0,0,0,0,0,0,0,0,0,0,0,0,0,0,0,0,0,0,0,0,0,0,0,0,0,0,0,0,0,0,0,0,0,0,0,0,0,0,0,0,0,0,0,0,0,0,0,0,0,0,0,0,44,11,4,0,4,PASSIVE PARK,11,40,44,60625
1219,"MELLIN (CURTIS, SR.)",1600 W BRYN MAWR AVE,0.29,Mellin,0,0,0,0,0,0,0,0,0,0,0,0,0,0,0,0,0,0,0,0,0,0,0,0,0,0,0,0,0,0,0,0,0,0,0,0,0,0,0,0,0,0,1,0,0,0,0,0,0,0,0,0,0,0,0,0,0,0,0,0,0,0,0,0,0,0,30,11,3,1,3,MINI-PARK,11,40,30,60640
1078,ANDERSONVILLE,5233 N ASHLAND AVE,0.22,Andersonville,0,0,0,0,0,0,0,0,0,0,0,0,0,0,0,0,0,0,0,0,0,0,0,0,0,0,0,0,0,0,0,0,0,0,0,0,0,0,0,0,0,0,1,0,0,0,0,0,0,0,0,0,0,0,0,0,0,0,0,0,0,0,0,0,0,0,30,11,3,1,3,MINI-PARK,11,40,30,60640
228,HORNER (HENRY),2741 W MONTROSE AVE,54.84,Horner,0,0,0,0,0,0,4,2,0,0,0,0,0,0,0,0,4,0,0,0,0,1,0,0,0,0,0,0,1,0,0,0,0,0,0,9,0,0,0,0,0,1,0,0,0,0,0,0,0,0,0,3,6,0,0,0,0,0,0,0,0,0,0,0,0,0,15,11,9,31,9,REGIONAL PARK,11,40,15,60618
1077,LANGDON (MARY MARGARET),1754 W ALBION AVE,0.34,Langdon,0,0,0,0,0,0,0,0,0,0,0,0,0,0,0,0,0,0,0,0,0,0,0,0,0,0,0,0,0,0,0,0,0,0,0,0,0,0,0,0,0,0,1,0,0,0,0,0,0,0,0,0,0,0,0,0,0,0,0,0,0,0,0,0,0,0,14,11,3,1,3,MINI-PARK,11,40,14,60626
1061,SCHREIBER,1552 W SCHREIBER AVE,1.71,Schreiber,0,0,0,0,0,0,2,1,0,0,0,0,0,0,0,0,1,1,0,0,0,0,0,0,0,0,0,0,0,0,0,0,0,0,0,0,0,0,0,0,0,1,0,0,0,0,0,0,0,0,1,0,0,0,0,0,0,0,0,0,0,0,0,0,0,0,14,11,1,7,1,NEIGHBORHOOD PARK,11,40,14,60626
408,CURIE (MARIE),4959 S ARCHER AVE,9,Curie,0,0,0,0,0,0,4,1,0,0,0,0,0,0,0,0,3,0,0,0,0,0,0,0,0,0,0,0,1,0,0,0,0,0,1,3,0,0,0,0,0,0,0,0,0,0,0,0,0,0,0,1,5,0,1,0,0,0,0,0,0,0,0,0,0,0,45,12,10,20,10,COMMUNITY PARK,12,23,45,60632
250,ARCHER (WILLIAM BEATTY),4901 S KILBOURN AVE,13.22,Archer,0,0,0,1,0,0,2,1,0,0,0,0,0,0,0,0,1,0,0,0,0,1,0,0,0,0,0,0,1,0,0,0,4,0,0,4,0,0,0,0,0,1,0,0,0,0,0,0,0,0,1,2,1,0,0,1,0,0,0,0,0,0,0,0,0,0,45,12,10,21,10,COMMUNITY PARK,12,23,45,60632
1016,STROHACKER (HOWARD),4347 W 54TH ST,3.68,Strohacker,0,0,0,0,0,0,0,0,0,0,0,0,0,0,0,0,1,0,0,0,0,0,0,0,0,0,0,0,0,0,0,0,1,0,0,2,0,0,0,0,0,2,0,0,0,0,0,0,0,0,1,0,0,0,1,0,0,0,0,0,0,0,0,0,0,0,45,12,1,8,1,NEIGHBORHOOD PARK,12,23,45,60632
233,VITTUM (HARRIET ELIZABETH),5014 W 50TH ST,12.15,Vittum,0,0,0,0,0,0,2,1,0,0,0,0,0,0,0,0,1,0,0,0,0,0,0,0,0,0,0,0,1,0,0,0,4,0,0,4,0,0,0,0,0,1,0,0,0,0,0,0,0,0,1,1,2,0,1,0,0,0,0,0,0,0,0,0,0,0,10,12,10,19,10,COMMUNITY PARK,12,23,10,60638
370,STARS & STRIPES,7000 W 51ST PL,1.95,Stars & Stripes,0,0,0,0,0,0,0,0,0,0,0,0,0,0,0,0,0,0,0,0,0,0,0,0,0,0,0,0,0,0,0,0,0,0,0,1,0,0,0,0,0,1,0,0,1,0,0,0,0,0,1,0,0,0,0,0,0,0,0,0,0,0,0,0,0,0,10,12,1,4,1,NEIGHBORHOOD PARK,12,23,10,60638
1054,NORMANDY,6660 W 52ND ST,2.46,Normandy,0,0,0,0,0,0,2,1,0,0,0,0,0,0,0,0,1,0,0,0,0,0,0,0,0,0,0,0,0,0,0,0,0,0,0,1,0,0,0,0,0,1,0,0,0,0,0,0,0,0,0,0,0,0,1,0,0,0,0,0,0,0,0,0,0,0,10,12,1,7,1,NEIGHBORHOOD PARK,12,23,10,60638
238,WENTWORTH (JOHN),5625 S MOBILE AVE,20.11,Wentworth (John),0,0,0,0,0,0,6,3,0,0,0,0,0,0,0,0,1,0,0,0,0,0,0,0,0,0,0,0,0,0,0,0,0,0,0,2,0,0,0,0,0,1,0,0,0,0,0,0,0,0,1,2,4,0,0,0,0,0,0,0,0,0,0,0,0,0,10,12,9,20,9,REGIONAL PARK,12,23,10,60638
371,VALLEY FORGE,7001 W 59TH ST,7.74,Valley Forge,0,0,0,0,0,0,4,1,0,0,0,0,0,0,0,0,1,0,0,0,0,1,0,0,0,0,0,0,1,0,0,0,2,0,0,2,0,0,0,0,0,1,0,0,0,0,0,0,0,0,0,0,2,0,2,0,0,0,0,0,0,0,0,0,0,0,10,12,10,17,10,COMMUNITY PARK,12,23,10,60638
234,HALE (NATHAN),6140 S MELVINA AVE,16.6,Hale,0,0,0,0,0,0,0,0,0,0,0,0,2,0,0,0,1,0,0,0,0,0,0,0,0,0,0,0,1,0,0,0,0,0,0,2,0,0,1,0,0,1,0,0,0,0,0,0,0,0,0,2,2,0,0,1,0,0,0,0,0,0,0,0,0,0,10,12,9,13,9,REGIONAL PARK,12,23,10,60638
505,NOTTINGHAM,7101 W 63RD ST,0.48,Nottingham,0,0,0,0,0,0,0,0,0,0,0,0,0,0,0,0,0,0,0,0,0,0,0,0,0,0,0,0,0,0,0,0,0,0,0,0,0,0,0,0,0,0,0,0,0,0,0,0,0,0,0,0,0,0,0,0,0,0,0,0,0,0,0,0,0,0,10,12,4,0,4,PASSIVE PARK,12,23,10,60638
527,PARK NO. 527,6200 S LaSALLE ST,5.22,Park No. 527,0,0,0,0,0,0,0,0,0,0,0,0,0,0,0,0,0,0,0,0,0,0,0,0,0,0,0,0,0,0,0,0,0,0,0,0,0,0,0,0,0,0,0,0,0,0,0,0,0,0,0,0,0,0,0,0,0,0,0,0,0,0,0,0,0,0,46,13,6,0,6,UNIMPROVED PARK,13,20,46,60621
524,HARRIS (HARRIET),6200 S DREXEL AVE,2.03,Harris (Harriet),0,0,0,0,0,0,0,0,0,0,0,0,0,0,0,0,0,0,0,0,0,1,0,0,0,0,0,0,1,0,0,0,0,0,1,0,0,0,0,0,0,1,0,0,0,0,0,0,0,0,0,0,0,0,0,0,0,0,0,0,0,0,0,0,0,0,7,13,10,4,10,COMMUNITY PARK,13,20,7,60637
1111,HANSBERRY (LORRAINE),5635 S INDIANA AVE,0.25,Hansberry,0,0,0,0,0,0,0,0,0,0,0,0,0,0,0,0,0,0,0,0,0,0,0,0,0,0,0,0,0,0,0,0,0,0,0,0,0,0,0,0,0,0,1,0,0,0,0,0,0,0,0,0,0,0,0,0,0,0,0,0,0,0,0,0,0,0,7,13,3,1,3,MINI-PARK,13,20,7,60637
336,HUCKLEBERRY,6200 S KIMBARK AVE,0.19,Huckleberry,0,0,0,0,0,0,0,0,0,0,0,0,0,0,0,0,0,0,0,0,0,0,0,0,0,0,0,0,0,0,0,0,0,0,0,0,0,0,0,0,0,0,1,0,0,0,0,0,0,0,0,0,0,0,0,0,0,0,0,0,0,0,0,0,0,0,7,13,3,1,3,MINI-PARK,13,20,7,60637
329,PRAIRIE WOLF,6310 S DREXEL AVE,0.15,Prairie Wolf,0,0,0,0,0,0,0,0,0,0,0,0,0,0,0,0,0,0,0,0,0,0,0,0,0,0,0,0,0,0,0,0,0,0,0,0,0,0,0,0,0,0,1,0,0,0,0,0,0,0,1,0,0,0,0,0,0,0,0,0,0,0,0,0,0,0,7,13,3,2,3,MINI-PARK,13,20,7,60637
1154,TILL-MOBLEY (MAMIE),6410 S ELLIS AVE,0.43,Till-Mobley,0,0,0,0,0,0,4,2,0,0,0,0,0,0,0,0,0,0,0,0,0,0,0,0,0,0,0,0,0,0,0,0,0,0,0,0,0,0,0,0,0,1,0,0,0,0,0,0,0,0,0,0,0,0,0,0,0,0,0,0,0,0,0,0,0,0,7,13,3,7,3,MINI-PARK,13,20,7,60637
326,PARK NO. 326,6430 S KENWOOD AVE,0.18,Park No. 326,0,0,0,0,0,0,0,0,0,0,0,0,0,0,0,0,0,0,0,0,0,0,0,0,0,0,0,0,0,0,0,0,0,0,0,0,0,0,0,0,0,0,0,0,0,0,0,0,0,0,0,0,0,0,0,0,0,0,0,0,0,0,0,0,0,0,7,13,3,0,3,MINI-PARK,13,20,7,60637
337,MOCCASIN RANCH,6446 S KIMBARK AVE,0.17,Moccasin Ranch,0,0,0,0,0,0,0,0,0,0,0,0,0,0,0,0,0,0,0,0,0,0,0,0,0,0,0,0,0,0,0,0,0,0,0,0,0,0,0,0,0,0,1,0,0,0,0,0,0,0,0,0,0,0,0,0,0,0,0,0,0,0,0,0,0,0,7,13,3,1,3,MINI-PARK,13,20,7,60637
331,FLYING SQUIRREL,6600 S WOODLAWN AVE,0.16,Flying Squirrel,0,0,0,0,0,0,0,0,0,0,0,0,0,0,0,0,0,0,0,0,0,0,0,0,0,0,0,0,0,0,0,0,0,0,0,0,0,0,0,0,0,0,1,0,0,0,0,0,0,0,0,0,0,0,0,0,0,0,0,0,0,0,0,0,0,0,7,13,3,1,3,MINI-PARK,13,20,7,60637
340,BOSWELL (ARNITA YOUNG),6646 S UNIVERSITY AVE,0.29,Boswell,0,0,0,0,0,0,0,0,0,0,0,0,0,0,0,0,0,0,0,0,0,0,0,0,0,0,0,0,0,0,0,0,0,0,0,0,0,0,0,0,0,0,1,0,0,0,0,0,0,0,0,0,0,0,0,0,0,0,0,0,0,0,0,0,0,0,7,13,3,1,3,MINI-PARK,13,20,7,60637
1275,CHESTNUT,7005 S DANTE AVE,0.37,Chestnut,0,0,0,0,0,0,2,1,0,0,0,0,0,0,0,0,0,0,0,0,0,0,0,0,0,0,0,0,0,0,0,0,0,0,0,0,0,0,0,0,0,0,1,0,0,0,0,0,0,0,0,0,0,0,0,0,0,0,0,0,0,0,0,0,0,0,7,13,3,4,3,MINI-PARK,13,20,7,60637
398,SHEIL (BERNARD) COMM. CTR.,3505 N SOUTHPORT AVE,0.41,Sheil Comm. Ctr.,0,0,0,0,0,0,0,0,0,0,0,0,0,0,0,0,0,0,0,0,0,0,0,0,0,0,0,0,1,0,0,0,0,0,0,0,0,0,0,0,0,1,0,0,0,0,0,0,0,0,0,0,0,0,0,0,0,0,0,0,0,0,0,0,0,0,54,14,10,2,10,COMMUNITY PARK,14,44,54,60657
1145,WENDT (KENNETH),667 W ROSCOE ST,0.15,Wendt,0,0,0,0,0,0,0,0,0,0,0,0,0,0,0,0,0,0,0,0,0,0,0,0,0,0,0,0,0,0,0,0,0,0,0,0,0,0,0,0,0,0,1,0,0,0,0,0,0,0,0,0,0,0,0,0,0,0,0,0,0,0,0,0,0,0,54,14,3,1,3,MINI-PARK,14,44,54,60657
1276,EVERGREEN,631 W BELMONT AVE,0.14,Evergreen,0,0,0,0,0,0,0,0,0,0,0,0,0,0,0,0,0,0,0,0,0,0,0,0,0,0,0,0,0,0,0,0,0,0,0,0,0,0,0,0,0,0,1,0,0,0,0,0,0,0,0,0,0,0,0,0,0,0,0,0,0,0,0,0,0,0,54,14,3,1,3,MINI-PARK,14,44,54,60657
447,MARTIN (JOHNNY),922 W FLETCHER ST,0.13,Martin,0,0,0,0,0,0,0,0,0,0,0,0,0,0,0,0,0,0,0,0,0,0,0,0,0,0,0,0,0,0,0,0,0,0,0,0,0,0,0,0,0,0,1,0,0,0,0,0,0,0,0,0,0,0,0,0,0,0,0,0,0,0,0,0,0,0,54,14,3,1,3,MINI-PARK,14,44,54,60657
1115,KENMORE,3141 N KENMORE AVE,0.14,Kenmore,0,0,0,0,0,0,0,0,0,0,0,0,0,0,0,0,0,0,0,0,0,0,0,0,0,0,0,0,0,0,0,0,0,0,0,0,0,0,0,0,0,0,1,0,0,0,0,0,0,0,0,0,0,0,0,0,0,0,0,0,0,0,0,0,0,0,54,14,3,1,3,MINI-PARK,14,44,54,60657
1135,WEISMAN (ALBERT),901 W OAKDALE AVE,0.3,Weisman,0,0,0,0,0,0,0,0,0,0,0,0,0,0,0,0,0,0,0,0,0,0,0,0,0,0,0,0,0,0,0,0,0,0,0,0,0,0,0,0,0,0,1,0,0,0,0,0,0,0,1,0,0,0,0,0,0,0,0,0,0,0,0,0,0,0,54,14,3,2,3,MINI-PARK,14,44,54,60657
290,SOUTH LAKEVIEW,1300 W WOLFRAM ST,0.68,South Lakeview,0,0,0,0,0,0,4,1,0,0,0,0,0,0,0,0,0,0,0,0,0,0,0,0,0,0,0,0,0,0,0,0,0,0,0,0,0,0,0,0,0,1,0,0,0,0,0,0,0,0,0,0,0,0,0,0,0,0,0,0,0,0,0,0,0,0,54,14,1,6,1,NEIGHBORHOOD PARK,14,44,54,60657
493,KELLY (JOHN),3800 N SEMINARY AVE,1.32,Kelly (John),0,0,0,0,0,0,0,0,0,0,0,0,0,0,0,0,0,1,0,0,0,0,0,0,0,0,0,0,0,0,0,0,0,0,0,0,0,0,0,0,0,1,0,0,0,0,0,0,0,0,0,0,0,0,0,0,0,0,0,0,0,0,0,0,0,0,23,14,4,2,4,PASSIVE PARK,14,44,23,60613
1113,JEFFERSON (THOMAS),1640 S JEFFERSON ST,1.87,Jefferson (Thomas),0,0,0,0,0,0,0,0,0,0,0,0,0,0,0,0,0,0,0,0,0,0,0,0,0,0,0,0,0,0,0,0,0,0,0,0,0,0,0,0,0,1,0,0,0,0,0,0,0,0,0,0,0,0,0,0,0,0,0,0,0,0,0,0,0,0,29,15,1,1,1,NEIGHBORHOOD PARK,15,25,29,60616
216,DVORAK (ANTON),1119 W CULLERTON ST,5.63,Dvorak,0,0,0,0,0,0,2,1,0,0,0,0,0,0,0,0,2,0,0,0,0,0,0,0,0,0,0,0,1,0,0,0,0,0,0,1,0,0,1,0,0,2,0,0,0,0,0,0,0,0,1,0,0,0,1,0,0,0,0,0,0,0,0,0,0,0,19,15,10,12,10,COMMUNITY PARK,15,25,19,60608
1159,THROOP (AMOS GAGER),1811 S THROOP ST,0.64,Throop,0,0,0,0,0,0,2,1,0,0,0,0,0,0,0,0,0,0,0,0,0,0,0,0,0,0,0,0,0,0,0,0,0,0,0,0,0,0,0,0,0,1,0,0,0,0,0,0,0,0,1,0,0,0,0,0,0,0,0,0,0,0,0,0,0,0,19,15,1,5,1,NEIGHBORHOOD PARK,15,25,19,60608
213,HARRISON (CARTER),1824 S WOOD ST,17.39,Harrison,0,0,0,0,0,0,4,2,0,0,0,0,0,0,0,0,1,0,0,0,0,1,0,0,0,0,0,0,2,1,0,0,3,0,1,4,0,0,0,0,0,1,0,0,0,0,0,0,0,0,0,2,4,0,0,0,0,1,0,0,0,0,0,0,0,0,19,15,9,27,9,REGIONAL PARK,15,25,19,60608
352,REYES (GUADALUPE),827 W 19TH ST,0.4,Reyes,0,0,0,0,0,0,4,1,0,0,0,0,0,0,0,0,0,0,0,0,0,0,0,0,0,0,0,0,0,0,0,0,0,0,0,0,0,0,0,0,0,0,0,0,0,0,0,0,0,0,0,0,0,0,0,0,0,0,0,0,0,0,0,0,0,0,19,15,3,5,3,MINI-PARK,15,25,19,60608
1022,BARRETT (JOHN),2022 W CERMAK RD,0.65,Barrett,0,0,0,0,0,0,2,1,0,0,0,0,0,0,0,0,0,0,0,0,0,0,0,0,0,0,0,0,0,0,0,0,0,0,0,0,0,0,0,0,0,1,0,0,0,0,0,0,0,0,0,0,0,0,0,0,0,0,0,0,0,0,0,0,0,0,19,15,1,4,1,NEIGHBORHOOD PARK,15,25,19,60608
295,BARAGA (FREDERICK),2440 S LEAVITT ST,0.42,Baraga,0,0,0,0,0,0,2,1,0,0,0,0,0,0,0,0,0,0,0,0,0,0,0,0,0,0,0,0,0,0,0,0,0,0,0,0,0,0,0,0,0,0,1,0,0,0,0,0,0,0,0,0,0,0,0,0,0,0,0,0,0,0,0,0,0,0,19,15,3,4,3,MINI-PARK,15,25,19,60608
1070,WASHTENAW,2521 S WASHTENAW AVE,0.83,Washtenaw,0,0,0,0,0,0,0,0,0,0,0,0,0,0,0,0,0,0,0,0,0,0,0,0,0,0,0,0,0,0,0,0,0,0,0,1,0,0,0,0,0,1,0,0,0,0,0,0,0,0,1,0,0,0,0,0,0,0,0,0,0,0,0,0,0,0,19,15,1,3,1,NEIGHBORHOOD PARK,15,25,19,60608
510,PARK NO. 510,2139-59 W. LEXINGTON ST,1.97,Park No. 510,0,0,0,0,0,0,0,0,0,0,0,0,0,0,0,0,1,0,0,0,0,0,0,0,0,0,0,0,0,0,0,0,0,0,0,0,0,0,0,0,0,0,0,0,0,0,0,0,0,0,0,2,0,0,0,0,0,0,0,0,0,0,0,0,0,0,2,15,6,3,6,UNIMPROVED PARK,15,25,2,60612
466,ROOSEVELT (THEODORE),62 W ROOSEVELT RD,1.64,Roosevelt,0,0,0,0,0,0,0,0,0,0,0,0,0,0,0,0,0,0,0,0,0,0,0,0,0,0,0,0,0,0,0,0,0,0,0,0,0,0,0,0,0,1,0,0,0,0,0,0,0,0,0,0,3,0,0,0,0,0,0,0,0,0,0,0,0,0,35,16,1,4,1,NEIGHBORHOOD PARK,16,1,35,60605
465,DEARBORN (HENRY),865 S PARK TER,1.28,Dearborn,0,0,0,0,0,0,0,0,0,0,0,0,0,0,0,0,0,0,0,0,0,0,1,0,0,0,0,0,0,0,0,0,0,0,0,0,0,0,0,0,0,0,0,0,0,0,0,0,0,0,0,0,0,0,0,0,0,0,0,0,0,0,0,0,0,0,35,16,4,1,4,PASSIVE PARK,16,1,35,60605
34,NORTHERLY ISLAND,1400 S LYNN WHITE DR,91.2,Northerly Island,0,0,0,0,0,0,0,0,1,0,0,0,0,0,0,0,0,0,0,0,0,0,0,0,0,0,0,0,0,0,0,0,0,0,0,0,0,0,0,0,0,0,0,0,0,0,0,0,0,0,0,0,0,0,0,0,0,0,0,0,0,0,0,0,0,0,35,16,5,1,5,MAGNET PARK,16,1,35,60605
1128,MILLER (SAMUEL),848 S MILLER ST,0.11,Miller,0,0,0,0,0,0,0,0,0,0,0,0,0,0,0,0,0,0,0,0,0,0,0,0,0,0,0,0,0,0,0,0,0,0,0,0,0,0,0,0,0,0,1,0,0,0,0,0,0,0,0,0,0,0,0,0,0,0,0,0,0,0,0,0,0,0,34,16,3,1,3,MINI-PARK,16,1,34,60607
1047,GARIBALDI (GIUSEPPI),1520 W POLK ST,2.45,Garibaldi,0,0,0,0,0,0,0,0,0,0,0,0,0,0,0,0,0,0,0,0,0,0,0,0,0,0,0,0,0,0,0,0,0,0,0,0,0,0,0,0,0,1,0,0,0,0,0,0,0,0,0,0,0,0,0,0,0,0,0,0,0,0,0,0,0,0,34,16,1,1,1,NEIGHBORHOOD PARK,16,1,34,60607
215,ARRIGO (VICTOR),1250 W LEXINGTON ST,6.45,Arrigo,0,0,0,0,0,0,0,0,0,0,0,0,0,0,0,0,1,0,0,0,0,0,0,0,0,0,0,0,0,0,0,0,0,0,0,0,0,0,0,0,0,0,0,0,0,0,0,0,0,0,0,0,0,0,0,0,0,0,0,0,0,0,0,0,0,0,34,16,10,1,10,COMMUNITY PARK,16,1,34,60607
205,SHERIDAN (PHILIP HENRY),910 S ABERDEEN ST,3.91,Sheridan,0,0,0,0,0,0,0,0,0,0,0,0,1,0,0,0,1,0,0,0,0,1,0,0,0,0,0,0,1,0,0,0,1,0,1,4,0,0,0,0,0,1,0,0,0,0,0,0,0,1,0,0,3,0,0,0,0,1,0,0,0,0,0,0,0,0,34,16,10,16,10,COMMUNITY PARK,16,1,34,60607
1207,BICKERDIKE (GEORGE) SQUARE,1438 W OHIO ST,0.52,Bickerdike Square,0,0,0,0,0,0,0,0,0,0,0,0,0,0,0,0,0,0,0,0,0,0,0,0,0,0,0,0,0,0,0,0,0,0,0,0,0,0,0,0,0,0,0,0,0,0,0,0,0,0,0,0,0,0,0,0,0,0,0,0,0,0,0,0,0,0,31,16,4,0,4,PASSIVE PARK,16,1,31,60622
219,HUMBOLDT (BARON VON),1400 N HUMBOLDT DR,206.09,Humboldt,0,0,0,1,0,0,8,3,1,0,0,0,0,0,1,0,0,0,0,0,0,1,0,0,2,0,0,0,1,0,0,0,0,0,0,16,0,0,1,0,0,4,0,0,1,0,0,0,0,0,2,1,8,0,0,0,1,0,1,1,0,0,0,0,0,0,31,16,2,54,2,CITYWIDE PARK,16,1,31,60622
481,TOM (PING) MEML.,300 W 18TH ST,17.36,Ping Tom Memorial,0,0,0,0,0,0,0,0,0,0,0,0,0,0,0,0,0,0,0,0,0,0,0,0,0,0,0,0,0,0,0,0,0,0,0,1,0,0,0,0,0,1,0,0,0,0,0,0,0,0,0,0,0,0,0,0,0,0,0,0,0,0,0,0,0,0,29,16,4,2,4,PASSIVE PARK,16,1,29,60616
479,JONES (MARY RICHARDSON),1240 S PLYMOUTH CT,1.13,Jones,0,0,0,0,0,0,0,0,0,0,0,0,0,0,0,0,0,0,0,0,0,0,0,0,0,0,0,0,0,0,0,0,0,0,0,0,0,0,0,0,0,1,0,0,0,0,0,0,0,0,0,0,0,0,0,0,0,0,0,0,0,0,0,0,0,0,29,16,1,1,1,NEIGHBORHOOD PARK,16,1,29,60616
480,COTTON TAIL,44 W 15TH ST,2.19,Cotton Tail,0,0,0,0,0,0,0,0,0,0,0,0,0,0,0,0,0,0,0,0,0,0,0,0,0,0,0,0,0,0,0,0,0,0,0,0,0,0,0,0,0,1,0,0,0,0,0,0,0,0,0,0,0,0,0,0,0,0,0,0,0,0,0,0,0,0,29,16,1,1,1,NEIGHBORHOOD PARK,16,1,29,60616
451,SUN YAT-SEN,300 W 24TH PL,0.32,Sun Yat-Sen,0,0,0,0,0,0,0,0,0,0,0,0,0,0,0,0,0,0,0,0,0,0,0,0,0,0,0,0,0,0,0,0,0,0,0,0,0,0,0,0,0,1,0,0,0,0,0,0,0,0,0,0,0,0,0,0,0,0,0,0,0,0,0,0,0,0,29,16,3,1,3,MINI-PARK,16,1,29,60616
262,ADDAMS (JANE),1301 W 14TH ST,13.44,Addams (Jane),0,0,0,0,0,0,2,1,0,0,0,0,0,0,0,0,2,0,0,0,0,0,0,0,0,0,0,0,0,0,0,0,0,0,0,0,0,0,0,0,0,0,0,0,0,0,0,0,0,0,1,0,0,0,0,0,0,0,0,0,0,0,0,0,0,0,19,16,9,6,9,REGIONAL PARK,16,1,19,60608
1030,FOSCO (PETER),1313 S THROOP ST,3.33,Fosco,0,0,0,0,0,0,0,0,0,0,0,0,0,0,0,0,0,0,0,0,0,1,0,0,0,0,0,0,1,0,0,0,0,0,1,0,0,0,0,0,0,2,0,0,0,0,0,0,0,0,0,0,0,0,0,1,0,0,0,0,0,0,0,0,0,0,19,16,1,6,1,NEIGHBORHOOD PARK,16,1,19,60608
554,PARK NO. 554,1805 N ALBANY AVE,0.44,Park No. 554,0,0,0,0,0,0,0,0,0,0,0,0,0,0,0,0,0,0,0,0,0,0,0,0,0,0,0,0,0,0,0,0,0,0,0,0,0,0,0,0,0,1,0,0,0,0,0,0,0,0,0,0,0,0,0,0,0,0,0,0,0,0,0,0,0,0,41,17,6,1,6,UNIMPROVED PARK,17,26,41,60647
431,FLOWER (LUCY),2554 W MOFFAT ST,0.29,Flower,0,0,0,0,0,0,0,0,0,0,0,0,0,0,0,0,0,1,0,0,0,0,0,0,0,0,0,0,0,0,0,0,0,0,0,0,0,0,0,0,0,0,1,0,0,0,0,0,0,0,0,0,0,0,0,0,0,0,0,0,0,0,0,0,0,0,41,17,3,2,3,MINI-PARK,17,26,41,60647
1045,MAPLEWOOD,1640 N MAPLEWOOD AVE,1.11,Maplewood,0,0,0,0,0,0,2,1,0,0,0,0,0,0,0,0,0,1,0,0,0,0,0,0,0,0,0,0,0,0,0,0,0,0,0,1,0,0,0,0,0,1,0,0,0,0,0,0,0,0,1,0,0,0,0,0,0,0,0,0,0,0,0,0,0,0,41,17,1,7,1,NEIGHBORHOOD PARK,17,26,41,60647
214,"WICKER (CHARLES, JOEL)",1425 N DAMEN AVE,4.03,Wicker,0,0,0,0,0,0,4,2,0,0,0,0,0,0,0,1,1,1,0,0,1,0,0,0,0,0,0,0,1,0,0,0,0,0,0,1,0,0,0,0,0,1,0,0,0,0,0,0,0,0,1,0,0,0,0,0,0,0,0,0,0,0,0,0,0,0,31,17,10,14,10,COMMUNITY PARK,17,26,31,60622
399,PARK NO. 399,1420 N ARTESIAN AVE,0.14,Park No. 399,0,0,0,0,0,0,0,0,0,0,0,0,0,0,0,0,0,0,0,0,0,0,0,0,0,0,0,0,0,0,0,0,0,0,0,0,0,0,0,0,0,0,1,0,0,0,0,0,0,0,0,0,0,0,0,0,0,0,0,0,0,0,0,0,0,0,31,17,3,1,3,MINI-PARK,17,26,31,60622
406,CLEMENTE (ROBERTO),2334 W DIVISION ST,6.02,Clemente,0,0,0,0,0,0,2,1,0,0,0,0,0,0,0,0,1,0,0,0,0,0,0,0,0,0,0,0,1,0,0,0,0,0,1,1,0,0,0,0,0,1,0,0,0,0,0,0,0,0,0,1,2,0,0,0,0,0,0,0,0,0,0,0,0,0,31,17,10,11,10,COMMUNITY PARK,17,26,31,60622
514,PARK NO. 514,1434 N MONTICELLO AVE,0.68,Park No. 514,0,0,0,0,0,0,0,0,0,0,0,0,0,0,0,0,0,0,0,0,0,0,0,0,0,0,0,0,0,0,0,0,0,0,0,0,0,0,0,0,0,0,0,0,0,0,0,0,0,0,0,0,0,0,0,0,0,0,0,0,0,0,0,0,0,0,27,17,4,0,4,PASSIVE PARK,17,26,27,60651
390,D'ELIA (AILEEN),6340 N LAKEWOOD AVE,0.07,D'Elia,0,0,0,0,0,0,0,0,0,0,0,0,0,0,0,0,0,0,0,0,0,0,0,0,0,0,0,0,0,0,0,0,0,0,0,0,0,0,0,0,0,0,1,0,0,0,0,0,0,0,0,0,0,0,0,0,0,0,0,0,0,0,0,0,0,0,20,18,3,1,3,MINI-PARK,18,49,20,60660
1255,BERGER (ALBERT),6227 N SHERIDAN RD,3.18,Berger,0,0,0,0,0,0,0,0,0,0,0,0,0,0,0,0,0,1,0,1,0,0,0,1,0,0,0,0,0,0,0,0,0,0,0,0,0,0,0,0,0,1,0,0,0,0,0,0,0,0,0,0,0,0,0,0,0,0,0,0,0,0,0,0,0,0,20,18,1,4,1,NEIGHBORHOOD PARK,18,49,20,60660
518,PARK NO. 518,1750 W JUNEWAY TER,1.99,Park No. 518,0,0,0,0,0,0,0,0,0,0,0,0,0,0,0,0,0,1,0,0,0,0,0,0,0,0,0,0,0,0,0,0,0,0,0,0,0,0,0,0,0,0,0,0,0,0,0,0,0,0,0,0,0,0,0,0,0,0,0,0,0,0,0,0,0,0,14,18,4,1,4,PASSIVE PARK,18,49,14,60626
1258,JUNEWAY TERR. BEACH,7751 N EASTLAKE TER,0.93,Juneway Terr. Beach,0,0,0,0,0,0,0,0,0,0,0,0,0,0,0,0,0,0,0,0,0,0,0,0,0,0,0,0,0,0,0,0,0,0,0,0,0,0,0,0,0,0,0,0,0,0,0,0,0,0,0,0,0,0,0,0,0,0,0,0,0,0,0,0,0,0,14,18,1,0,1,NEIGHBORHOOD PARK,18,49,14,60626
1262,ROGERS (PHILLIP) BEACH,7705 N EASTLAKE TERRACE,2.28,Rogers (Phillip) Beach,0,0,0,0,0,0,0,0,1,0,0,0,0,0,0,0,0,0,0,0,0,0,0,0,0,0,0,0,0,0,0,0,0,0,0,0,0,0,0,0,0,0,0,0,0,0,0,0,0,0,0,0,2,0,0,0,0,0,0,0,0,0,0,0,0,0,14,18,1,3,1,NEIGHBORHOOD PARK,18,49,14,60626
306,DUBKIN (LEONARD),7442 N ASHLAND Blvd,0.13,Dubkin,0,0,0,0,0,0,0,0,0,0,0,0,0,0,0,0,0,1,0,0,0,0,0,0,0,0,0,0,0,0,0,0,0,0,0,0,0,0,0,0,0,0,0,0,0,0,0,0,0,0,0,0,0,0,0,0,0,0,0,0,0,0,0,0,0,0,14,18,4,1,4,PASSIVE PARK,18,49,14,60626
1253,FARGO (JAMES) BEACH,1300 W FARGO AVE,0.62,Fargo Beach,0,0,0,0,0,0,0,0,1,0,0,0,0,0,0,0,0,0,0,0,0,0,0,0,0,0,0,0,0,0,0,0,0,0,0,0,0,0,0,0,0,0,0,0,0,0,0,0,0,0,0,0,0,0,0,0,0,0,0,0,0,0,0,0,0,0,14,18,4,1,4,PASSIVE PARK,18,49,14,60626
1256,HOWARD (URE) BEACH,1300 W HOWARD ST,0.89,Howard Beach,0,0,0,0,0,0,0,0,1,0,0,0,0,0,0,0,0,0,0,0,0,0,0,0,0,0,0,0,0,0,0,0,0,0,0,0,0,0,0,0,0,1,0,0,0,0,0,0,0,0,0,0,0,0,0,0,0,0,0,0,0,0,0,0,0,0,14,18,1,2,1,NEIGHBORHOOD PARK,18,49,14,60626
166,POTTAWATTOMIE,7340 N ROGERS AVE,8.79,Pottawattomie,0,0,0,0,0,0,4,2,0,0,0,0,0,0,0,0,1,0,0,0,0,1,0,0,0,0,0,0,1,0,0,0,0,0,0,2,0,0,0,0,0,1,0,0,0,0,0,0,0,0,1,1,2,0,0,0,0,0,0,0,0,0,0,0,0,0,14,18,10,16,10,COMMUNITY PARK,18,49,14,60626
1257,JARVIS (R.J.) BEACH,1234 W JARVIS AVE,0.55,Jarvis Beach,0,0,0,0,0,0,0,0,1,0,0,0,0,0,0,0,0,0,0,0,0,0,0,0,0,0,0,0,0,0,0,0,0,0,0,0,0,0,0,0,0,0,0,0,0,0,0,0,0,0,0,0,0,0,0,0,0,0,0,0,0,0,0,0,0,0,14,18,1,1,1,NEIGHBORHOOD PARK,18,49,14,60626
246,TOUHY (PATRICK),7348 N PAULINA ST,6.35,Touhy,0,0,0,0,0,0,0,0,0,0,0,0,0,0,0,0,1,0,0,0,0,1,0,0,0,0,0,0,1,0,0,0,0,0,0,3,0,0,0,0,0,1,0,0,0,0,0,0,0,0,0,0,2,0,0,0,0,0,0,0,0,0,0,0,0,0,14,18,10,9,10,COMMUNITY PARK,18,49,14,60626
1013,LEONE (SAM) BEACH,1222 W TOUHY AVE,2.54,Leone Beach,0,0,0,0,0,0,0,0,1,0,1,0,0,0,0,0,0,0,0,0,0,0,0,0,0,0,0,0,1,0,0,0,0,0,0,0,0,0,0,0,0,1,0,0,0,0,0,0,0,0,0,0,0,0,0,0,0,0,0,0,0,0,0,0,0,0,14,18,10,4,10,COMMUNITY PARK,18,49,14,60626
115,LOYOLA,1230 W GREENLEAF AVE,21.62,Loyola,0,0,0,0,0,0,2,1,1,0,0,0,0,0,0,0,1,1,0,0,0,0,0,0,0,0,0,0,1,0,0,0,0,0,0,1,0,0,0,0,0,1,0,0,0,0,3,0,0,0,0,1,4,0,0,0,0,1,0,0,0,0,0,0,0,0,14,18,9,18,9,REGIONAL PARK,18,49,14,60626
384,GOLDBERG (LOUIS),7053 N GLENWOOD AVE,0.2,Goldberg,0,0,0,0,0,0,0,0,0,0,0,0,0,0,0,0,0,1,0,0,0,0,0,0,0,0,0,0,0,0,0,0,0,0,0,0,0,0,0,0,0,0,1,0,0,0,0,0,0,0,0,0,0,0,0,0,0,0,0,0,0,0,0,0,0,0,14,18,3,2,3,MINI-PARK,18,49,14,60626
168,MATANKY (EUGENE),6937 N RIDGE BLVD,0.41,Matanky,0,0,0,0,0,0,0,0,0,0,0,0,0,0,0,0,0,0,0,0,0,0,0,0,1,0,0,0,0,0,0,0,0,0,0,0,0,0,0,0,0,1,0,0,0,0,0,0,0,0,0,0,0,0,0,0,0,0,0,0,0,0,0,0,0,0,14,18,3,2,3,MINI-PARK,18,49,14,60626
1261,"PRATT (GEORGE, PAUL) BEACH",1050 W PRATT BLVD,2.31,Pratt Beach,0,0,0,0,0,0,0,0,0,0,0,0,0,0,0,0,0,0,0,0,0,0,0,0,0,0,0,0,0,0,0,0,0,0,0,0,0,0,0,0,0,0,0,0,0,0,0,0,0,0,0,0,0,0,0,0,0,0,0,0,0,0,0,0,0,0,14,18,4,0,4,PASSIVE PARK,18,49,14,60626
1251,COLUMBIA BEACH,1040 W COLUMBIA AVE,0.32,Columbia Beach,0,0,0,0,0,0,0,0,1,0,0,0,0,0,0,0,0,0,0,0,0,0,0,0,0,0,0,0,0,0,0,0,0,0,0,0,0,0,0,0,0,0,0,0,0,0,0,0,0,0,0,0,0,0,0,0,0,0,0,0,0,0,0,0,0,0,14,18,4,1,4,PASSIVE PARK,18,49,14,60626
450,LAZARUS (EMMA),1257 W COLUMBIA AVE,0.16,Lazarus,0,0,0,0,0,0,0,0,0,0,0,0,0,0,0,0,0,0,0,0,0,0,0,0,0,0,0,0,0,0,0,0,0,0,0,0,0,0,0,0,0,0,1,0,0,0,0,0,0,0,0,0,0,0,0,0,0,0,0,0,0,0,0,0,0,0,14,18,3,1,3,MINI-PARK,18,49,14,60626
1260,NORTH SHORE BEACH,1040 W NORTH SHORE AVE,0.66,North Shore Beach,0,0,0,0,0,0,0,0,0,0,0,0,0,0,0,0,0,0,0,0,0,0,0,0,0,0,0,0,0,0,0,0,0,0,0,0,0,0,0,0,0,0,0,0,0,0,0,0,0,0,0,0,0,0,0,0,0,0,0,0,0,0,0,0,0,0,14,18,4,0,4,PASSIVE PARK,18,49,14,60626
1248,HARTIGAN (DAVID) BEACH,1040 W ALBION AVE,2.16,Hartigan Beach,0,0,0,0,0,0,0,0,1,0,0,0,0,0,0,0,0,0,0,0,0,0,0,0,0,0,0,0,0,0,0,0,0,0,0,0,0,0,0,0,0,1,0,0,0,0,0,0,0,0,0,0,0,0,0,0,0,0,0,0,0,0,0,0,0,0,14,18,1,2,1,NEIGHBORHOOD PARK,18,49,14,60626
506,WASHINGTON (HAROLD) MEM.,7710 N PAULINA ST,0.17,Washington (Harold) Mem.,0,0,0,0,0,0,0,0,0,0,0,0,0,0,0,0,0,0,0,0,0,0,0,0,0,0,0,0,0,0,0,0,0,0,0,0,0,0,0,0,0,0,1,0,0,0,0,0,0,0,0,0,0,0,0,0,0,0,0,0,0,0,0,0,0,0,14,18,3,1,3,MINI-PARK,18,49,14,60626
33,RAINEY (EDWARD),4350 W 79TH ST,18.31,Rainey,0,0,0,0,0,0,0,0,0,0,0,0,0,0,0,0,1,0,0,0,0,0,0,0,0,0,0,0,0,0,0,0,0,0,0,2,0,0,0,0,0,1,0,0,1,0,0,0,0,0,0,2,3,0,0,0,0,0,0,0,0,0,0,0,0,0,47,19,9,10,9,REGIONAL PARK,19,13,47,60652
528,PARK NO. 528,6336 S KILBOURN AVE,5.27,Park No. 528,0,0,0,0,0,0,0,0,0,0,0,0,0,0,0,0,0,0,0,0,0,0,0,0,0,0,0,0,0,0,0,0,0,0,0,1,0,0,0,0,0,0,0,0,0,0,0,0,0,0,0,2,0,0,0,0,0,0,0,0,0,0,0,0,0,0,33,19,1,3,1,NEIGHBORHOOD PARK,19,13,33,60629
309,"SENKA (EDWARD ""DUKE"")",5656 S ST LOUIS AVE,18.83,Senka,0,0,0,0,0,0,6,2,0,0,0,0,0,0,0,0,1,0,0,0,0,0,0,0,0,0,0,0,1,0,0,0,0,0,0,2,0,0,0,0,0,1,0,0,0,0,0,0,0,1,1,0,0,0,2,0,0,0,0,0,0,0,0,0,0,0,33,19,9,17,9,REGIONAL PARK,19,13,33,60629
468,PARK NO. 468,4556 W 56TH ST,1.32,Park No. 468,0,0,0,0,0,0,0,0,0,0,0,0,0,0,0,0,0,0,0,0,0,0,0,0,0,0,0,0,0,0,0,0,0,0,0,0,0,0,0,0,0,0,0,0,0,0,0,0,0,0,0,0,0,0,0,0,0,0,0,0,0,0,0,0,0,0,33,19,6,0,6,UNIMPROVED PARK,19,13,33,60629
247,PASTEUR (LOUIS),5825 S KOSTNER AVE,16.87,Pasteur,0,0,0,1,0,0,0,0,0,0,0,0,0,0,0,0,1,0,0,0,0,0,0,0,0,0,0,0,1,0,0,0,0,0,0,4,0,0,0,0,0,1,0,0,1,0,0,0,0,1,1,1,2,0,0,0,0,0,0,0,0,0,0,0,0,0,33,19,9,14,9,REGIONAL PARK,19,13,33,60629
245,WEST LAWN,4233 W 65TH ST,16.73,West Lawn,0,0,0,0,0,1,0,0,0,0,0,0,0,0,0,0,1,0,0,0,0,1,0,0,0,0,0,0,1,0,0,0,0,1,0,2,0,0,0,0,0,1,0,0,0,0,0,0,0,0,1,2,0,0,0,0,0,0,0,0,0,0,0,0,0,0,33,19,9,11,9,REGIONAL PARK,19,13,33,60629
307,MINUTEMAN,5940 S CENTRAL AVE,8.91,Minuteman,0,0,0,0,0,0,8,2,0,0,0,0,0,0,0,0,1,0,0,0,0,0,0,0,0,0,0,0,0,0,0,0,0,0,0,2,0,0,0,0,0,1,0,0,1,0,0,0,0,0,0,2,2,0,0,0,0,0,0,0,0,0,0,0,0,0,10,19,10,19,10,COMMUNITY PARK,19,13,10,60638
1011,LAWLER (MICHAEL),5210 W 64TH ST,6.2,Lawler,0,0,0,0,0,0,6,3,0,0,0,0,0,0,0,0,1,0,0,0,0,0,0,0,0,0,0,0,0,0,0,0,2,0,0,2,0,0,0,0,0,1,0,0,0,0,0,0,0,0,1,0,0,0,0,0,0,0,0,0,0,0,0,0,0,0,10,19,10,16,10,COMMUNITY PARK,19,13,10,60638
484,PARK NO. 484,4701 W MARQUETTE RD,10,Park No. 484,0,0,0,0,0,0,0,0,0,0,0,0,0,0,0,0,0,0,0,0,0,0,0,0,0,0,0,0,0,0,0,0,0,0,0,0,0,0,0,0,0,1,0,0,0,0,0,0,0,0,0,0,0,0,0,0,0,0,0,0,0,0,0,0,0,0,10,19,10,1,10,COMMUNITY PARK,19,13,10,60638
212,SHEDD (JOHN G.),3660 W 23RD ST,1.13,Shedd,0,0,0,0,0,0,3,1,0,0,0,0,0,0,0,0,0,0,0,0,0,0,0,0,0,0,0,0,1,0,0,0,0,0,0,0,0,0,0,0,0,1,0,0,0,0,0,0,0,0,1,0,0,0,0,0,0,0,0,0,0,0,0,0,0,0,40,20,10,7,10,COMMUNITY PARK,20,22,40,60623
1066,LIMAS (JULIANN HOPE),2410 S TRUMBULL AVE,0.34,Limas,0,0,0,0,0,0,0,0,0,0,0,0,0,0,0,0,0,0,0,0,0,0,0,0,0,0,0,0,0,0,0,0,0,0,0,0,0,0,0,0,0,0,1,0,0,0,0,0,0,0,1,0,0,0,0,0,0,0,0,0,0,0,0,0,0,0,40,20,3,2,3,MINI-PARK,20,22,40,60623
453,MIAMI,2754 S TRUMBULL AVE,0.14,Miami,0,0,0,0,0,0,0,0,0,0,0,0,0,0,0,0,0,0,0,0,0,0,0,0,0,0,0,0,0,0,0,0,0,0,0,0,0,0,0,0,0,0,1,0,0,0,0,0,0,0,0,0,0,0,0,0,0,0,0,0,0,0,0,0,0,0,40,20,3,1,3,MINI-PARK,20,22,40,60623
230,PIOTROWSKI (LILLIAN),4200 W 31ST ST,22.93,Piotrowski,0,0,0,1,0,0,0,0,0,0,0,0,0,0,0,0,1,0,0,0,0,1,0,0,0,0,0,0,1,0,0,0,0,0,0,4,0,0,1,0,0,1,0,0,0,0,0,1,0,0,1,2,3,0,1,1,0,0,0,0,0,0,0,0,0,0,40,20,9,19,9,REGIONAL PARK,20,22,40,60623
93,GLADSTONE (WILLIAM),5421 N MENARD AVE,1.25,Gladstone,0,0,0,0,0,0,4,1,0,0,0,0,0,0,0,0,0,0,0,0,0,0,0,0,0,0,0,0,0,0,0,0,0,0,0,1,0,0,0,0,0,1,0,0,0,0,0,0,0,0,1,0,0,0,0,0,0,0,0,0,0,0,0,0,0,0,22,21,1,8,1,NEIGHBORHOOD PARK,21,45,22,60630
70,FOREST GLEN,5073 W BERWYN AVE,0.31,Forest Glen,0,0,0,0,0,0,0,0,0,0,0,0,0,0,0,0,0,0,0,0,0,0,0,0,0,0,0,0,0,0,0,0,0,0,0,0,0,0,0,0,0,0,1,0,0,0,0,0,0,0,0,0,0,0,0,0,0,0,0,0,0,0,0,0,0,0,22,21,3,1,3,MINI-PARK,21,45,22,60630
285,AUSTIN FOSTER,6020 W FOSTER AVE,4.41,Austin Foster,0,0,0,0,0,0,0,0,0,0,0,0,0,0,0,0,0,0,0,0,0,0,0,0,0,0,0,0,0,0,0,0,0,0,0,2,0,0,0,0,0,1,0,0,0,0,0,0,0,0,0,0,0,0,0,0,0,0,0,0,0,0,0,0,0,0,22,21,1,3,1,NEIGHBORHOOD PARK,21,45,22,60630
95,ROBERTS (DANIEL) SQUARE,5230 W ARGYLE ST,3.67,Roberts Square,0,0,0,0,0,0,0,0,0,0,0,0,0,0,0,0,0,0,0,0,0,0,0,0,0,0,0,0,0,0,0,0,0,0,0,0,0,0,0,0,0,1,0,0,0,0,0,0,0,0,1,0,0,0,0,0,0,0,0,0,0,0,0,0,0,0,22,21,1,2,1,NEIGHBORHOOD PARK,21,45,22,60630
94,JEFFERSON (THOMAS) MEML.,4822 N LONG AVE,7.16,Jefferson (Thomas) Memorial,0,0,0,0,0,0,0,0,0,0,0,0,0,0,0,0,0,0,0,0,0,0,0,0,0,0,0,0,1,0,0,0,0,0,0,1,0,0,1,0,0,1,0,0,0,0,0,0,0,0,1,1,3,0,1,0,0,0,0,0,0,0,0,0,0,0,22,21,10,10,10,COMMUNITY PARK,21,45,22,60630
427,ASHMORE,4807 W GUNNISON ST,0.14,Ashmore,0,0,0,0,0,0,0,0,0,0,0,0,0,0,0,0,0,0,0,0,0,0,0,0,0,0,0,0,0,0,0,0,0,0,0,0,0,0,0,0,0,0,1,0,0,0,0,0,0,0,0,0,0,0,0,0,0,0,0,0,0,0,0,0,0,0,22,21,3,1,3,MINI-PARK,21,45,22,60630
1119,THUIS (GRACE ZWIEFKA),4800 N LAVERGNE AVE,0.3,Thuis,0,0,0,0,0,0,0,0,0,0,0,0,0,0,0,0,0,0,0,0,0,0,0,0,0,0,0,0,0,0,0,0,0,0,0,0,0,0,0,0,0,1,0,0,0,0,0,0,0,0,0,0,0,0,0,0,0,0,0,0,0,0,0,0,0,0,22,21,3,1,3,MINI-PARK,21,45,22,60630
145,WILSON (FRANK),4630 N MILWAUKEE AVE,8.81,Wilson (Frank),0,0,0,0,0,0,4,1,0,0,0,0,0,0,0,0,1,0,0,0,0,0,0,0,0,0,0,0,0,0,0,0,0,0,0,2,0,0,0,0,0,1,0,0,1,0,0,0,0,0,0,0,4,0,0,1,0,0,0,0,0,0,0,0,0,0,22,21,10,15,10,COMMUNITY PARK,21,45,22,60630
86,MAYFAIR,4550 W SUNNYSIDE AVE,2.75,Mayfair,0,0,0,0,0,0,4,1,0,0,0,0,0,0,0,0,1,0,0,0,0,0,0,0,0,0,0,0,0,0,0,0,0,0,0,2,0,0,0,0,0,1,0,0,0,0,0,0,0,0,1,0,0,0,0,0,0,0,0,0,0,0,0,0,0,0,22,21,1,10,1,NEIGHBORHOOD PARK,21,45,22,60630
1038,INDIAN ROAD,6010 W MATSON AVE,2.85,Indian Road,0,0,0,0,0,0,4,1,0,0,0,0,0,0,0,0,0,0,0,0,0,0,0,0,0,0,0,0,0,0,0,0,0,0,0,1,0,0,0,0,0,1,0,0,0,0,0,0,0,0,1,0,0,0,0,0,0,0,0,0,0,0,0,0,0,0,17,21,1,8,1,NEIGHBORHOOD PARK,21,45,17,60646
85,KOLMAR,4143 N KOLMAR AVE,0.87,Kolmar,0,0,0,0,0,0,0,0,0,0,0,0,0,0,0,0,0,0,0,0,0,0,0,0,0,0,0,0,0,0,0,0,0,0,0,1,0,0,0,0,0,1,0,0,0,0,0,0,0,0,0,0,0,0,0,0,0,0,0,0,0,0,0,0,0,0,8,21,1,2,1,NEIGHBORHOOD PARK,21,45,8,60641
1211,DICKINSON (ARTHUR),4117 N LAVERGNE AVE,0.76,Dickinson,0,0,0,0,0,0,0,0,0,0,0,0,0,0,0,0,0,0,0,0,0,0,0,0,0,0,0,0,0,0,0,0,0,0,0,0,0,0,0,0,0,1,0,0,0,0,0,0,0,0,1,0,0,0,0,0,0,0,0,0,0,0,0,0,0,0,8,21,1,2,1,NEIGHBORHOOD PARK,21,45,8,60641
1040,KELLS (GEORGE),3201 W CHICAGO AVE,1.7,Kells,0,0,0,0,0,0,0,0,0,0,0,0,0,0,0,0,0,0,0,0,0,0,0,0,0,0,0,0,0,0,0,0,0,0,0,1,0,0,0,0,0,1,0,0,0,0,0,0,0,0,0,0,0,0,0,0,0,0,0,0,0,0,0,0,0,0,50,22,1,2,1,NEIGHBORHOOD PARK,22,27,50,60624
1087,CENTRAL,721 N CENTRAL PARK AVE,0.2,Central,0,0,0,0,0,0,0,0,0,0,0,0,0,0,0,0,0,0,0,0,0,0,0,0,0,0,0,0,0,0,0,0,0,0,0,0,0,0,0,0,0,0,1,0,0,0,0,0,0,0,0,0,0,0,0,0,0,0,0,0,0,0,0,0,0,0,50,22,3,1,3,MINI-PARK,22,27,50,60624
108,SEWARD (WILLIAM),375 W ELM ST,8.64,Seward,0,0,0,0,0,0,10,5,0,0,0,0,0,0,0,0,0,0,0,0,0,0,0,0,0,0,0,0,1,0,0,0,0,0,0,1,0,0,0,0,0,1,0,0,0,0,0,0,0,0,1,1,0,0,0,0,0,0,0,0,0,0,0,0,0,0,36,22,10,20,10,COMMUNITY PARK,22,27,36,60610
389,SNOWBERRY,1855 W HURON ST,0.16,Snowberry,0,0,0,0,0,0,0,0,0,0,0,0,0,0,0,0,0,0,0,0,0,0,0,0,0,0,0,0,0,0,0,0,0,0,0,0,0,0,0,0,0,0,1,0,0,0,0,0,0,0,1,0,0,0,0,0,0,0,0,0,0,0,0,0,0,0,31,22,3,2,3,MINI-PARK,22,27,31,60622
432,PARK NO. 432,3349 W RICE ST,0.07,Park No. 432,0,0,0,0,0,0,0,0,0,0,0,0,0,0,0,0,0,0,0,0,0,0,0,0,0,0,0,0,0,0,0,0,0,0,0,0,0,0,0,0,0,0,0,0,0,0,0,0,0,0,0,0,0,0,0,0,0,0,0,0,0,0,0,0,0,0,27,22,6,0,6,UNIMPROVED PARK,22,27,27,60651
499,BURNHAM GREENWAY,3925 E 104TH ST,7.14,Burnham Greenway,0,0,0,0,0,0,0,0,0,0,0,0,0,0,0,0,0,0,0,0,0,0,0,0,0,0,0,0,0,0,0,0,0,0,0,0,0,0,0,0,0,0,0,0,0,0,0,0,0,0,0,0,0,0,0,0,0,0,0,0,0,0,0,0,0,0,25,22,10,0,10,COMMUNITY PARK,22,27,25,60617
210,UNION,1501 W RANDOLPH ST,13.46,Union,0,0,0,0,0,0,4,2,0,0,0,0,0,0,0,0,1,1,0,0,0,1,0,0,0,0,0,0,1,0,0,0,2,0,0,3,0,0,1,0,0,1,0,0,0,0,0,0,0,0,1,1,2,0,0,0,0,0,0,0,0,0,0,0,0,0,24,22,10,21,10,COMMUNITY PARK,22,27,24,60606
211,SKINNER (MARK),1331 W  MONROE ST,7.32,Skinner,0,0,0,0,0,0,4,2,0,0,0,0,0,0,0,0,1,0,0,0,0,0,0,0,1,0,0,0,0,0,0,0,0,0,0,2,0,0,0,0,0,1,0,0,0,0,0,0,0,0,1,0,0,0,0,0,0,0,0,0,0,0,0,0,0,0,24,22,10,12,10,COMMUNITY PARK,22,27,24,60606
560,PARK NO. 560,410 W CHICAGO AVE,1.42,Park No. 560,0,0,0,0,0,0,0,0,0,0,0,0,0,0,0,0,0,0,0,0,0,0,0,0,0,0,0,0,0,0,0,0,0,0,0,0,0,0,0,0,0,0,0,0,0,0,0,0,0,0,0,0,0,0,0,0,0,0,0,0,0,0,0,0,0,0,11,22,6,0,6,UNIMPROVED PARK,22,27,11,60654
497,STARR (ELLEN GATES),2306 W MAYPOLE AVE,2,Starr,0,0,0,0,0,0,0,0,0,0,0,0,0,0,0,0,0,0,0,0,0,0,0,0,0,0,0,0,0,0,0,0,0,0,0,0,0,0,0,0,0,1,0,0,0,0,0,0,0,0,0,0,0,0,0,0,0,0,0,0,0,0,0,0,0,0,2,22,1,1,1,NEIGHBORHOOD PARK,22,27,2,60612
1015,SMITH (JOSEPH HIGGINS),2526 W GRAND AVE,9.82,Smith (Joseph Higgins),0,0,0,0,0,0,0,0,0,0,0,0,0,0,0,0,1,0,0,0,0,0,0,0,0,0,0,0,1,0,0,0,0,0,0,2,0,0,1,0,0,1,0,0,0,0,0,0,0,0,1,1,2,0,0,0,0,0,0,0,0,0,0,0,0,0,2,22,10,10,10,COMMUNITY PARK,22,27,2,60612
332,BARBERRY,2827 W ARTHINGTON ST,0.14,Barberry,0,0,0,0,0,0,0,0,0,0,0,0,0,0,0,0,0,0,0,0,0,0,0,0,0,0,0,0,0,0,0,0,0,0,0,0,0,0,0,0,0,0,0,0,0,0,0,0,0,0,0,0,0,0,0,0,0,0,0,0,0,0,0,0,0,0,2,22,6,0,6,UNIMPROVED PARK,22,27,2,60612
396,SNAPPING TURTLE,534 N ALBANY AVE,0.15,Snapping Turtle,0,0,0,0,0,0,0,0,0,0,0,0,0,0,0,0,0,0,0,0,0,0,0,0,0,0,0,0,0,0,0,0,0,0,0,0,0,0,0,0,0,0,1,0,0,0,0,0,0,0,0,0,0,0,0,0,0,0,0,0,0,0,0,0,0,0,2,22,3,1,3,MINI-PARK,22,27,2,60612
338,JEFFERSON (NANCY),3111 W FULTON BLVD,0.63,Jefferson (Nancy),0,0,0,0,0,0,2,1,0,0,0,0,0,0,0,0,0,0,0,0,0,0,0,0,0,0,0,0,0,0,0,0,0,0,0,0,0,0,0,0,0,1,0,0,0,0,0,0,0,0,0,0,0,0,0,0,0,0,0,0,0,0,0,0,0,0,2,22,1,4,1,NEIGHBORHOOD PARK,22,27,2,60612
1059,SAIN (HARRY),2453 W MONROE ST,0.93,Sain,0,0,0,0,0,0,8,2,0,0,0,0,0,0,0,0,0,0,0,0,0,0,0,0,0,0,0,0,0,0,0,0,0,0,0,0,0,0,0,0,0,0,0,0,0,0,0,0,0,0,0,0,1,0,0,0,0,0,0,0,0,0,0,0,0,0,2,22,1,11,1,NEIGHBORHOOD PARK,22,27,2,60612
489,PARK NO. 489,2420 W ADAMS ST,0.7,Park No. 489,0,0,0,0,0,0,0,0,0,0,0,0,0,0,0,0,0,0,0,0,0,0,0,0,0,0,0,0,0,0,0,0,0,0,0,0,0,0,0,0,0,0,1,0,0,0,0,0,0,0,1,0,0,0,0,0,0,0,0,0,0,0,0,0,0,0,2,22,1,2,1,NEIGHBORHOOD PARK,22,27,2,60612
206,ALTGELD (JOHN),515 S WASHTENAW AVE,4.32,Altgeld,0,0,0,0,0,0,2,1,0,0,0,0,0,0,0,0,1,0,0,0,0,1,0,0,0,0,0,0,1,0,0,0,0,0,0,3,0,0,1,0,0,1,0,0,0,0,0,0,0,0,0,1,0,0,0,0,0,0,0,0,0,0,0,0,0,0,2,22,10,12,10,COMMUNITY PARK,22,27,2,60612
400,CLAREMONT,2342 W FLOURNOY ST,0.98,Claremont,0,0,0,0,0,0,0,0,0,0,0,0,0,0,0,0,0,0,0,0,0,0,0,0,0,0,0,0,0,0,0,0,0,0,0,0,0,0,0,0,0,1,0,0,0,0,0,0,0,0,0,0,0,0,0,0,0,0,0,0,0,0,0,0,0,0,2,22,1,1,1,NEIGHBORHOOD PARK,22,27,2,60612
344,DOGWOOD,2734 W POLK ST,0.14,Dogwood,0,0,0,0,0,0,0,0,0,0,0,0,0,0,0,0,0,0,0,0,0,0,0,0,0,0,0,0,0,0,0,0,0,0,0,0,0,0,0,0,0,0,1,0,0,0,0,0,0,0,1,0,0,0,0,0,0,0,0,0,0,0,0,0,0,0,2,22,3,2,3,MINI-PARK,22,27,2,60612
1065,"TOUHY-HERBERT (JOHN, VICTOR)",2106 W ADAMS ST,2.98,Touhy-Herbert,0,0,0,0,0,0,4,2,0,0,0,0,0,0,0,0,0,0,0,0,0,0,0,0,0,0,0,0,0,0,0,0,0,0,0,1,0,0,0,0,0,1,0,0,0,0,0,0,0,0,1,0,0,0,0,0,0,0,0,0,0,0,0,0,0,0,2,22,1,9,1,NEIGHBORHOOD PARK,22,27,2,60612
1215,FERNWOOD PKWY.,9501 S EGGLESTON AVE,8.63,Fernwood Pkwy.,0,0,0,0,0,0,0,0,0,0,0,0,0,0,0,0,0,0,0,0,0,0,0,0,0,0,0,0,0,0,0,0,0,0,0,0,0,0,0,0,0,0,0,0,0,0,0,0,0,0,0,0,0,0,0,0,0,0,0,0,0,0,0,0,0,0,48,23,4,0,4,PASSIVE PARK,23,21,48,60628
272,SMITH (WENDELL),9912 S PRINCETON AVE,4.72,Smith (Wendell),0,0,0,0,0,0,4,2,0,0,0,0,0,0,0,0,0,0,0,0,0,0,0,0,0,0,0,0,0,0,0,0,0,0,0,2,0,0,0,0,0,1,0,0,0,0,0,0,0,0,0,0,0,0,0,0,0,0,0,0,0,0,0,0,0,0,48,23,1,9,1,NEIGHBORHOOD PARK,23,21,48,60628
66,EUCLID,9800 S PARNELL AVE,5.63,Euclid,0,0,0,0,0,0,4,2,0,0,0,0,0,0,0,0,1,0,0,0,0,0,0,0,0,0,0,0,0,0,0,0,0,0,0,2,0,0,0,0,0,1,0,0,0,0,0,0,0,0,1,0,2,0,0,0,0,0,0,0,0,0,0,0,0,0,48,23,10,13,10,COMMUNITY PARK,23,21,48,60628
235,OAKDALE,965 W 95TH ST,9.03,Oakdale,0,0,0,0,0,0,2,1,0,0,0,0,0,0,0,0,1,0,0,0,0,0,0,0,0,0,0,0,0,0,0,0,0,0,0,3,0,0,1,0,0,1,0,0,0,0,0,0,0,0,1,1,0,0,0,0,0,0,0,0,0,0,0,0,0,0,39,23,10,11,10,COMMUNITY PARK,23,21,39,60643
320,ROBICHAUX (JOSEPH),9247 S EGGLESTON AVE,13.3,Robichaux,0,0,0,0,0,0,8,2,0,0,0,0,0,0,0,0,0,0,0,0,0,0,0,0,0,0,0,0,1,0,0,0,0,0,0,2,0,0,0,0,0,1,0,0,0,0,0,0,0,0,1,0,2,0,0,0,0,0,0,0,0,0,0,0,0,0,32,23,10,17,10,COMMUNITY PARK,23,21,32,60620
382,PARK NO. 382,8116 S HALSTED ST,0.67,Park No. 382,0,0,0,0,0,0,0,0,0,0,0,0,0,0,0,0,0,0,0,0,0,0,0,0,0,0,0,0,0,0,0,0,0,0,0,0,0,0,0,0,0,0,0,0,0,0,0,0,0,0,0,0,0,0,0,0,0,0,0,0,0,0,0,0,0,0,32,23,1,0,1,NEIGHBORHOOD PARK,23,21,32,60620
249,WEST CHATHAM,8223 S PRINCETON AVE,15.02,West Chatham,0,0,0,0,0,0,2,1,0,0,0,0,0,0,0,0,1,0,0,0,0,0,0,0,0,0,0,0,0,0,0,0,0,0,0,2,0,0,0,0,0,1,0,0,0,0,0,0,0,0,1,1,2,0,0,0,0,0,0,0,0,0,0,0,0,0,32,23,10,11,10,COMMUNITY PARK,23,21,32,60620
386,JACKSON (MAHALIA),8385 S BIRKHOFF AVE,4.44,Jackson (Mahalia),0,0,0,0,0,0,8,2,0,0,0,0,0,0,0,0,0,0,0,0,0,0,0,0,0,0,0,0,1,0,0,0,0,0,0,2,0,0,0,0,0,0,0,0,0,0,0,0,0,0,0,0,2,0,0,0,0,0,0,0,0,0,0,0,0,0,32,23,10,15,10,COMMUNITY PARK,23,21,32,60620
1046,MARSHFIELD,1637 W 87TH ST,0.76,Marshfield,0,0,0,0,0,0,2,1,0,0,0,0,0,0,0,0,0,0,0,0,0,0,0,0,0,0,0,0,0,0,0,0,0,0,0,0,0,0,0,0,0,1,0,0,0,0,0,0,0,0,1,0,0,0,0,0,0,0,0,0,0,0,0,0,0,0,32,23,1,5,1,NEIGHBORHOOD PARK,23,21,32,60620
1069,WALLACE,607 W 92ND ST,0.86,Wallace,0,0,0,0,0,0,0,0,0,0,0,0,0,0,0,0,0,0,0,0,0,0,0,0,0,0,0,0,0,0,0,0,0,0,0,0,0,0,0,0,0,1,0,0,0,0,0,0,0,0,1,0,0,0,0,0,0,0,0,0,0,0,0,0,0,0,32,23,1,2,1,NEIGHBORHOOD PARK,23,21,32,60620
27,BURNHAM (DANIEL),425 E MCFETRIDGE DR,609.29,Burnham,0,0,0,0,0,0,14,5,2,1,0,1,0,0,0,0,0,0,0,0,0,0,0,0,0,0,0,0,0,0,0,0,0,0,0,1,0,0,0,0,0,5,0,0,0,0,0,1,0,0,0,1,0,0,0,0,0,0,0,0,0,0,0,0,0,0,29,24,5,31,5,MAGNET PARK,24,5,29,60616
482,NASH (DON) COMM. CTR.,1833 E 71ST ST,0.88,Nash Comm. Ctr.,0,0,0,0,0,0,0,0,0,0,0,0,0,0,0,0,0,0,0,0,0,1,0,0,0,0,0,0,1,0,0,0,0,0,1,0,0,0,0,0,0,1,0,0,0,0,0,0,0,0,0,0,0,0,0,0,0,0,0,0,0,0,0,0,0,0,21,24,10,4,10,COMMUNITY PARK,24,5,21,60649
429,SOUTH SHORE CULTL. CTR.,7059 S SOUTH SHORE DR,64.5,South Shore Cultl. Ctr.,0,0,0,0,0,0,0,0,1,0,0,0,0,0,0,0,0,0,0,1,0,0,0,1,0,1,0,0,0,0,0,0,0,0,0,0,0,0,0,0,0,0,0,0,0,0,0,0,0,0,0,0,4,0,0,0,0,0,0,0,0,0,0,0,0,0,21,24,2,8,2,CITYWIDE PARK,24,5,21,60649
294,HASAN (ELLIOT),6855 S OGLESBY AVE,0.28,Hasan,0,0,0,0,0,0,0,0,0,0,0,0,0,0,0,0,0,0,0,0,0,0,0,0,0,0,0,0,0,0,0,0,0,0,0,0,0,0,0,0,0,0,1,0,0,0,0,0,0,0,0,0,0,0,0,0,0,0,0,0,0,0,0,0,0,0,21,24,3,1,3,MINI-PARK,24,5,21,60649
459,ASHE (ARTHUR) BEACH,2701 E 74TH ST,2.18,Ashe Beach,0,0,0,0,0,0,0,0,1,0,0,0,0,0,0,0,0,0,0,0,0,0,0,0,0,0,0,0,0,0,0,0,0,0,0,0,0,0,0,0,0,1,0,0,0,0,0,0,0,0,0,0,2,0,0,0,0,0,0,0,0,0,0,0,0,0,21,24,1,4,1,NEIGHBORHOOD PARK,24,5,21,60649
1073,WOODHULL (ROSS),7340 S EAST END AVE,2.24,Woodhull,0,0,0,0,0,0,4,2,0,0,0,0,0,0,0,0,1,0,0,0,0,0,0,0,0,0,0,0,0,0,0,0,0,0,0,0,0,0,0,0,0,1,0,0,0,0,0,0,0,0,1,0,0,1,0,0,0,0,0,0,0,0,0,0,0,0,21,24,1,10,1,NEIGHBORHOOD PARK,24,5,21,60649
1216,HODES (BARNET),1607 E 73RD ST,0.27,Hodes,0,0,0,0,0,0,0,0,0,0,0,0,0,0,0,0,0,0,0,0,0,0,0,0,0,0,0,0,0,0,0,0,0,0,0,0,0,0,0,0,0,0,0,0,0,0,0,0,0,0,0,0,0,0,0,0,0,0,0,0,0,0,0,0,0,0,21,24,4,0,4,PASSIVE PARK,24,5,21,60649
378,CORNELL (PAUL),5473 S CORNELL AVE,0.21,Cornell,0,0,0,0,0,0,0,0,0,0,0,0,0,0,0,0,0,0,0,0,0,0,0,0,0,0,0,0,0,0,0,0,0,0,0,0,0,0,0,0,0,0,1,0,0,0,0,0,0,0,0,0,0,0,0,0,0,0,0,0,0,0,0,0,0,0,18,24,3,1,3,MINI-PARK,24,5,18,60615
1083,BIXLER (RAY),5641 S KENWOOD AVE,0.95,Bixler,0,0,0,0,0,0,0,0,0,0,0,0,0,0,0,0,0,0,0,0,0,0,0,0,0,0,0,0,0,0,0,0,0,0,0,0,0,0,0,0,0,0,1,0,0,0,0,0,0,0,1,0,0,0,0,0,0,0,0,0,0,0,0,0,0,0,7,24,1,2,1,NEIGHBORHOOD PARK,24,5,7,60637
328,BEEHIVE,6156 S DORCHESTER AVE,0.11,Beehive,0,0,0,0,0,0,0,0,0,0,0,0,0,0,0,0,0,0,0,0,0,0,0,0,0,0,0,0,0,0,0,0,0,0,0,0,0,0,0,0,0,0,1,0,0,0,0,0,0,0,0,0,0,0,0,0,0,0,0,0,0,0,0,0,0,0,7,24,3,1,3,MINI-PARK,24,5,7,60637
1268,MIDWAY PLAISANCE,5950 S WOODLAWN AVE,80,Midway Plaisance,0,0,0,0,0,0,0,0,0,0,0,0,0,0,0,0,7,0,0,0,0,0,0,0,0,0,0,0,0,0,0,0,0,1,0,0,0,0,0,0,0,0,0,0,0,0,0,0,0,0,0,0,0,0,0,0,0,0,0,0,0,0,0,0,0,0,7,24,2,8,2,CITYWIDE PARK,24,5,7,60637
19,JACKSON (ANDREW),6401 S STONY ISLAND AVE,542.89,Jackson (Andrew),0,0,0,1,0,0,8,4,2,0,1,3,0,2,0,0,4,0,0,0,0,1,0,0,2,1,1,0,1,0,0,0,0,0,0,6,0,0,0,0,0,6,0,0,0,0,0,0,0,0,0,2,24,1,0,1,0,0,0,2,0,1,0,0,0,0,7,24,5,74,5,MAGNET PARK,24,5,7,60637
425,NOETHLING (GRACE),2645 N SHEFFIELD AVE,0.44,Noethling,0,0,0,0,0,0,0,0,0,0,0,0,0,0,0,0,0,0,0,0,1,0,0,0,0,0,0,0,0,0,0,0,0,0,0,0,0,0,0,0,0,0,0,0,0,0,0,0,0,0,0,0,0,0,0,0,0,0,0,0,0,0,0,0,0,0,52,25,3,1,3,MINI-PARK,25,43,52,60614
1168,PARK WEST,745 W WRIGHTWOOD AVE,0.19,Park West,0,0,0,0,0,0,0,0,0,0,0,0,0,0,0,0,0,0,0,0,0,0,0,0,0,0,0,0,0,0,0,0,0,0,0,0,0,0,0,0,0,0,1,0,0,0,0,0,0,0,0,0,0,0,0,0,0,0,0,0,0,0,0,0,0,0,52,25,3,1,3,MINI-PARK,25,43,52,60614
1270,JONQUIL,1023 W WRIGHTWOOD AVE,2.85,Jonquil,0,0,0,0,0,0,0,0,0,0,0,0,0,0,0,0,0,0,0,0,0,0,0,0,0,0,0,0,0,0,0,0,0,0,0,1,0,0,0,0,0,1,0,0,0,0,0,0,0,0,0,0,2,0,0,0,0,0,0,0,0,0,0,0,0,0,52,25,1,4,1,NEIGHBORHOOD PARK,25,43,52,60614
1143,SUPERA,2528 N RACINE AVE,0.34,Supera,0,0,0,0,0,0,0,0,0,0,0,0,0,0,0,0,0,0,0,0,0,0,0,0,0,0,0,0,0,0,0,0,0,0,0,0,0,0,0,0,0,0,1,0,0,0,0,0,0,0,0,0,0,0,0,0,0,0,0,0,0,0,0,0,0,0,52,25,3,1,3,MINI-PARK,25,43,52,60614
1206,MID-NORTH,401 W BELDEN AVE,0.06,Mid-North,0,0,0,0,0,0,0,0,0,0,0,0,0,0,0,0,0,0,0,0,0,0,0,0,0,0,0,0,0,0,0,0,0,0,0,0,0,0,0,0,0,0,0,0,0,0,0,0,0,0,0,0,0,0,0,0,0,0,0,0,0,0,0,0,0,0,52,25,4,0,4,PASSIVE PARK,25,43,52,60614
1017,TREBES,2250 N CLIFTON AVE,1.57,Trebes,0,0,0,0,0,0,1,1,0,0,0,0,0,0,0,0,0,1,0,0,0,0,0,0,0,0,0,0,1,0,0,0,0,0,0,1,0,0,0,0,0,1,0,0,0,0,0,0,0,0,0,0,0,0,0,0,0,0,0,0,0,0,0,0,0,0,52,25,10,6,10,COMMUNITY PARK,25,43,52,60614
423,OZ,2021 N BURLING ST,13.32,Oz,0,0,0,0,0,0,4,1,0,0,0,0,0,0,0,0,1,0,0,0,0,0,0,0,1,0,0,0,0,0,0,0,0,0,0,2,0,0,0,0,0,1,0,0,0,0,0,0,0,0,0,1,4,0,1,0,0,0,0,0,0,0,0,0,0,0,52,25,10,16,10,COMMUNITY PARK,25,43,52,60614
1019,ADAMS (GEORGE & ADELE),1919 N SEMINARY AVE,0.66,Adams (George & Adele),0,0,0,0,0,0,0,0,0,0,0,0,0,0,0,0,0,0,0,0,0,0,0,0,0,0,0,0,0,0,0,0,0,0,0,0,0,0,0,0,0,1,0,0,0,0,0,0,0,0,0,0,0,0,0,1,0,0,0,0,0,0,0,0,0,0,52,25,1,2,1,NEIGHBORHOOD PARK,25,43,52,60614
365,BAULER (MATHIAS),517 W WISCONSIN ST,0.64,Bauler,0,0,0,0,0,0,0,0,0,0,0,0,0,0,0,0,0,0,0,0,0,0,0,0,0,0,0,0,0,0,0,0,0,0,0,0,0,0,0,0,0,1,0,0,0,0,0,0,0,0,0,0,0,0,0,0,0,0,0,0,0,0,0,0,0,0,52,25,1,1,1,NEIGHBORHOOD PARK,25,43,52,60614
375,PRIVET,1844 N SHEFFIELD AVE,0.09,Privet,0,0,0,0,0,0,0,0,0,0,0,0,0,0,0,0,0,0,0,0,0,0,0,0,0,0,0,0,0,0,0,0,0,0,0,0,0,0,0,0,0,0,1,0,0,0,0,0,0,0,0,0,0,0,0,0,0,0,0,0,0,0,0,0,0,0,52,25,3,1,3,MINI-PARK,25,43,52,60614
1091,CLYBOURN (ARCHIBALD),1755 N CLYBOURN AVE,0.46,Clybourn,0,0,0,0,0,0,2,1,0,0,0,0,0,0,0,0,0,0,0,0,0,0,0,0,0,0,0,0,0,0,0,0,0,0,0,0,0,0,0,0,0,0,1,0,0,0,0,0,0,0,0,0,0,0,0,0,0,0,0,0,0,0,0,0,0,0,52,25,3,4,3,MINI-PARK,25,43,52,60614
1214,EUGENIE TRIANGLE,1707 N LA SALLE ST,0.03,Eugenie Triangle,0,0,0,0,0,0,0,0,0,0,0,0,0,0,0,0,0,0,0,0,0,0,0,0,0,0,0,0,0,0,0,0,0,0,0,0,0,0,0,0,0,0,0,0,0,0,0,0,0,0,0,0,0,0,0,0,0,0,0,0,0,0,0,0,0,0,52,25,4,0,4,PASSIVE PARK,25,43,52,60614
535,PARK NO. 535,800 W WISCONSIN ST,0.11,Park No. 535,0,0,0,0,0,0,0,0,0,0,0,0,0,0,0,0,0,0,0,0,0,0,0,0,0,0,0,0,0,0,0,0,0,0,0,0,0,0,0,0,0,0,1,0,0,0,0,0,0,0,0,0,0,0,0,0,0,0,0,0,0,0,0,0,0,0,52,25,3,1,3,MINI-PARK,25,43,52,60614
1025,"TAYLOR-LAURIDSEN (JOHN, EMIL)",647 W ROOT ST,4.49,Taylor-Lauridsen,0,0,0,0,0,0,0,0,0,0,0,0,0,0,0,0,1,0,0,0,0,1,0,0,0,0,0,0,1,0,0,0,0,0,0,1,0,0,0,0,0,1,0,0,0,0,0,0,0,0,1,1,0,0,0,0,0,0,0,0,0,0,0,0,0,0,51,26,1,7,1,NEIGHBORHOOD PARK,26,11,51,60609
443,MCINERNEY (THOMAS),4446-58 S. EMERALD AVE,1.32,McInerney,0,0,0,0,0,0,0,0,0,0,0,0,0,0,0,0,1,0,0,0,0,0,0,0,0,0,0,0,0,0,0,0,0,0,0,0,0,0,0,0,0,1,0,0,0,0,0,0,0,0,0,0,0,0,0,0,0,0,0,0,0,0,0,0,0,0,51,26,1,2,1,NEIGHBORHOOD PARK,26,11,51,60609
1068,WAGNER (CLARENCE),948 W 51ST ST,0.93,Wagner,0,0,0,0,0,0,0,0,0,0,0,0,0,0,0,0,0,0,0,0,0,0,0,0,0,0,0,0,0,0,0,0,0,0,0,0,0,0,0,0,0,1,0,0,0,0,0,0,0,0,1,0,0,0,0,0,0,0,0,0,0,0,0,0,0,0,51,26,1,2,1,NEIGHBORHOOD PARK,26,11,51,60609
1162,MCKEON (JOSEPH),600 W 36TH ST,0.4,McKeon,0,0,0,0,0,0,0,0,0,0,0,0,0,0,0,0,0,0,0,0,0,0,0,0,0,0,0,0,0,0,0,0,0,0,0,0,0,0,0,0,0,0,1,0,0,0,0,0,0,0,0,0,0,0,0,0,0,0,0,0,0,0,0,0,0,0,51,26,3,1,3,MINI-PARK,26,11,51,60609
1029,DONOVAN (GEORGE),3620 S LITUANICA AVE,2.68,Donovan,0,0,0,0,0,0,2,1,0,0,0,0,0,0,0,0,1,0,0,0,0,0,0,0,0,0,0,0,0,0,0,0,0,0,0,0,0,0,0,0,0,1,0,0,0,0,0,0,0,0,1,2,0,0,1,0,0,0,0,0,0,0,0,0,0,0,51,26,1,9,1,NEIGHBORHOOD PARK,26,11,51,60609
286,WENTWORTH (JOHN) GARDENS,3770 S WENTWORTH AVE,2.53,Wentworth (John) Gardens,0,0,0,0,0,0,2,1,0,0,0,0,0,0,0,0,1,0,0,0,0,0,0,0,0,0,0,0,1,0,0,0,0,0,0,1,0,0,1,0,0,1,0,0,0,0,0,0,0,0,0,0,0,0,0,0,0,0,0,0,0,0,0,0,0,0,51,26,10,8,10,COMMUNITY PARK,26,11,51,60609
4,FULLER (MELVILLE),331 W 45TH ST,10.5,Fuller,0,0,0,0,0,0,6,1,0,0,0,0,0,0,0,0,1,0,0,0,0,1,0,0,0,0,0,0,2,0,0,0,0,0,0,2,0,0,1,0,0,1,0,0,0,0,0,0,0,0,1,1,2,1,0,0,0,1,0,0,0,0,0,0,0,0,51,26,10,21,10,COMMUNITY PARK,26,11,51,60609
1063,BACK OF THE YARDS,4920 S THROOP ST,0.99,Back of the Yards,0,0,0,0,0,0,2,1,0,0,0,0,0,0,0,0,0,0,0,0,0,0,0,0,0,0,0,0,0,0,0,0,1,0,0,0,0,0,0,0,0,1,0,0,0,0,0,0,0,0,1,0,0,0,0,0,0,0,0,0,0,0,0,0,0,0,51,26,1,6,1,NEIGHBORHOOD PARK,26,11,51,60609
1155,SINTIC (GREGORY),2835 S WALLACE ST,0.14,Sintic,0,0,0,0,0,0,0,0,0,0,0,0,0,0,0,0,0,0,0,0,0,0,0,0,0,0,0,0,0,0,0,0,0,0,0,0,0,0,0,0,0,0,1,0,0,0,0,0,0,0,0,0,0,0,0,0,0,0,0,0,0,0,0,0,0,0,29,26,3,1,3,MINI-PARK,26,11,29,60616
1121,HUMBERT (JAMES),632 W 31ST ST,0.35,Humbert,0,0,0,0,0,0,0,0,0,0,0,0,0,0,0,0,0,0,0,0,0,0,0,0,0,0,0,0,0,0,0,0,0,0,0,0,0,0,0,0,0,0,1,0,0,0,0,0,0,0,0,0,0,0,0,0,0,0,0,0,0,0,0,0,0,0,29,26,3,1,3,MINI-PARK,26,11,29,60616
3,ARMOUR (PHILIP) SQUARE,3309 S SHIELDS AVE,8.22,Armour Square,0,0,0,0,0,0,0,0,0,0,0,0,0,0,0,0,1,0,0,0,0,1,0,0,0,0,0,0,2,0,0,0,0,0,0,3,0,0,1,0,0,1,0,0,1,0,0,0,0,0,1,1,2,0,1,0,0,0,0,0,0,0,0,0,0,0,29,26,10,15,10,COMMUNITY PARK,26,11,29,60616
1288,JACOLIK (FLORIAN S.),2731 S ELEANOR ST,0.3,Jacolik,0,0,0,0,0,0,0,0,0,0,0,0,0,0,0,0,0,0,0,0,0,0,0,0,0,0,0,0,0,0,0,0,0,0,0,0,0,0,0,0,0,0,1,0,0,0,0,0,0,0,0,0,0,0,0,0,0,0,0,0,0,0,0,0,0,0,19,26,3,1,3,MINI-PARK,26,11,19,60608
516,CANALPORT RIVERWALK,2900 S ASHLAND AVE,5.39,Canalport Riverwalk,0,0,0,0,0,0,0,0,0,0,0,0,0,0,0,0,0,0,0,0,0,0,0,0,0,0,0,0,0,0,0,0,0,0,0,0,0,0,0,0,0,0,0,0,0,0,0,0,0,0,0,0,0,0,0,0,0,0,0,0,0,0,0,0,0,0,19,26,4,0,4,PASSIVE PARK,26,11,19,60608
1024,BOSLEY (WILLIAM),3044 S BONFIELD ST,1.94,Bosley,0,0,0,0,0,0,2,1,0,0,0,0,0,0,0,0,1,0,0,0,0,0,0,0,0,0,0,0,0,0,0,0,3,0,0,1,0,0,0,0,0,1,0,0,0,0,0,0,0,0,1,0,0,0,0,0,0,0,0,0,0,0,0,0,0,0,19,26,1,10,1,NEIGHBORHOOD PARK,26,11,19,60608
531,PALMISANO (HENRY),2850 S HALSTED ST,26.6,Palmisano,0,0,0,0,0,0,0,0,0,0,0,0,0,0,1,0,1,0,0,0,0,0,0,0,0,0,0,0,0,0,0,0,0,0,0,0,0,0,0,0,0,0,0,0,0,0,0,0,0,0,0,0,0,0,0,0,0,0,1,1,0,0,0,0,0,0,19,26,10,4,10,COMMUNITY PARK,26,11,19,60608
502,CANAL ORIGINS,2701 S ASHLAND AVE,2.66,Canal Origins,0,0,0,0,0,0,0,0,0,0,0,0,0,0,0,0,0,0,0,0,0,0,0,0,0,0,0,0,0,0,0,0,0,0,0,0,0,0,0,0,0,0,0,0,0,0,0,0,0,0,0,0,0,0,0,0,0,0,0,0,0,0,0,0,0,0,19,26,4,0,4,PASSIVE PARK,26,11,19,60608
2,MCGUANE (JOHN),2901 S POPLAR AVE,10,McGuane,0,0,0,0,0,0,4,1,0,0,0,0,3,0,0,0,1,0,0,0,0,1,0,0,0,0,0,0,1,0,0,0,3,0,1,3,0,0,0,0,0,1,0,0,0,0,0,0,0,0,1,1,5,0,0,0,0,0,0,0,0,0,0,0,0,0,19,26,10,26,10,COMMUNITY PARK,26,11,19,60608
1284,MULBERRY,3150 S ROBINSON CT,0.56,Mulberry,0,0,0,0,0,0,0,0,0,0,0,0,0,0,0,0,0,0,0,0,0,0,0,0,0,0,0,0,0,0,0,0,0,0,0,0,0,0,0,0,0,0,1,0,0,0,0,0,0,0,1,0,0,0,0,0,0,0,0,0,0,0,0,0,0,0,19,26,1,2,1,NEIGHBORHOOD PARK,26,11,19,60608
1018,WILSON (JOHN) COMM. CTR.,3225 S RACINE AVE,0.14,Wilson (John) Comm. Ctr.,0,0,0,0,0,0,0,0,0,0,0,0,0,0,0,0,0,0,0,0,0,0,0,0,0,0,0,0,1,0,0,0,0,0,0,0,0,0,0,0,0,0,0,0,0,0,0,0,0,0,0,0,0,0,0,0,0,0,0,0,0,0,0,0,0,0,19,26,10,1,10,COMMUNITY PARK,26,11,19,60608
1062,"KUCINSKI-MURPHY (VICKI, ROSEBETH)",1635 W 33RD PL,0.66,Kucinski-Murphy,0,0,0,0,0,0,0,0,0,0,0,0,0,0,0,0,0,0,0,0,0,0,0,0,0,0,0,0,0,0,0,0,0,0,0,0,0,0,0,0,0,1,0,0,0,0,0,0,0,0,1,0,0,0,0,0,0,0,0,0,0,0,0,0,0,0,19,26,1,2,1,NEIGHBORHOOD PARK,26,11,19,60608
1071,WILSON (JOHN),1122 W 34TH PL,1.43,Wilson (John),0,0,0,0,0,0,0,0,0,0,0,0,0,0,0,0,0,0,0,0,0,0,0,0,0,0,0,0,0,0,0,0,0,0,0,0,0,0,0,0,0,1,0,0,0,0,0,0,0,0,1,0,0,0,0,0,0,0,0,0,0,0,0,0,0,0,19,26,1,2,1,NEIGHBORHOOD PARK,26,11,19,60608
274,LEGION,3100 W BRYN MAWR AVE,49.15,Legion,0,0,0,0,0,0,4,2,0,0,0,0,0,0,0,0,2,0,0,0,0,0,0,0,0,0,0,0,0,0,0,0,0,0,0,2,0,0,0,0,0,4,0,0,0,0,0,0,0,1,0,0,2,0,0,0,0,0,0,0,0,0,0,0,0,0,53,27,9,17,9,REGIONAL PARK,27,39,53,60659
75,HOLLYWOOD,3312 W THORNDALE AVE,6.48,Hollywood,0,0,0,0,0,0,2,1,0,0,0,0,0,0,0,0,1,0,0,0,0,0,0,0,0,0,0,0,0,0,0,0,0,0,0,2,0,0,0,0,0,1,0,0,0,0,0,0,0,0,1,0,1,0,0,0,0,0,0,0,0,0,0,0,0,0,53,27,10,9,10,COMMUNITY PARK,27,39,53,60659
41,FIELD (EUGENE),5100 N RIDGEWAY AVE,15.78,Field,0,0,0,0,0,0,2,1,0,0,0,0,0,0,0,0,1,1,0,1,0,0,0,0,0,0,0,0,1,0,0,0,0,0,0,1,0,0,0,0,0,1,0,0,0,0,0,0,0,0,1,1,5,0,0,0,0,0,1,0,0,0,0,0,0,0,44,27,10,17,10,COMMUNITY PARK,27,39,44,60625
42,KIWANIS,3315 W CARMEN AVE,1.55,Kiwanis,0,0,0,1,0,0,0,0,0,0,0,0,0,0,0,0,0,0,0,0,0,0,0,0,0,0,0,0,0,0,0,0,0,0,0,0,0,0,0,0,0,0,0,0,0,0,0,0,0,0,0,0,0,0,0,0,0,0,0,0,0,0,0,0,0,0,44,27,4,1,4,PASSIVE PARK,27,39,44,60625
82,JENSEN (CHRIST),4600 N LAWNDALE AVE,2.55,Jensen,0,0,0,0,0,0,2,1,0,0,0,0,0,0,0,0,1,0,0,0,0,0,0,0,0,0,0,0,1,0,0,0,0,0,0,1,0,0,0,0,0,1,0,0,0,0,0,0,0,0,1,0,0,0,0,0,0,0,0,0,0,0,0,0,0,0,44,27,1,8,1,NEIGHBORHOOD PARK,27,39,44,60625
40,GOMPERS (SAMUEL),4222 W FOSTER AVE,38.69,Gompers,0,0,0,0,0,0,2,1,0,0,0,0,0,0,1,0,1,0,0,0,0,0,0,0,0,0,0,0,1,0,0,0,0,0,0,3,0,0,1,0,0,1,0,0,0,0,0,0,0,1,1,0,5,0,0,0,0,0,1,1,0,0,0,0,0,0,22,27,9,20,9,REGIONAL PARK,27,39,22,60630
90,NORTH MAYFAIR,4537 W CARMEN AVE,0.56,North Mayfair,0,0,0,0,0,0,0,0,0,0,0,0,0,0,0,0,0,0,0,0,0,0,0,0,0,0,0,0,0,0,0,0,0,0,0,0,0,0,0,0,0,0,1,0,0,0,0,0,0,0,0,0,0,0,0,0,0,0,0,0,0,0,0,0,0,0,22,27,1,1,1,NEIGHBORHOOD PARK,27,39,22,60630
424,SPIKINGS FARM,4706 N PULASKI RD,0.14,Spikings Farm,0,0,0,0,0,0,0,0,0,0,0,0,0,0,0,0,0,0,0,0,0,0,0,0,0,0,0,0,0,0,0,0,0,0,0,0,0,0,0,0,0,0,1,0,0,0,0,0,0,0,0,0,0,0,0,0,0,0,0,0,0,0,0,0,0,0,22,27,3,1,3,MINI-PARK,27,39,22,60630
335,EDGEBROOK,6525 N HIAWATHA AVE,9.34,Edgebrook,0,0,0,0,0,0,4,2,0,0,0,0,0,0,0,0,1,0,0,0,0,0,0,0,0,0,0,0,0,0,0,0,0,0,0,3,0,0,0,0,0,1,0,0,0,0,0,0,0,0,0,1,0,0,0,0,0,0,0,0,0,0,0,0,0,0,17,27,10,12,10,COMMUNITY PARK,27,39,17,60646
1212,GREEN (JEFFERY),6500 N ALGONQUIN AVE,1.07,Green,0,0,0,0,0,0,2,1,0,0,0,0,0,0,0,0,0,0,0,0,0,0,0,0,0,0,0,0,0,0,0,0,0,0,0,0,0,0,0,0,0,1,0,0,0,0,0,0,0,0,0,0,0,0,0,0,0,0,0,0,0,0,0,0,0,0,17,27,1,4,1,NEIGHBORHOOD PARK,27,39,17,60646
366,DEJULIO (ANTHONY),6056 N LANDERS AVE,0.67,Dejulio,0,0,0,0,0,0,0,0,0,0,0,0,0,0,0,0,0,0,0,0,0,0,0,0,0,0,0,0,0,0,0,0,0,0,0,0,0,0,0,0,0,0,1,0,0,0,0,0,0,0,0,0,0,0,0,0,0,0,0,0,0,0,0,0,0,0,17,27,1,1,1,NEIGHBORHOOD PARK,27,39,17,60646
452,PETERSON (PEHR SAMUEL),5801 N PULASKI RD,22.24,Peterson,0,0,0,0,0,0,6,2,0,0,0,0,0,0,0,0,2,0,0,0,0,1,0,0,0,0,0,0,1,1,0,0,0,0,0,2,0,0,0,0,0,2,0,0,0,0,0,0,0,0,0,0,4,0,0,0,0,0,0,0,0,0,0,0,0,0,17,27,9,21,9,REGIONAL PARK,27,39,17,60646
195,SAUGANASH,5861 N KOSTNER AVE,4.65,Sauganash,0,0,0,0,0,0,2,1,0,0,0,0,0,0,0,0,1,0,0,0,0,0,0,0,0,0,0,0,1,0,0,0,0,0,0,2,0,0,0,0,0,1,0,0,0,0,0,0,0,0,0,0,4,0,0,0,0,0,0,0,0,0,0,0,0,0,17,27,10,12,10,COMMUNITY PARK,27,39,17,60646
1141,BRYNFORD,5640 N PULASKI RD,0.14,Brynford,0,0,0,0,0,0,0,0,0,0,0,0,0,0,0,0,0,0,0,0,0,0,0,0,0,0,0,0,0,0,0,0,0,0,0,0,0,0,0,0,0,0,1,0,0,0,0,0,0,0,0,0,0,0,0,0,0,0,0,0,0,0,0,0,0,0,17,27,3,1,3,MINI-PARK,27,39,17,60646
533,NORTH PARK NATURE CENTER,5801 N PULASKI RD,51.73,North Park Nature Center,0,0,0,0,0,0,0,0,0,0,0,0,0,0,0,0,0,0,0,0,0,0,0,0,0,0,0,0,0,0,0,0,0,0,0,0,0,1,0,0,0,0,0,0,0,0,0,0,0,0,0,0,0,0,0,0,0,0,0,0,0,0,0,0,0,0,17,27,8,1,8,NATURE PRESERVE PARK,27,39,17,60646
555,SAUGANASH TRAIL,4400 W DEVON AVE,11.34,Sauganash Trail,0,0,0,0,0,0,0,0,0,0,0,0,0,0,0,0,0,0,0,0,0,0,0,0,0,0,0,0,0,0,0,0,0,0,0,0,0,0,0,0,0,0,0,0,0,0,0,0,0,0,0,0,0,0,0,0,0,0,0,0,0,0,0,0,0,0,14,27,4,0,4,PASSIVE PARK,27,39,14,60626
1044,LOWE (SAMUEL),5203 S LOWE AVE,3.89,Lowe,0,0,0,0,0,0,2,1,0,0,0,0,0,0,0,0,1,0,0,0,0,0,0,0,0,0,0,0,0,0,0,0,0,0,0,1,0,0,0,0,0,1,0,0,0,0,0,0,0,0,1,1,0,0,0,0,0,0,0,0,0,0,0,0,0,0,51,28,1,8,1,NEIGHBORHOOD PARK,28,3,51,60609
271,TAYLOR (ROBERT ROCHON),100 W 47TH ST,9.02,Taylor,0,0,0,0,0,0,5,2,0,0,0,0,0,0,0,0,2,0,0,0,0,1,0,0,0,0,0,0,1,0,0,0,0,0,0,3,0,0,1,0,0,1,0,0,0,0,0,0,0,0,0,1,1,0,0,0,0,1,0,0,0,0,0,0,0,0,51,28,10,19,10,COMMUNITY PARK,28,3,51,60609
421,PARK NO. 421,5300 S HALSTED ST,1.01,Park No. 421,0,0,0,0,0,0,0,0,0,0,0,0,0,0,0,0,0,0,0,0,0,0,0,0,0,0,0,0,0,0,0,0,0,0,0,0,0,0,0,0,0,0,0,0,0,0,0,0,0,0,0,0,0,0,0,0,0,0,0,0,0,0,0,0,0,0,51,28,6,0,6,UNIMPROVED PARK,28,3,51,60609
394,MALUS,5426 S SHIELDS AVE,0.58,Malus,0,0,0,0,0,0,0,0,0,0,0,0,0,0,0,0,0,0,0,0,0,0,0,0,0,0,0,0,0,0,0,0,0,0,0,0,0,0,0,0,0,0,1,0,0,0,0,0,0,0,0,0,0,0,0,0,0,0,0,0,0,0,0,0,0,0,51,28,1,1,1,NEIGHBORHOOD PARK,28,3,51,60609
1098,EMERALD,5600 S EMERALD AVE,0.2,Emerald,0,0,0,0,0,0,2,1,0,0,0,0,0,0,0,0,0,0,0,0,0,0,0,0,0,0,0,0,0,0,0,0,0,0,0,0,0,0,0,0,0,0,0,0,0,0,0,0,0,0,0,0,0,0,0,0,0,0,0,0,0,0,0,0,0,0,46,28,3,3,3,MINI-PARK,28,3,46,60621
1014,SHERWOOD (JESSE),5705 S SHIELDS AVE,6.2,Sherwood,0,0,0,0,0,0,2,1,0,0,0,0,0,0,0,0,1,0,0,0,0,1,0,0,0,0,0,0,1,0,0,0,0,0,0,2,0,0,0,0,0,1,0,0,1,0,0,0,0,0,1,0,0,0,0,0,0,0,0,0,0,0,0,0,0,0,46,28,10,11,10,COMMUNITY PARK,28,3,46,60621
321,ASPEN,4237 S WABASH AVE,0.2,Aspen,0,0,0,0,0,0,0,0,0,0,0,0,0,0,0,0,0,0,0,0,0,0,0,0,0,0,0,0,0,0,0,0,0,0,0,0,0,0,0,0,0,0,1,0,0,0,0,0,0,0,0,0,0,0,0,0,0,0,0,0,0,0,0,0,0,0,37,28,3,1,3,MINI-PARK,28,3,37,60653
1112,JACKSON (ROBERT),4319 S INDIANA AVE,0.24,Jackson (Robert),0,0,0,0,0,0,0,0,0,0,0,0,0,0,0,0,0,0,0,0,0,0,0,0,0,0,0,0,0,0,0,0,0,0,0,0,0,0,0,0,0,0,1,0,0,0,0,0,0,0,0,0,0,0,0,0,0,0,0,0,0,0,0,0,0,0,37,28,3,1,3,MINI-PARK,28,3,37,60653
339,BUCKTHORN,4347 S CALUMET AVE,0.21,Buckthorn,0,0,0,0,0,0,2,1,0,0,0,0,0,0,0,0,0,0,0,0,0,0,0,0,0,0,0,0,0,0,0,0,0,0,0,0,0,0,0,0,0,1,0,0,0,0,0,0,0,0,0,0,0,0,0,0,0,0,0,0,0,0,0,0,0,0,37,28,3,4,3,MINI-PARK,28,3,37,60653
322,BIRCH,427 E 45TH ST,0.14,Birch,0,0,0,0,0,0,0,0,0,0,0,0,0,0,0,0,0,0,0,0,0,0,0,0,0,0,0,0,0,0,0,0,0,0,0,0,0,0,0,0,0,0,1,0,0,0,0,0,0,0,0,0,0,0,0,0,0,0,0,0,0,0,0,0,0,0,37,28,3,1,3,MINI-PARK,28,3,37,60653
540,PARK NO. 540,2401 S FEDERAL ST,4.78,Park No. 540,0,0,0,0,0,0,0,0,0,0,0,0,0,0,0,0,0,0,0,0,0,0,0,0,0,0,0,0,0,0,0,0,0,0,0,0,0,0,0,0,0,0,0,0,0,0,0,0,0,0,0,0,0,0,0,0,0,0,0,0,0,0,0,0,0,0,29,28,6,0,6,UNIMPROVED PARK,28,3,29,60616
1033,HARDING (GEORGE),4912 S CALUMET AVE,0.65,Harding (George),0,0,0,0,0,0,1,1,0,0,0,0,0,0,0,0,0,0,0,0,0,0,0,0,0,0,0,0,0,0,0,0,0,0,0,0,0,0,0,0,0,1,0,0,0,0,0,0,0,0,0,0,0,0,1,0,0,0,0,0,0,0,0,0,0,0,18,28,1,4,1,NEIGHBORHOOD PARK,28,3,18,60615
5,CORNELL (PAUL) SQUARE,1809 W 50TH ST,8.19,Cornell Square,0,0,0,1,0,0,4,2,0,0,0,0,0,0,0,0,1,0,0,0,0,0,0,0,0,0,0,0,1,0,0,0,0,0,0,2,0,0,1,0,0,1,0,0,0,0,0,0,0,0,1,0,3,0,0,0,0,0,0,0,0,0,0,0,0,0,51,29,10,17,10,COMMUNITY PARK,29,14,51,60609
1055,LITTLE VENICE,2251 W 50TH PL,0.8,Little Venice,0,0,0,0,0,0,0,0,0,0,0,0,0,0,0,0,0,0,0,0,0,0,0,0,0,0,0,0,0,0,0,0,0,0,0,0,0,0,0,0,0,1,0,0,0,0,0,0,0,0,1,0,0,0,0,0,0,0,0,0,0,0,0,0,0,0,51,29,1,2,1,NEIGHBORHOOD PARK,29,14,51,60609
404,PACKINGTOWN,4856 S LAFLIN ST,0.14,Packingtown,0,0,0,0,0,0,0,0,0,0,0,0,0,0,0,0,0,0,0,0,0,0,0,0,0,0,0,0,0,0,0,0,0,0,0,0,0,0,0,0,0,0,1,0,0,0,0,0,0,0,1,0,0,0,0,0,0,0,0,0,0,0,0,0,0,0,51,29,3,2,3,MINI-PARK,29,14,51,60609
1028,MICEK (FRANK),5311 S HAMILTON AVE,1.26,Micek,0,0,0,0,0,0,2,1,0,0,0,0,0,0,0,0,1,0,0,0,0,0,0,0,0,0,0,0,0,0,0,0,0,0,0,0,0,0,0,0,0,1,0,0,0,0,0,0,0,0,1,0,0,0,1,0,0,0,0,0,0,0,0,0,0,0,51,29,1,7,1,NEIGHBORHOOD PARK,29,14,51,60609
1129,MONTGOMERY (MABEL),2632 W 66TH ST,0.28,Montgomery,0,0,0,0,0,0,0,0,0,0,0,0,0,0,0,0,0,0,0,0,0,0,0,0,0,0,0,0,0,0,0,0,0,0,0,0,0,0,0,0,0,0,1,0,0,0,0,0,0,0,0,0,0,0,0,0,0,0,0,0,0,0,0,0,0,0,33,29,3,1,3,MINI-PARK,29,14,33,60629
1218,LILY GARDENS,632 W 71ST ST,2.57,Lily Gardens,0,0,0,0,0,0,0,0,0,0,0,0,0,0,0,0,0,0,0,0,0,0,0,0,0,0,0,0,0,0,0,0,0,0,0,0,0,0,0,0,0,1,0,0,0,0,0,0,0,0,0,0,0,0,0,0,0,0,0,0,0,0,0,0,0,0,46,30,4,1,4,PASSIVE PARK,30,17,46,60621
9,HAMILTON (ALEXANDER),513 W 72ND ST,29.95,Hamilton,0,0,0,0,0,0,4,2,0,0,0,0,0,0,0,0,2,0,0,1,0,0,0,0,0,0,0,0,2,0,0,2,0,0,0,4,0,0,1,0,0,1,0,0,0,0,0,0,0,0,1,2,8,0,0,0,0,0,0,0,0,0,0,0,0,0,46,30,9,30,9,REGIONAL PARK,30,17,46,60621
395,LELAND GIANTS,7526 S LOWE AVE,1.91,Leland Giants,0,0,0,0,0,0,4,1,0,0,0,0,0,0,0,0,0,0,0,0,0,0,0,0,0,0,0,0,0,0,0,0,0,0,0,0,0,0,0,0,0,1,0,0,0,0,0,0,0,0,0,0,0,0,0,0,0,0,0,0,0,0,0,0,0,0,46,30,1,6,1,NEIGHBORHOOD PARK,30,17,46,60621
334,"KING (MARTIN LUTHER, JR.)",1212 W 77TH ST,6.39,King,0,0,0,0,0,0,0,0,0,0,0,0,0,0,0,0,0,0,0,0,0,0,0,0,0,0,0,0,0,0,0,0,0,0,0,0,0,0,0,0,0,1,0,0,0,0,0,0,0,0,1,0,0,0,0,0,0,0,0,0,0,0,0,0,0,0,32,30,9,2,9,REGIONAL PARK,30,17,32,60620
1267,LYLE (JOHN),7700 S WALLACE ST,1.46,Lyle,0,0,0,0,0,0,0,0,0,0,0,0,0,0,0,0,0,0,0,0,0,0,0,0,0,0,0,0,0,0,0,0,0,0,0,0,0,0,0,0,0,1,0,0,0,0,0,0,0,0,0,0,0,0,0,0,0,0,0,0,0,0,0,0,0,0,32,30,4,1,4,PASSIVE PARK,30,17,32,60620
1203,AUBURN,406 W WINNECONNA PKWY,8.48,Auburn,0,0,0,0,0,0,0,0,0,0,0,0,0,0,0,0,0,0,0,0,0,0,0,0,0,0,0,0,0,0,0,0,0,0,0,0,0,0,0,0,0,0,0,0,0,0,0,0,0,0,0,0,0,0,0,0,0,0,0,1,0,0,0,0,0,0,32,30,4,1,4,PASSIVE PARK,30,17,32,60620
8,OGDEN (WILLIAM),6500 S RACINE AVE,60.54,Ogden,0,0,0,0,0,0,8,4,0,0,0,0,0,0,0,0,4,0,0,0,0,1,0,0,0,0,0,0,1,0,0,0,0,0,0,7,0,0,1,0,0,3,0,0,0,0,0,0,0,0,0,2,4,1,0,1,0,1,0,0,1,0,0,0,0,0,5,30,9,39,9,REGIONAL PARK,30,17,5,60636
1053,MURRAY (DAVID),1743 W 73RD ST,3.04,Murray,0,0,0,0,0,0,2,1,0,0,0,0,0,0,0,0,1,0,0,0,0,0,0,0,0,0,0,0,0,0,0,0,0,0,0,1,0,0,0,0,0,1,0,0,0,0,0,0,0,0,1,1,0,0,0,0,0,0,0,0,0,0,0,0,0,0,5,30,1,8,1,NEIGHBORHOOD PARK,30,17,5,60636
1090,KORCZAK (JANUSZ),6156 N CLAREMONT AVE,0.2,Korczak,0,0,0,0,0,0,0,0,0,0,0,0,0,0,0,0,0,0,0,0,0,0,0,0,0,0,0,0,0,0,0,0,0,0,0,0,0,0,0,0,0,0,1,0,0,0,0,0,0,0,0,0,0,0,0,0,0,0,0,0,0,0,0,0,0,0,53,31,3,1,3,MINI-PARK,31,50,53,60659
240,ROGERS (PHILLIP),7345 N WASHTENAW AVE,25.82,Rogers (Phillip),0,0,0,0,0,0,0,0,0,0,0,0,0,0,0,0,3,0,0,0,0,0,0,0,0,0,0,0,0,0,0,0,0,0,0,4,0,0,0,0,0,1,0,0,0,0,0,0,0,0,0,2,4,0,0,0,0,0,0,0,0,0,0,0,0,0,42,31,9,14,9,REGIONAL PARK,31,50,42,60645
165,INDIAN BOUNDARY,2500 W LUNT AVE,13.06,Indian Boundary,0,0,0,0,0,0,0,0,0,0,0,0,0,0,0,0,0,1,0,1,0,0,0,0,0,0,0,0,0,0,0,0,0,0,0,0,0,0,0,0,1,1,0,0,1,0,0,0,0,0,1,0,4,0,0,0,0,0,0,1,0,0,0,0,0,0,42,31,9,11,9,REGIONAL PARK,31,50,42,60645
1123,"LUNT (ORRINGTON, STEPHEN)",2239 W LUNT AVE,0.17,Lunt,0,0,0,0,0,0,0,0,0,0,0,0,0,0,0,0,0,1,0,0,0,0,0,0,0,0,0,0,0,0,0,0,0,0,0,0,0,0,0,0,0,0,1,0,0,0,0,0,0,0,0,0,0,0,0,0,0,0,0,0,0,0,0,0,0,0,42,31,3,2,3,MINI-PARK,31,50,42,60645
273,LERNER (LEO),7000 N SACRAMENTO AVE,8.39,Lerner,0,0,0,0,0,0,0,2,0,0,0,0,0,0,0,0,0,0,0,0,0,0,0,0,0,0,0,0,0,0,0,0,0,0,0,0,0,0,0,0,0,1,0,0,0,0,0,0,0,0,0,0,2,0,0,0,0,0,0,0,0,0,0,0,0,0,42,31,10,5,10,COMMUNITY PARK,31,50,42,60645
167,CHIPPEWA,6758 N SACRAMENTO AVE,2.78,Chippewa,0,0,0,0,0,0,2,2,0,0,0,0,0,0,0,0,0,0,0,0,0,0,0,0,0,0,0,0,0,0,0,0,0,0,0,0,0,0,0,0,0,1,0,0,0,0,0,0,0,0,1,0,0,0,0,0,0,0,0,0,0,0,0,0,0,0,42,31,1,6,1,NEIGHBORHOOD PARK,31,50,42,60645
428,WARREN (LAURENCE),6621 N WESTERN AVE,87.61,Warren,0,0,0,0,0,1,12,4,0,0,0,0,0,0,0,0,3,0,0,0,0,0,0,0,0,1,0,1,1,0,1,0,2,1,0,3,0,0,0,0,0,3,0,0,0,0,1,0,1,0,0,2,6,0,0,0,0,0,0,0,0,1,0,0,0,0,42,31,2,44,2,CITYWIDE PARK,31,50,42,60645
557,PARK NO. 557,7211-7355 N KEDZIE AVE,2.01,Park No. 557,0,0,0,0,0,0,0,0,0,0,0,0,0,0,0,0,0,0,0,0,0,0,0,0,0,0,0,0,0,0,0,0,0,0,0,0,0,0,0,0,0,0,0,0,0,0,0,0,0,0,0,0,0,0,0,0,0,0,0,0,0,0,0,0,0,0,42,31,4,0,4,PASSIVE PARK,31,50,42,60645
104,EMMERSON (LOUIS),1820 W GRANVILLE AVE,2.34,Emmerson,0,0,0,0,0,0,2,1,0,0,0,0,0,0,0,0,0,0,0,0,0,0,0,0,0,0,0,0,0,0,0,0,0,0,0,0,0,0,0,0,0,1,0,0,0,0,0,0,0,0,1,0,2,0,0,0,0,0,0,0,0,0,0,0,0,0,20,31,1,7,1,NEIGHBORHOOD PARK,31,50,20,60660
1057,PASCHEN (CHRISTIAN),1932 W LUNT AVE,0.79,Paschen,0,0,0,0,0,0,2,2,0,0,0,0,0,0,0,0,0,0,0,0,0,0,0,0,0,0,0,0,0,0,0,0,0,0,0,0,0,0,0,0,0,1,0,0,0,0,0,0,0,0,0,0,0,0,1,0,0,0,0,0,0,0,0,0,0,0,14,31,1,6,1,NEIGHBORHOOD PARK,31,50,14,60626
526,PARK NO. 526,3200 W PETERSON AVE,7.55,Park No. 526,0,0,0,0,0,0,0,0,0,0,1,0,0,0,0,0,0,0,0,0,0,0,0,0,0,0,0,0,0,0,0,0,0,0,0,0,0,0,0,0,0,0,0,0,0,0,0,0,0,0,0,0,0,0,0,0,0,0,0,0,0,0,0,0,0,0,53,32,6,1,6,UNIMPROVED PARK,32,0,53,60659
100,LINCOLN (ABRAHAM),200 W FULLERTON PKWY,1212.15,Lincoln,0,1,1,4,0,0,6,2,6,1,1,3,0,0,1,1,8,0,1,0,3,1,0,0,1,1,1,1,1,0,0,0,0,0,0,15,0,0,0,0,0,10,0,1,0,0,0,1,0,1,1,0,30,0,0,0,0,0,0,3,0,0,0,0,0,0,52,32,5,107,5,MAGNET PARK,32,0,52,60614
1064,TILTON (GEORGE),305 N KOSTNER,0.98,Tilton,0,0,0,0,0,0,2,1,0,0,0,0,0,0,0,0,0,0,0,0,0,0,0,0,0,0,0,0,0,0,0,0,0,0,0,0,0,0,0,0,0,1,0,0,0,0,0,0,0,0,1,0,0,0,0,0,0,0,0,0,0,0,0,0,0,0,50,32,1,5,1,NEIGHBORHOOD PARK,32,0,50,60624
1225,HARRIS (RYAN) MEMORIAL,6701 S LOWE AVE,2.72,Harris (Ryan) Memorial,0,0,0,0,0,0,0,0,0,0,0,0,0,0,0,0,0,0,0,0,0,0,0,0,0,0,0,0,0,0,0,0,0,0,0,0,0,0,0,0,0,1,0,0,0,0,0,0,0,0,1,0,0,0,0,0,0,0,0,0,0,0,0,0,0,0,46,32,1,2,1,NEIGHBORHOOD PARK,32,0,46,60621
538,THILLENS,6400 N KEDZIE,28.79,Thillens,0,0,0,0,0,0,0,0,0,0,0,0,0,0,0,0,0,0,0,0,0,0,0,0,0,0,0,0,0,0,0,0,0,0,0,0,0,0,0,0,0,0,0,0,0,0,0,0,0,0,0,2,0,0,0,0,0,0,0,0,0,0,0,0,0,0,42,32,2,2,2,CITYWIDE PARK,32,0,42,60645
218,DOUGLAS (STEPHEN),1401 S SACRAMENTO,174.01,Douglas,0,0,0,1,0,0,7,2,0,0,0,0,0,0,1,0,6,0,0,1,0,1,0,0,1,1,0,1,1,0,0,0,0,0,0,1,0,0,1,0,0,5,0,0,0,0,0,0,0,0,3,1,3,1,0,0,0,0,0,1,0,0,0,0,0,0,40,32,2,39,2,CITYWIDE PARK,32,0,40,60623
511,WARD (A. MONTGOMERY),630 N KINGSBURY AVE,2.89,Montgomery Ward,0,0,0,0,0,0,0,0,0,0,0,0,0,0,0,0,0,0,0,0,1,0,0,0,0,0,0,0,0,0,0,0,0,0,0,0,0,0,0,0,0,1,0,0,0,0,0,0,0,0,0,0,0,0,0,0,0,0,0,0,0,0,0,0,0,0,36,32,6,2,6,UNIMPROVED PARK,32,0,36,60610
507,COLISEUM,1466 S WABASH AV,0.66,Coliseum,0,0,0,0,0,0,0,0,0,0,0,0,0,0,0,0,0,0,0,0,1,0,0,0,0,0,0,0,0,0,0,0,0,0,0,0,0,0,0,0,0,0,0,0,0,0,0,0,0,0,0,0,0,0,0,0,0,0,0,0,0,0,0,0,0,0,35,32,1,1,1,NEIGHBORHOOD PARK,32,0,35,60605
10,MARQUETTE (JACQUES),6734 S KEDZIE AVE,322.68,Marquette,0,0,0,1,0,0,8,3,0,0,0,0,0,0,1,0,13,0,0,0,0,0,0,0,0,1,1,0,2,0,0,0,3,0,0,2,0,0,0,0,0,2,0,0,0,0,0,0,0,0,1,0,16,1,0,0,0,0,0,1,0,0,0,0,0,0,33,32,2,56,2,CITYWIDE PARK,32,0,33,60629
509,RENAISSANCE,1300 W 79TH ST,1.04,Renaissance,0,0,0,0,0,0,0,0,0,0,0,0,0,0,0,0,0,0,0,0,0,0,0,0,0,0,0,0,0,0,0,0,0,0,0,0,0,0,0,0,0,0,0,0,0,0,0,0,0,0,0,0,0,0,0,0,0,0,0,0,0,0,0,0,0,0,32,32,4,0,4,PASSIVE PARK,32,0,32,60620
1084,BUENA CIRCLE,1049  W BUENA,0.63,Buena Circle,0,0,0,0,0,0,0,0,0,0,0,0,0,0,0,0,0,0,0,0,0,0,0,0,0,0,0,0,0,0,0,0,0,0,0,0,0,0,0,0,0,0,1,0,0,0,0,0,0,0,0,0,0,0,0,0,0,0,0,0,0,0,0,0,0,0,23,32,1,1,1,NEIGHBORHOOD PARK,32,0,23,60613
530,DALEY (RICHARD J.),3150 S WESTERN AVE,2.67,Daley (Richard J.),0,0,0,0,0,0,0,0,0,1,0,0,0,0,0,0,0,0,0,0,0,0,0,0,0,0,0,0,0,0,0,0,0,0,0,0,0,0,0,0,0,0,0,0,0,0,0,0,0,0,0,0,0,0,0,0,0,0,0,0,0,0,0,0,0,0,19,32,6,1,6,UNIMPROVED PARK,32,0,19,60608
1043,WHITE (WILLYE B.),7631 N ASHLAND AVE,0.88,White (Willye B.),0,0,0,0,0,0,4,2,0,0,0,0,0,0,0,0,0,0,0,0,0,1,0,0,0,0,0,0,1,0,0,0,0,0,0,1,0,0,0,0,0,1,0,0,0,0,0,0,0,0,0,0,0,0,0,0,0,0,0,0,0,0,0,0,0,0,14,32,10,10,10,COMMUNITY PARK,32,0,14,60626
21,WASHINGTON (GEORGE),5531 S DR MARTIN LUTHER KING J,366.84,Washington (George),0,0,0,0,0,0,20,10,0,0,0,0,0,0,1,0,3,0,0,0,0,1,0,0,0,0,0,0,1,0,0,0,0,0,1,13,0,0,1,0,0,4,0,0,0,0,0,0,0,0,1,4,10,0,0,0,1,0,0,1,0,0,0,0,0,4,7,32,2,76,2,CITYWIDE PARK,32,0,7,60637
186,RIVER,5100 N FRANCISCO AVE,30,River,0,0,0,1,0,0,2,1,0,0,0,0,0,0,0,0,1,0,0,0,1,0,0,0,0,0,0,0,1,0,0,0,0,0,0,1,0,0,1,0,0,2,0,0,1,0,0,0,0,0,0,1,5,1,0,1,0,0,0,0,0,0,0,0,0,0,44,33,9,20,9,REGIONAL PARK,33,33,44,60625
275,RONAN (GEORGE),3000 W ARGYLE ST,13.86,Ronan,0,0,0,0,0,0,0,0,0,0,0,0,0,0,0,0,0,0,0,0,0,0,0,0,0,0,0,0,0,0,0,0,0,0,0,0,0,0,0,0,0,1,0,0,0,0,0,0,0,0,0,0,0,0,0,0,0,0,0,0,0,0,0,0,0,0,44,33,1,1,1,NEIGHBORHOOD PARK,33,33,44,60625
1032,HAAS (JOSEPH),2402 N WASHTENAW AVE,0.86,Haas,0,0,0,0,0,0,0,0,0,0,0,0,0,0,0,0,1,0,0,0,0,1,0,0,0,0,0,0,1,0,0,0,0,0,0,1,0,0,0,0,0,1,0,0,0,0,0,0,0,0,1,0,0,0,0,0,0,0,0,0,0,0,0,0,0,0,41,33,1,6,1,NEIGHBORHOOD PARK,33,33,41,60647
1147,SACRAMENTO,3520 N SACRAMENTO AVE,0.8,Sacramento,0,0,0,0,0,0,2,1,0,0,0,0,0,0,0,0,0,0,0,0,0,0,0,0,0,0,0,0,0,0,0,0,0,0,0,1,0,0,0,0,0,1,0,0,0,0,0,0,0,0,0,0,0,0,0,0,0,0,0,0,0,0,0,0,0,0,15,33,1,5,1,NEIGHBORHOOD PARK,33,33,15,60618
1097,ELSTON (DANIEL),3461 N TROY ST,0.42,Elston,0,0,0,0,0,0,0,0,0,0,0,0,0,0,0,0,0,0,0,0,0,0,0,0,0,0,0,0,0,0,0,0,0,0,0,0,0,0,0,0,0,0,1,0,0,0,0,0,0,0,0,0,0,0,0,0,0,0,0,0,0,0,0,0,0,0,15,33,3,1,3,MINI-PARK,33,33,15,60618
187,BRANDS,3285 N ELSTON AVE,5.28,Brands,0,0,0,0,0,0,0,1,0,0,0,0,0,0,0,0,1,0,0,0,0,0,0,0,0,0,0,0,1,0,0,0,0,0,0,2,0,0,0,0,0,1,0,0,0,0,0,0,0,0,0,1,2,0,0,0,0,0,0,0,0,0,0,0,0,0,15,33,10,9,10,COMMUNITY PARK,33,33,15,60618
1133,NELSON (ANDREW),2953 W NELSON ST,0.13,Nelson,0,0,0,0,0,0,0,0,0,0,0,0,0,0,0,0,0,0,0,0,0,0,0,0,0,0,0,0,0,0,0,0,0,0,0,0,0,0,0,0,0,0,1,0,0,0,0,0,0,0,0,0,0,0,0,0,0,0,0,0,0,0,0,0,0,0,15,33,3,1,3,MINI-PARK,33,33,15,60618
1161,ALGONQUIN,2941 N WASHTENAW AVE,0.14,Algonquin,0,0,0,0,0,0,0,0,0,0,0,0,0,0,0,0,0,0,0,0,0,0,0,0,0,0,0,0,0,0,0,0,0,0,0,0,0,0,0,0,0,0,1,0,0,0,0,0,0,0,0,0,0,0,0,0,0,0,0,0,0,0,0,0,0,0,15,33,3,1,3,MINI-PARK,33,33,15,60618
316,WOOD (ELIZABETH),2914 N LEAVITT ST,0.44,Wood,0,0,0,0,0,0,0,0,0,0,0,0,0,0,0,0,0,0,0,0,0,0,0,0,0,0,0,0,0,0,0,0,0,0,0,0,0,0,0,0,0,1,0,0,0,0,0,0,0,0,0,0,0,0,0,0,0,0,0,0,0,0,0,0,0,0,15,33,3,1,3,MINI-PARK,33,33,15,60618
381,GRAPE,2850 W AVONDALE AVE,0.13,Grape,0,0,0,0,0,0,0,0,0,0,0,0,0,0,0,0,0,0,0,0,0,0,0,0,0,0,0,0,0,0,0,0,0,0,0,0,0,0,0,0,0,0,1,0,0,0,0,0,0,0,0,0,0,0,0,0,0,0,0,0,0,0,0,0,0,0,15,33,3,1,3,MINI-PARK,33,33,15,60618
189,CALIFORNIA,3843 N CALIFORNIA AVE,13.52,California,1,0,0,0,0,0,6,2,0,0,0,0,0,0,0,0,0,0,0,0,0,1,0,0,0,0,0,0,0,0,0,0,0,0,0,0,0,0,1,0,0,1,0,0,0,0,0,0,0,0,1,0,4,0,0,0,0,0,0,0,0,0,0,0,0,0,15,33,10,17,10,COMMUNITY PARK,33,33,15,60618
47,CRESCENT,2230 W 108TH PL,5.18,Crescent,0,0,0,0,0,0,0,0,0,0,0,0,0,0,0,0,1,0,0,0,0,0,0,0,0,0,0,0,0,0,0,0,0,0,0,1,0,0,0,0,0,1,0,0,0,0,0,0,0,0,0,0,2,0,0,0,0,0,0,0,0,0,0,0,0,0,39,34,10,5,10,COMMUNITY PARK,34,19,39,60643
46,BOHN (HENRY),1978 W 111TH ST,1.5,Bohn,0,0,0,0,0,0,0,0,0,0,0,0,0,0,0,0,0,0,0,0,0,0,0,0,0,0,0,0,0,0,0,0,0,0,0,0,0,0,0,0,0,0,0,0,0,0,0,0,0,0,0,0,0,0,0,0,0,0,0,0,0,0,0,0,0,0,39,34,4,0,4,PASSIVE PARK,34,19,39,60643
50,ALMOND,2234 W 115TH ST,0.2,Almond,0,0,0,0,0,0,0,0,0,0,0,0,0,0,0,0,0,0,0,0,0,0,0,0,0,0,0,0,0,0,0,0,0,0,0,0,0,0,0,0,0,0,0,0,0,0,0,0,0,0,0,0,0,0,0,0,0,0,0,0,0,0,0,0,0,0,39,34,4,0,4,PASSIVE PARK,34,19,39,60643
373,"BLACKWELDER (I.S., GERTRUDE)",1800 W 115TH ST,5.05,Blackwelder,0,0,0,0,0,0,4,1,0,0,0,0,0,0,0,0,1,0,0,0,0,0,0,0,0,0,0,0,0,0,0,0,0,0,0,1,0,0,0,0,0,1,0,0,0,0,0,0,0,0,0,0,0,0,0,0,0,0,0,0,0,0,0,0,0,0,39,34,10,8,10,COMMUNITY PARK,34,19,39,60643
490,RIDGE PARK WETLANDS,9516 S WOOD ST,1.21,Ridge Park Wetlands,0,0,0,0,0,0,0,0,0,0,0,0,0,0,0,0,0,0,0,0,0,0,0,0,0,0,0,0,0,0,0,0,0,0,0,0,0,0,0,0,0,0,0,0,0,0,0,0,0,0,0,0,0,0,0,0,0,0,1,0,0,0,0,0,0,0,39,34,4,1,4,PASSIVE PARK,34,19,39,60643
175,RIDGE,9625 S LONGWOOD DR,9.32,Ridge,0,0,0,0,0,0,0,0,0,0,0,0,0,0,0,0,1,0,0,0,0,1,0,1,0,0,0,0,1,0,0,0,0,0,1,3,0,0,0,0,0,1,0,0,0,0,0,0,0,0,0,0,2,0,0,0,0,0,0,0,0,0,0,0,0,0,39,34,10,11,10,COMMUNITY PARK,34,19,39,60643
178,HURLEY (TIMOTHY),1901 W 100TH ST,1.21,Hurley,0,0,0,0,0,0,0,0,0,0,0,0,0,0,0,0,0,0,0,0,0,0,0,0,0,0,0,0,0,0,0,0,0,0,0,0,0,0,0,0,0,1,0,0,0,0,0,0,0,0,0,0,0,0,0,0,0,0,0,0,0,0,0,0,0,0,39,34,1,1,1,NEIGHBORHOOD PARK,34,19,39,60643
179,GRAVER (PHILIP),1518 W 102ND PL,4.75,Graver,0,0,0,0,0,0,0,0,0,0,0,0,0,0,0,0,1,0,0,0,0,0,0,0,0,0,0,0,0,0,0,0,0,0,0,2,0,0,0,0,0,1,0,0,0,0,0,0,0,0,0,0,3,0,0,1,0,0,0,0,0,0,0,0,0,0,39,34,1,8,1,NEIGHBORHOOD PARK,34,19,39,60643
1205,BARNARD (ERASTUS),10441 S LONGWOOD DR,1.97,Barnard,0,0,0,0,0,0,0,0,0,0,0,0,0,0,0,0,0,0,0,0,0,0,0,0,0,0,0,0,0,0,0,0,0,0,0,0,0,0,0,0,0,1,0,0,0,0,0,0,0,0,0,0,0,0,0,0,0,0,0,0,0,0,0,0,0,0,39,34,1,1,1,NEIGHBORHOOD PARK,34,19,39,60643
558,PARK NO. 558,10609-15 S WESTERN AVE,0.53,Park No. 558,0,0,0,0,0,0,0,0,0,0,0,0,0,0,0,0,0,0,0,0,0,0,0,0,0,0,0,0,0,0,0,0,0,0,0,0,0,0,0,0,0,0,0,0,0,0,0,0,0,0,0,0,0,0,0,0,0,0,0,0,0,0,0,0,0,0,39,34,6,0,6,UNIMPROVED PARK,34,19,39,60643
49,PROSPECT GARDENS,10970 S PROSPECT AVE,2.88,Prospect Gardens,0,0,0,0,0,0,0,0,0,0,0,0,0,0,0,0,0,0,0,0,0,0,0,0,1,0,0,0,0,0,0,0,0,0,0,0,0,0,0,0,0,0,0,0,0,0,0,0,0,0,0,0,0,0,0,0,0,0,0,0,0,0,0,0,0,0,39,34,4,1,4,PASSIVE PARK,34,19,39,60643
176,COSME (MARGARET),2100 W 91ST ST,3.55,Cosme,0,0,0,0,0,0,0,0,0,0,0,0,0,0,0,0,0,0,0,0,0,0,0,0,0,0,0,0,0,0,0,0,0,0,0,1,0,0,0,0,0,1,0,0,0,0,0,0,0,0,0,0,3,0,0,0,0,0,0,0,0,0,0,0,0,0,32,34,1,5,1,NEIGHBORHOOD PARK,34,19,32,60620
1060,MCKIERNAN (DAVID),10714 S SAWYER AVE,1.82,McKiernan,0,0,0,0,0,0,0,0,0,0,0,0,0,0,0,0,1,0,0,0,0,0,0,0,0,0,0,0,0,0,0,0,0,0,0,2,0,0,0,0,0,1,0,0,0,0,0,0,0,0,1,0,0,0,0,0,0,0,0,0,0,0,0,0,0,0,12,34,1,5,1,NEIGHBORHOOD PARK,34,19,12,60655
251,MOUNT GREENWOOD,3724 W 111TH ST,48.21,Mount Greenwood,1,0,0,0,0,0,0,0,0,0,0,0,0,0,0,0,1,0,0,0,0,0,0,0,0,0,0,0,1,0,0,0,0,1,0,8,0,0,1,0,0,1,0,0,0,0,0,0,0,0,1,3,4,0,0,0,0,0,0,0,0,0,0,0,0,0,12,34,9,22,9,REGIONAL PARK,34,19,12,60655
48,KENNEDY (DENNIS),11320 S WESTERN AVE,18.16,Kennedy,0,0,0,0,0,0,0,0,0,0,0,0,0,0,0,0,1,0,0,0,0,0,0,0,0,0,0,0,0,0,0,0,0,0,0,5,0,0,1,0,0,1,0,0,1,0,0,0,0,0,0,1,4,0,0,0,0,0,0,0,0,0,0,0,0,0,12,34,10,14,10,COMMUNITY PARK,34,19,12,60655
1052,MUNROE,2617 W 105TH ST,5.36,Munroe,0,0,0,0,0,0,0,0,0,0,0,0,0,0,0,0,1,0,0,0,0,0,0,0,0,0,0,0,0,0,0,0,0,0,0,2,0,0,0,0,0,1,0,0,1,0,0,0,0,0,1,0,2,1,0,0,0,0,0,0,0,0,0,0,0,0,12,34,10,9,10,COMMUNITY PARK,34,19,12,60655
254,BEVERLY,2460 W 102ND ST,13.06,Beverly,0,0,0,0,0,0,0,0,0,0,0,0,0,0,0,0,1,0,0,0,0,0,0,0,0,0,0,0,0,0,0,0,0,0,0,4,0,0,0,0,0,1,0,0,1,0,0,0,0,0,1,1,4,0,1,0,0,0,0,0,0,0,0,0,0,0,12,34,10,14,10,COMMUNITY PARK,34,19,12,60655
120,KOSCIUSZKO (THADEUZ),2732 N AVERS AVE,8.06,Kosciuszko,0,0,0,1,0,0,2,1,0,0,0,0,0,0,0,0,1,0,0,0,0,0,0,0,0,0,0,0,1,0,0,0,0,0,1,4,0,0,0,0,0,1,0,0,0,0,0,0,0,0,1,0,1,0,0,0,0,0,0,0,0,0,0,0,0,0,41,35,10,14,10,COMMUNITY PARK,35,35,41,60647
433,NEIGHBORS' GARDEN,2533 N SACRAMENTO AVE,0.14,Neighbors' Garden,0,0,0,0,0,0,0,0,0,0,0,0,0,0,0,0,0,0,0,0,0,0,0,0,0,0,0,0,0,0,0,0,0,0,0,0,0,0,0,0,0,0,0,0,0,0,0,0,0,0,0,0,0,0,0,0,0,0,0,0,0,0,0,0,0,0,41,35,3,0,3,MINI-PARK,35,35,41,60647
293,UNITY,2636 N KIMBALL AVE,1.36,Unity,0,0,0,0,0,0,0,0,0,0,0,0,0,0,0,0,0,0,0,0,0,0,0,0,0,0,0,0,0,0,0,0,0,0,0,0,0,0,0,0,0,1,0,0,0,0,0,0,0,0,1,0,0,0,0,0,0,0,0,0,0,0,0,0,0,0,41,35,1,2,1,NEIGHBORHOOD PARK,35,35,41,60647
549,LOGAN SQUARE SKATE PARK,2430 W LOGAN BLVD,1.61,Logan Square Skate Park,0,0,0,0,0,0,0,0,0,0,0,0,0,0,0,0,0,0,0,0,0,0,0,0,0,0,0,0,0,0,0,0,0,0,0,0,0,0,0,0,0,0,0,0,0,0,0,1,0,0,0,0,0,0,0,0,0,0,0,0,0,0,0,0,0,0,41,35,1,1,1,NEIGHBORHOOD PARK,35,35,41,60647
556,PARK NO. 556,2529 W LOGAN BLVD,0.5,Park No. 556,0,0,0,0,0,0,0,0,0,0,0,0,0,0,0,0,0,0,0,0,0,0,0,0,0,0,0,0,0,0,0,0,0,0,0,0,0,0,0,0,0,0,0,0,0,0,0,0,0,0,0,0,0,0,0,0,0,0,0,0,0,0,0,0,0,0,41,35,6,0,6,UNIMPROVED PARK,35,35,41,60647
83,INDEPENDENCE,3945 N SPRINGFIELD AVE,7.86,Independence,0,0,0,0,0,0,0,0,0,0,0,0,0,0,0,0,1,0,0,0,0,1,0,0,0,0,0,0,1,0,0,0,0,0,1,3,0,0,0,0,0,1,0,0,0,0,0,0,0,0,1,0,4,0,0,0,0,0,0,0,0,0,0,0,0,0,15,35,10,13,10,COMMUNITY PARK,35,35,15,60618
81,AVONDALE,3516 W SCHOOL ST,1.18,Avondale,0,0,0,0,0,0,2,1,0,0,0,0,0,0,0,0,0,0,0,0,0,0,0,0,0,0,0,0,1,1,0,0,0,0,0,0,0,0,1,0,0,1,0,0,0,0,0,0,0,0,1,0,0,0,0,0,0,0,0,0,0,0,0,0,0,0,15,35,10,8,10,COMMUNITY PARK,35,35,15,60618
1056,PARK-VIEW,3823 W SCHOOL ST,0.63,Park-View,0,0,0,0,0,0,0,0,0,0,0,0,0,0,0,0,0,0,0,0,0,0,0,0,0,0,0,0,0,0,0,0,0,0,0,0,0,0,0,0,0,0,1,0,0,0,0,0,0,0,0,0,0,0,0,0,0,0,0,0,0,0,0,0,0,0,15,35,1,1,1,NEIGHBORHOOD PARK,35,35,15,60618
80,ATHLETIC FIELD,3546 W ADDISON ST,3.87,Athletic Field,0,0,0,0,0,0,2,1,0,0,0,0,0,0,0,0,0,0,0,0,0,0,0,0,0,0,0,0,0,0,0,0,0,0,0,3,0,0,0,0,0,1,0,0,0,0,0,0,0,0,1,0,2,0,0,0,0,0,0,0,0,0,0,0,0,0,15,35,1,10,1,NEIGHBORHOOD PARK,35,35,15,60618
84,KILBOURN,3501 N KILBOURN AVE,11.93,Kilbourn,0,0,0,1,0,0,4,1,0,0,0,0,0,0,0,0,1,0,0,0,0,0,0,0,1,0,0,0,1,0,0,0,0,0,0,2,0,0,0,0,0,1,0,0,0,0,0,0,0,0,0,1,4,1,0,0,0,0,0,0,0,0,0,0,0,0,8,35,10,18,10,COMMUNITY PARK,35,35,8,60641
1042,KEN-WELL,2945 N KENOSHA AVE,2.53,Ken-Well,0,0,0,0,0,0,2,1,0,0,0,0,0,0,0,0,1,1,0,0,0,0,0,0,0,0,0,0,0,0,0,0,0,0,0,2,0,0,0,0,0,1,0,0,0,0,0,0,0,0,1,0,0,0,0,0,0,0,0,0,0,0,0,0,0,0,8,35,1,9,1,NEIGHBORHOOD PARK,35,35,8,60641
128,MOZART (AMADEUS),2036 N AVERS AVE,4.41,Mozart,0,0,0,0,0,0,4,2,0,0,0,0,0,0,0,0,1,0,0,0,0,1,0,0,0,0,0,0,1,0,0,0,0,0,0,2,0,0,0,0,0,1,0,0,0,0,0,0,0,0,0,0,0,0,0,0,0,0,0,0,0,0,0,0,0,0,41,36,10,12,10,COMMUNITY PARK,36,31,41,60647
1283,MAPLE,2047 N SPAULDING AVE,0.15,Maple,0,0,0,0,0,0,0,0,0,0,0,0,0,0,0,0,0,0,0,0,0,0,0,0,0,0,0,0,0,0,0,0,0,0,0,0,0,0,0,0,0,0,1,0,0,0,0,0,0,0,0,0,0,0,0,0,0,0,0,0,0,0,0,0,0,0,41,36,3,1,3,MINI-PARK,36,31,41,60647
1130,MONTICELLO,1814 N MONTICELLO AVE,0.36,Monticello,0,0,0,0,0,0,2,1,0,0,0,0,0,0,0,0,0,0,0,0,0,0,0,0,0,0,0,0,0,0,0,0,0,0,0,0,0,0,0,0,0,1,0,0,0,0,0,0,0,0,0,0,0,0,0,0,0,0,0,0,0,0,0,0,0,0,41,36,3,4,3,MINI-PARK,36,31,41,60647
1003,BEILFUSS (A.W.),1725 N SPRINGFIELD AVE,0.78,Beilfuss,0,0,0,0,0,0,0,0,0,0,0,0,0,0,0,0,0,0,0,0,0,0,0,0,0,0,0,0,0,0,0,0,0,0,0,1,0,0,0,0,0,1,0,0,0,0,0,0,0,0,0,0,0,0,0,0,0,0,0,0,0,0,0,0,0,0,41,36,1,2,1,NEIGHBORHOOD PARK,36,31,41,60647
124,SIMONS (ALMIRA),1640 N DRAKE AVE,1.02,Simons,0,0,0,0,0,0,2,1,0,0,0,0,0,0,0,0,0,0,0,0,0,0,0,0,0,0,0,0,1,1,0,0,0,0,0,0,0,0,0,0,0,1,0,0,0,0,0,0,0,0,1,0,0,0,0,0,0,1,0,0,0,0,0,0,0,0,41,36,10,8,10,COMMUNITY PARK,36,31,41,60647
1116,KEYSTONE,1655 N KEYSTONE AVE,0.18,Keystone,0,0,0,0,0,0,0,0,0,0,0,0,0,0,0,0,0,0,0,0,0,0,0,0,0,0,0,0,0,0,0,0,0,0,0,0,0,0,0,0,0,0,1,0,0,0,0,0,0,0,0,0,0,0,0,0,0,0,0,0,0,0,0,0,0,0,38,36,3,1,3,MINI-PARK,36,31,38,60639
1106,HARDING (FREDERICK),3921 W DIVISION ST,0.29,Harding (Frederick),0,0,0,0,0,0,0,0,0,0,0,0,0,0,0,0,0,0,0,0,0,0,0,0,0,0,0,0,0,0,0,0,0,0,0,0,0,0,0,0,0,0,1,0,0,0,0,0,0,0,0,0,0,0,0,0,0,0,0,0,0,0,0,0,0,0,27,36,3,1,3,MINI-PARK,36,31,27,60651
308,LINDEN,1139 N PULASKI RD,0.5,Linden,0,0,0,0,0,0,2,1,0,0,0,0,0,0,0,0,0,0,0,0,0,0,0,0,0,0,0,0,0,0,0,0,0,0,0,0,0,0,0,0,0,1,0,0,0,0,0,0,0,0,1,0,0,0,0,0,0,0,0,0,0,0,0,0,0,0,27,36,1,5,1,NEIGHBORHOOD PARK,36,31,27,60651
1021,AUGUSTA (CARPENTER),4431 W AUGUSTA BLVD,0.85,Augusta,0,0,0,0,0,0,0,0,0,0,0,0,0,0,0,0,0,0,0,0,0,0,0,0,0,0,0,0,0,0,0,0,0,0,0,0,0,0,0,0,0,1,0,0,0,0,0,0,0,0,0,0,0,0,0,0,0,0,0,0,0,0,0,0,0,0,27,36,1,1,1,NEIGHBORHOOD PARK,36,31,27,60651
1039,KEDVALE,4140 W HIRSCH ST,0.78,Kedvale,0,0,0,1,0,0,2,1,0,0,0,0,0,0,0,0,0,0,0,0,0,0,0,0,0,0,0,0,0,0,0,0,0,0,0,0,0,0,0,0,0,1,0,0,0,0,0,0,0,0,1,0,0,0,0,0,0,0,0,0,0,0,0,0,0,0,27,36,1,6,1,NEIGHBORHOOD PARK,36,31,27,60651
407,ORR (REZIN),744 N PULASKI RD,6.81,Orr,0,0,0,1,0,0,0,0,0,0,0,0,0,0,0,0,0,0,0,0,0,0,0,0,0,0,0,0,1,0,0,0,0,0,0,0,0,0,0,0,0,0,0,0,0,0,0,0,0,0,0,0,0,1,0,0,0,0,0,0,0,0,0,0,0,0,50,37,10,3,10,COMMUNITY PARK,37,37,50,60624
1138,OHIO & HARDING,607 N HARDING AVE,0.42,Ohio & Harding,0,0,0,0,0,0,2,1,0,0,0,0,0,0,0,0,0,0,0,0,0,0,0,0,0,0,0,0,0,0,0,0,0,0,0,0,0,0,0,0,0,0,1,0,0,0,0,0,0,0,0,0,0,0,0,0,0,0,0,0,0,0,0,0,0,0,50,37,3,4,3,MINI-PARK,37,37,50,60624
201,LA FOLLETTE (ROBERT),1333 N LARAMIE AVE,17.35,La Follette,0,0,0,1,0,0,2,1,0,0,0,0,0,0,0,0,1,0,0,0,0,1,0,0,0,0,0,0,1,0,0,0,0,0,1,4,0,0,0,0,0,2,0,0,0,0,0,0,0,0,0,0,3,1,0,1,0,0,0,0,0,0,0,0,0,0,27,37,9,19,9,REGIONAL PARK,37,37,27,60651
414,PARK NO. 414,4302 W DIVISION ST,0.28,Park No. 414,0,0,0,0,0,0,0,0,0,0,0,0,0,0,0,0,0,0,0,0,0,0,0,0,0,0,0,0,0,0,0,0,0,0,0,0,0,0,0,0,0,0,0,0,0,0,0,0,0,0,0,0,0,0,0,0,0,0,0,0,0,0,0,0,0,0,27,37,6,0,6,UNIMPROVED PARK,37,37,27,60651
1092,DAVIS (MARGARET),5427 W DIVISION ST,0.26,Davis (Margaret),0,0,0,0,0,0,2,1,0,0,0,0,0,0,0,0,0,0,0,0,0,0,0,0,0,0,0,0,0,0,0,0,0,0,0,0,0,0,0,0,0,0,1,0,0,0,0,0,0,0,0,0,0,0,0,0,0,0,0,0,0,0,0,0,0,0,27,37,3,4,3,MINI-PARK,37,37,27,60651
1103,GRAND,3531 W GRAND AVE,0.28,Grand,0,0,0,0,0,0,0,0,0,0,0,0,0,0,0,0,0,0,0,0,0,0,0,0,0,0,0,0,0,0,0,0,0,0,0,0,0,0,0,0,0,0,1,0,0,0,0,0,0,0,0,0,0,0,0,0,0,0,0,0,0,0,0,0,0,0,27,37,3,1,3,MINI-PARK,37,37,27,60651
430,SWEET CLOVER,650 N LEAMINGTON AVE,0.13,Sweet Clover,0,0,0,0,0,0,0,0,0,0,0,0,0,0,0,0,0,0,0,0,0,0,0,0,0,0,0,0,0,0,0,0,0,0,0,0,0,0,0,0,0,0,1,0,0,0,0,0,0,0,0,0,0,0,0,0,0,0,0,0,0,0,0,0,0,0,26,37,3,1,3,MINI-PARK,37,37,26,60644
1139,OHIO,4712 W OHIO ST,0.42,Ohio,0,0,0,0,0,0,2,1,0,0,0,0,0,0,0,0,0,0,0,0,0,0,0,0,0,0,0,0,0,0,0,0,0,0,0,0,0,0,0,0,0,1,0,0,0,0,0,0,0,0,1,0,0,0,0,0,0,0,0,0,0,0,0,0,0,0,26,37,3,5,3,MINI-PARK,37,37,26,60644
1109,HUBBARD (GURDON),4950 W HUBBARD ST,0.48,Hubbard,0,0,0,0,0,0,2,1,0,0,0,0,0,0,0,0,0,0,0,0,0,0,0,0,0,0,0,0,0,0,0,0,0,0,0,0,0,0,0,0,0,1,0,0,0,0,0,0,0,0,0,0,0,0,0,0,0,0,0,0,0,0,0,0,0,0,26,37,3,4,3,MINI-PARK,37,37,26,60644
1220,LEVIN (JOHN),462 N PINE AVE,5.76,Levin,0,0,0,0,0,0,4,1,0,0,0,0,0,0,0,0,0,0,0,0,0,0,0,0,0,0,0,0,0,0,0,0,0,0,0,1,0,0,0,0,0,1,0,0,0,0,0,0,0,0,1,0,0,0,0,0,0,0,0,0,0,0,0,0,0,0,26,37,10,8,10,COMMUNITY PARK,37,37,26,60644
1217,KINZIE (JOHN) PKWY.,5200 W KINZIE ST,0.98,Kinzie Pkwy.,0,0,0,0,0,0,0,0,0,0,0,0,0,0,0,0,0,0,0,0,0,0,0,0,0,0,0,0,0,0,0,0,0,0,0,0,0,0,0,0,0,0,0,0,0,0,0,0,0,0,0,0,0,0,0,0,0,0,0,0,0,0,0,0,0,0,26,37,4,0,4,PASSIVE PARK,37,37,26,60644
416,COTTONWOOD,5058 W WEST END AVE,0.14,Cottonwood,0,0,0,0,0,0,0,0,0,0,0,0,0,0,0,0,0,0,0,0,0,0,0,0,0,0,0,0,0,0,0,0,0,0,0,0,0,0,0,0,0,0,1,0,0,0,0,0,0,0,0,0,0,0,0,0,0,0,0,0,0,0,0,0,0,0,26,37,3,1,3,MINI-PARK,37,37,26,60644
1005,BLOCK,346 W 104TH ST,2.6,Block,0,0,0,0,0,0,0,0,0,0,0,0,0,0,0,0,0,0,0,0,0,0,0,0,0,0,0,0,0,0,0,0,0,0,0,0,0,0,0,0,0,0,0,0,0,0,0,0,0,0,0,0,0,0,0,0,0,0,0,0,0,0,0,0,0,0,48,38,4,0,4,PASSIVE PARK,38,34,48,60628
65,FERNWOOD,10436 S WALLACE ST,12.33,Fernwood,0,0,0,0,0,0,4,2,0,0,0,0,0,0,0,0,1,0,0,0,0,1,0,0,0,0,0,0,1,0,0,0,0,0,1,1,0,0,0,0,0,1,0,0,0,0,0,0,0,0,1,1,4,0,0,0,0,0,0,0,0,0,0,0,0,0,48,38,10,18,10,COMMUNITY PARK,38,34,48,60628
236,ROBINSON (JACKIE),10540 S MORGAN ST,16.79,Robinson,0,0,0,0,0,0,4,1,0,0,0,0,0,0,0,0,0,0,0,0,0,0,0,0,0,0,0,0,0,0,0,0,0,0,0,2,0,0,0,0,0,1,0,0,0,0,0,0,0,0,0,2,0,0,0,0,0,0,0,0,0,0,0,0,0,0,39,38,9,10,9,REGIONAL PARK,38,34,39,60643
446,LAMB (HAROLD),1400 W 109TH ST,0.97,Lamb,0,0,0,0,0,0,2,1,0,0,0,0,0,0,0,0,0,0,0,0,0,0,0,0,0,0,0,0,0,0,0,0,0,0,0,0,0,0,0,0,0,1,0,0,0,0,0,0,0,0,0,0,0,0,0,0,0,0,0,0,0,0,0,0,0,0,39,38,1,4,1,NEIGHBORHOOD PARK,38,34,39,60643
45,ADA (SAWYER GARRETT),11250 S ADA ST,15.23,Ada,0,0,0,0,0,0,4,2,0,0,0,0,0,0,0,0,1,0,0,0,0,1,0,0,0,0,0,0,1,0,0,0,2,0,0,2,0,0,1,0,0,1,0,0,0,0,0,0,0,0,1,2,4,0,0,0,0,0,0,0,0,0,0,0,0,0,39,38,9,22,9,REGIONAL PARK,38,34,39,60643
1132,MORGAN (THOMAS LEEDS) FIELD,11710 S MORGAN ST,2.84,Morgan Field,0,0,0,0,0,0,6,3,0,0,0,0,0,0,0,0,0,0,0,0,0,0,0,0,0,0,0,0,0,0,0,0,0,0,0,0,0,0,0,0,0,1,0,0,0,0,0,0,0,0,0,0,0,0,0,0,0,0,0,0,0,0,0,0,0,0,39,38,1,10,1,NEIGHBORHOOD PARK,38,34,39,60643
287,COOPER (JACK),1332 W 117TH ST,4.35,Cooper,0,0,0,0,0,0,4,1,0,0,0,0,0,0,0,0,0,0,0,0,0,0,0,0,0,0,0,0,0,0,0,0,0,0,0,2,0,0,0,0,0,1,0,0,0,0,0,0,0,0,0,0,2,0,1,0,0,0,0,0,0,0,0,0,0,0,39,38,1,11,1,NEIGHBORHOOD PARK,38,34,39,60643
379,WHITE (EDWARD),1120 W 122ND ST,4.59,White (Edward),0,0,0,0,0,0,4,2,0,0,0,0,0,0,0,0,1,0,0,0,0,0,0,0,0,0,0,0,1,0,0,0,0,0,0,3,0,0,0,0,0,1,0,0,0,0,0,0,0,0,1,0,2,0,0,0,0,0,0,0,0,0,0,0,0,0,39,38,1,15,1,NEIGHBORHOOD PARK,38,34,39,60643
449,WIEBOLDT (WILLIAM),1747 W NELSON ST,0.29,Wieboldt,0,0,0,0,0,0,0,0,0,0,0,0,0,0,0,0,0,0,0,0,0,0,0,0,0,0,0,0,0,0,0,0,0,0,0,0,0,0,0,0,0,0,1,0,0,0,0,0,0,0,0,0,0,0,0,0,0,0,0,0,0,0,0,0,0,0,54,39,3,1,3,MINI-PARK,39,32,54,60657
522,WANG (CHI CHE),1762 W DIVERSEY PKWY,1.97,Wang,0,0,0,0,0,0,0,0,0,0,0,0,0,0,0,0,0,0,0,0,0,0,0,0,0,0,0,0,0,0,0,0,0,0,0,0,0,0,0,0,0,1,0,0,0,0,0,0,0,0,0,0,0,0,0,0,0,0,0,0,0,0,0,0,0,0,54,39,6,1,6,UNIMPROVED PARK,39,32,54,60657
544,KLEIN (LOIS),3538-40 N LINCOLN AVE,0.33,Klein,0,0,0,0,0,0,0,0,0,0,0,0,0,0,0,0,0,0,0,0,0,0,0,0,0,0,0,0,0,0,0,0,0,0,0,0,0,0,0,0,0,0,1,0,0,0,0,0,0,0,0,0,0,0,0,0,0,0,0,0,0,0,0,0,0,0,54,39,4,1,4,PASSIVE PARK,39,32,54,60657
512,PARK NO. 512,1800 N ASHLAND AVE,1.15,Park No. 512,0,0,0,0,0,0,0,0,0,0,0,0,0,0,0,0,0,0,0,0,0,0,0,0,0,0,0,0,0,0,0,0,0,0,0,0,0,0,0,0,0,0,0,0,0,0,0,0,0,0,0,0,0,0,0,0,0,0,0,0,0,0,0,0,0,0,52,39,6,0,6,UNIMPROVED PARK,39,32,52,60614
1074,WRIGHTWOOD,2534 N GREENVIEW AVE,4.25,Wrightwood,0,0,0,0,0,0,8,2,0,0,0,0,0,0,0,0,1,0,0,0,0,0,0,0,0,0,0,0,0,0,0,0,0,0,0,1,0,0,1,0,0,1,0,0,1,0,0,0,0,0,0,0,0,1,0,0,0,0,0,0,0,0,0,0,0,0,52,39,1,16,1,NEIGHBORHOOD PARK,39,32,52,60614
1148,SCHAEFER (EDWARD),2415 N MARSHFIELD AVE,0.23,Schaefer,0,0,0,0,0,0,0,0,0,0,0,0,0,0,0,0,0,0,0,0,0,0,0,0,0,0,0,0,0,0,0,0,0,0,0,0,0,0,0,0,0,0,1,0,0,0,0,0,0,0,0,0,0,0,0,0,0,0,0,0,0,0,0,0,0,0,52,39,3,1,3,MINI-PARK,39,32,52,60614
1277,CLOVER,2210 N SOUTHPORT AVE,0.37,Clover,0,0,0,0,0,0,0,1,0,0,0,0,0,0,0,0,0,0,0,0,0,0,0,0,0,0,0,0,0,0,0,0,0,0,0,0,0,0,0,0,0,0,1,0,0,0,0,0,0,0,0,0,0,0,0,0,0,0,0,0,0,0,0,0,0,0,52,39,3,2,3,MINI-PARK,39,32,52,60614
412,CHURCHILL FIELD,1825 N DAMEN AVE,1.13,Churchill Field,0,0,0,0,0,0,0,0,0,0,0,0,0,0,0,0,0,0,0,0,1,0,0,0,0,0,0,0,0,0,0,0,0,0,0,1,0,0,0,0,0,0,0,0,0,0,0,0,0,0,0,0,0,0,0,0,0,0,0,0,0,0,0,0,0,0,52,39,1,2,1,NEIGHBORHOOD PARK,39,32,52,60614
393,WALSH (JOHN),1722 N ASHLAND AVE,1.91,Walsh,0,0,0,0,0,0,0,0,0,0,0,0,0,0,0,0,0,0,0,0,1,0,0,0,0,0,0,0,0,0,0,0,0,0,0,0,0,0,0,0,0,1,0,0,0,0,0,0,0,0,0,0,0,0,0,0,0,0,0,0,0,0,0,0,0,0,52,39,1,2,1,NEIGHBORHOOD PARK,39,32,52,60614
455,SENIOR CITIZENS MEML.,2238 N OAKLEY AVE,0.91,Senior Citizens Meml.,0,0,0,0,0,0,0,0,0,0,0,0,0,0,0,0,0,0,0,0,0,0,0,0,0,0,0,0,0,0,0,0,0,0,0,0,0,0,0,0,0,0,0,0,0,0,1,0,0,0,0,0,0,0,0,0,0,0,0,0,0,0,0,0,0,0,41,39,4,1,4,PASSIVE PARK,39,32,41,60647
203,HOLSTEIN,2200 N OAKLEY AVE,2.74,Holstein,0,0,0,0,0,0,0,0,0,0,0,0,0,0,0,0,0,0,0,0,0,0,0,0,0,0,0,0,2,0,0,0,0,0,0,0,0,0,1,0,0,1,0,0,0,0,0,0,0,0,1,1,0,0,0,0,0,0,0,0,0,0,0,0,0,0,41,39,10,6,10,COMMUNITY PARK,39,32,41,60647
529,PARK NO. 529,2155 W WABANSIA AVE,0.39,Park No. 529,0,0,0,0,0,0,0,0,0,0,0,0,0,0,0,0,0,0,0,0,0,0,0,0,0,0,0,0,0,0,0,0,0,0,0,0,0,0,0,0,0,0,0,0,0,0,0,0,0,0,0,0,0,0,0,0,0,0,0,0,0,0,0,0,0,0,41,39,6,0,6,UNIMPROVED PARK,39,32,41,60647
283,ERHLER (WILLIAM),2230 W CORTLAND ST,0.83,Erhler,0,0,0,0,0,0,0,0,0,0,0,0,0,0,0,0,0,0,0,0,0,0,0,0,0,0,0,0,0,0,0,0,0,0,0,0,0,0,0,0,0,1,0,0,0,0,0,0,0,0,0,0,0,0,0,0,0,0,0,0,0,0,0,0,0,0,41,39,1,1,1,NEIGHBORHOOD PARK,39,32,41,60647
520,PARK NO. 520,916 N HONORE ST,0.14,Park No. 520,0,0,0,0,0,0,0,0,0,0,0,0,0,0,0,0,0,0,0,0,0,0,0,0,0,0,0,0,0,0,0,0,0,0,0,0,0,0,0,0,0,0,1,0,0,0,0,0,0,0,0,0,0,0,0,0,0,0,0,0,0,0,0,0,0,0,31,39,3,1,3,MINI-PARK,39,32,31,60622
1027,DEAN (JOHN),1356 N DEAN ST,0.66,Dean,0,0,0,0,0,0,0,0,0,0,0,0,0,0,0,0,0,1,0,0,0,0,0,0,0,0,0,0,0,0,0,0,0,0,0,0,0,0,0,0,0,1,0,0,0,0,0,0,0,0,1,0,0,0,0,0,0,0,0,0,0,0,0,0,0,0,31,39,1,3,1,NEIGHBORHOOD PARK,39,32,31,60622
217,PULASKI (CASIMER),1419 W BLACKHAWK ST,3.69,Pulaski,0,0,0,0,0,0,0,0,0,0,0,0,0,0,0,0,1,0,0,0,0,0,0,0,0,0,0,0,2,0,0,0,0,0,0,1,0,0,1,0,0,0,0,0,0,0,0,0,0,0,1,0,0,0,0,1,0,0,0,0,0,0,0,0,0,0,31,39,10,7,10,COMMUNITY PARK,39,32,31,60622
1165,WESTERN,907 N WESTERN AVE,0.29,Western,0,0,0,0,0,0,0,0,0,0,0,0,0,0,0,0,0,0,0,0,0,0,0,0,0,0,0,0,0,0,0,0,0,0,0,0,0,0,0,0,0,0,1,0,0,0,0,0,0,0,0,0,0,0,0,0,0,0,0,0,0,0,0,0,0,0,31,39,3,1,3,MINI-PARK,39,32,31,60622
208,ECKHART (BERNARD),1330 W CHICAGO AVE,8.12,Eckhart,0,0,0,0,0,0,2,1,0,0,0,0,0,0,0,0,1,1,0,0,0,1,0,0,0,0,0,0,1,0,0,0,0,0,1,2,0,0,0,0,0,1,0,0,0,0,0,0,0,0,1,1,0,0,0,0,0,1,0,0,0,0,0,0,0,0,31,39,10,14,10,COMMUNITY PARK,39,32,31,60622
1006,COMMERCIAL CLUB PGD. of CHICAGO,1845 W RICE ST,1.35,Commercial Club Pgd. of Chicago,0,0,0,0,0,0,2,1,0,0,0,0,0,0,0,0,1,0,0,0,0,0,0,0,0,0,0,0,1,0,0,0,0,0,0,1,0,0,0,0,0,1,0,0,0,0,0,0,0,0,1,0,0,0,0,0,0,0,0,0,0,0,0,0,0,0,31,39,10,8,10,COMMUNITY PARK,39,32,31,60622
536,PARK NO. 536,1401 N NOBLE ST,0.24,Park No. 536,0,0,0,0,0,0,0,0,0,0,0,0,0,0,0,0,0,0,0,0,0,0,0,0,0,0,0,0,0,0,0,0,0,0,0,0,0,0,0,0,0,0,0,0,0,0,0,0,0,0,0,0,0,0,0,0,0,0,0,0,0,0,0,0,0,0,31,39,6,0,6,UNIMPROVED PARK,39,32,31,60622
1100,FELLGER (CHARLES),2012 W BELMONT AVE,0.72,Fellger,0,0,0,0,0,0,0,0,0,0,0,0,0,0,0,0,0,0,0,0,0,0,0,0,0,0,0,0,0,0,0,0,0,0,0,0,0,0,0,0,0,0,1,0,0,0,0,0,0,0,0,0,0,0,0,0,0,0,0,0,0,0,0,0,0,0,15,39,1,1,1,NEIGHBORHOOD PARK,39,32,15,60618
106,HAMLIN (HANNIBAL),3035 N HOYNE AVE,8.16,Hamlin,0,0,0,0,0,0,4,1,0,0,0,0,0,0,0,0,1,0,0,1,1,1,0,0,0,0,0,0,2,0,0,0,0,0,0,2,0,0,1,0,0,1,0,0,0,0,0,0,0,0,0,2,2,0,0,0,0,1,0,0,0,0,0,0,0,0,15,39,10,20,10,COMMUNITY PARK,39,32,15,60618
1150,SUPERIOR,2101 W SUPERIOR ST,0.27,Superior,0,0,0,0,0,0,0,0,0,0,0,0,0,0,0,0,0,0,0,0,0,0,0,0,0,0,0,0,0,0,0,0,0,0,0,0,0,0,0,0,0,0,1,0,0,0,0,0,0,0,0,0,0,0,0,0,0,0,0,0,0,0,0,0,0,0,2,39,3,1,3,MINI-PARK,39,32,2,60612
23,MCKINLEY (WILLIAM),2210 W PERSHING RD,69.28,McKinley,0,0,0,1,0,0,6,2,0,0,0,0,0,0,1,0,1,0,0,0,0,0,0,0,0,0,0,0,1,1,0,0,0,1,0,3,0,0,1,0,0,1,0,0,0,0,0,0,0,0,0,2,10,0,0,1,0,0,0,1,0,0,0,0,0,0,51,40,9,33,9,REGIONAL PARK,40,12,51,60609
14,DAVIS (DR. NATHAN) SQUARE,4430 S MARSHFIELD AVE,8.13,Davis (Nathan) Square,0,0,0,1,0,0,4,2,0,0,0,0,0,0,0,0,2,0,0,0,0,1,0,0,0,0,0,0,0,0,0,0,2,0,0,3,0,0,1,0,0,1,0,0,0,0,0,0,0,0,1,0,0,0,0,0,0,0,0,0,0,0,0,0,0,0,51,40,10,18,10,COMMUNITY PARK,40,12,51,60609
260,KELLY (EDWARD),2725 W 41ST ST,7.08,Kelly (Edward),0,0,0,0,0,0,4,2,0,0,0,0,0,0,0,0,1,0,0,0,0,0,0,0,0,0,0,0,0,0,0,0,0,0,0,3,0,0,0,0,0,1,0,0,0,0,0,0,0,0,0,1,0,0,0,0,0,0,0,0,0,0,0,0,0,0,45,40,10,12,10,COMMUNITY PARK,40,12,45,60632
426,BRIGHTON,3501 S RICHMOND ST,0.94,Brighton,0,0,0,0,0,0,4,1,0,0,0,0,0,0,0,0,0,0,0,0,0,0,0,0,0,0,0,0,0,0,0,0,0,0,0,0,0,0,0,0,0,1,0,0,0,0,0,0,0,0,0,0,0,0,0,0,0,0,0,0,0,0,0,0,0,0,45,40,1,6,1,NEIGHBORHOOD PARK,40,12,45,60632
372,CATALPA,4330 S KEDVALE AVE,0.43,Catalpa,0,0,0,0,0,0,0,0,0,0,0,0,0,0,0,0,0,0,0,0,0,0,0,0,0,0,0,0,0,0,0,0,0,0,0,0,0,0,0,0,0,0,1,0,0,0,0,0,0,0,1,0,0,0,0,0,0,0,0,0,0,0,0,0,0,0,45,40,3,2,3,MINI-PARK,40,12,45,60632
1278,WALNUT,3801 W 45TH ST,0.53,Walnut,0,0,0,0,0,0,0,0,0,0,0,0,0,0,0,0,0,0,0,0,0,0,0,0,0,0,0,0,0,0,0,0,0,0,0,0,0,0,0,0,0,1,0,0,0,0,0,0,0,1,0,0,0,0,0,0,0,0,0,0,0,0,0,0,0,0,45,40,1,2,1,NEIGHBORHOOD PARK,40,12,45,60632
1036,HOYNE (THOMAS),3417 S HAMILTON AVE,2.01,Hoyne,0,0,0,0,0,0,6,1,0,0,0,0,0,0,0,0,1,0,0,0,0,0,0,0,0,0,0,0,0,0,0,0,2,0,0,1,0,0,0,0,0,1,0,0,0,0,0,0,0,0,0,0,0,0,1,0,0,0,0,0,0,0,0,0,0,0,19,40,1,13,1,NEIGHBORHOOD PARK,40,12,19,60608
305,LE CLAIRE COURTS - HEARST COMM. CTR,5116 W 44TH ST,12.33,Le Claire Courts - Hearst Comm. Ctr,0,0,0,0,0,0,4,1,0,0,0,0,0,0,0,0,2,0,0,0,0,0,0,0,0,0,0,0,1,0,0,0,0,0,0,2,0,0,0,0,0,1,0,0,0,0,0,0,0,0,0,0,2,0,0,0,0,0,0,0,0,0,0,0,0,0,10,40,10,13,10,COMMUNITY PARK,40,12,10,60638
17,MANN (JAMES),3035 E 130TH ST,20,Mann,0,0,0,0,0,0,0,0,0,0,0,0,0,0,0,0,1,0,0,0,0,1,0,0,0,0,0,0,1,0,0,0,0,0,1,6,0,0,0,0,0,1,0,0,0,0,0,0,0,0,1,1,4,0,0,0,0,0,0,0,0,0,0,0,0,0,43,41,9,17,9,REGIONAL PARK,41,10,43,60633
1080,WESOLEK (MARLENE),13407 S AVENUE M,0.34,Wesolek,0,0,0,0,0,0,0,0,0,0,0,0,0,0,0,0,0,0,0,0,0,0,0,0,0,0,0,0,0,0,0,0,0,0,0,0,0,0,0,0,0,1,0,0,0,0,0,0,0,0,0,0,0,0,0,0,0,0,0,0,0,0,0,0,0,0,43,41,3,1,3,MINI-PARK,41,10,43,60633
563,PARK NO. 563,13000 S TORRENCE AVE,118.42,Park No. 563,0,0,0,0,0,0,0,0,0,0,0,0,0,0,0,0,0,0,0,0,0,0,0,0,0,0,0,0,0,0,0,0,0,0,0,0,0,0,0,0,0,0,0,0,0,0,0,0,0,0,0,0,0,0,0,0,0,0,0,0,0,0,0,0,0,0,43,41,8,0,8,NATURE PRESERVE PARK,41,10,43,60633
1072,WOLFE (RICHARD),3325 E 108TH ST,3.62,Wolfe,0,0,0,0,0,0,4,1,0,0,0,0,2,0,0,0,1,0,0,0,0,0,0,0,0,0,0,0,0,0,0,0,2,0,0,2,0,0,0,0,0,1,0,0,0,0,0,0,0,0,1,0,0,0,0,0,0,0,0,0,0,0,0,0,0,0,25,41,1,14,1,NEIGHBORHOOD PARK,41,10,25,60617
248,ROWAN (WILLIAM),11546 S AVENUE L,17.62,Rowan,0,0,0,0,0,0,0,0,0,0,0,0,0,0,0,0,1,0,0,0,0,0,0,0,0,0,0,0,1,0,0,0,0,1,0,4,0,0,0,0,0,1,0,0,0,0,0,0,0,0,1,2,0,0,0,0,0,0,0,0,0,0,0,0,0,0,25,41,9,11,9,REGIONAL PARK,41,10,25,60617
11,CALUMET,9801 S AVENUE G,198.98,Calumet,0,0,0,1,0,0,4,1,2,0,0,90,0,0,0,0,4,0,0,0,0,1,0,0,0,0,0,0,1,1,0,0,1,0,0,8,0,0,0,0,0,1,0,0,0,0,0,0,0,0,0,3,16,1,0,0,0,0,0,0,0,0,0,0,0,0,25,41,2,135,2,CITYWIDE PARK,41,10,25,60617
1287,PINE,9507 S OGLESBY AVE,0.24,Pine,0,0,0,0,0,0,0,0,0,0,0,0,0,0,0,0,0,0,0,0,0,0,0,0,0,0,0,0,0,0,0,0,0,0,0,0,0,0,0,0,0,0,1,0,0,0,0,0,0,0,0,0,0,0,0,0,0,0,0,0,0,0,0,0,0,0,25,41,3,1,3,MINI-PARK,41,10,25,60617
1058,PIETROWSKI (SYLVESTER),9650 S AVENUE M,0.55,Pietrowski,0,0,0,0,0,0,2,1,0,0,0,0,0,0,0,0,0,0,0,0,0,0,0,0,0,0,0,0,0,0,0,0,0,0,0,0,0,0,0,0,0,1,0,0,0,0,0,0,0,0,0,0,0,0,0,0,0,0,0,0,0,0,0,0,0,0,25,41,1,4,1,NEIGHBORHOOD PARK,41,10,25,60617
1126,MERRILL (GEORGE),2131 E 96TH ST,3.09,Merrill,0,0,0,0,0,0,4,2,0,0,0,0,0,0,0,0,0,0,0,0,0,0,0,0,0,0,0,0,0,0,0,0,0,0,0,1,0,0,0,0,0,1,0,0,0,0,0,0,0,0,1,0,0,0,0,0,0,0,0,0,0,0,0,0,0,0,25,41,1,9,1,NEIGHBORHOOD PARK,41,10,25,60617
1067,VETERANS' MEMORIAL,2820 E 98TH ST,3.87,Veterans' Memorial,0,0,0,0,0,0,0,0,0,0,0,0,1,0,0,0,1,0,0,0,0,0,0,0,0,0,0,0,0,0,0,0,0,0,0,4,0,0,0,0,0,1,0,0,0,0,0,0,0,1,1,0,0,0,0,0,0,0,0,0,0,0,0,0,0,0,25,41,1,9,1,NEIGHBORHOOD PARK,41,10,25,60617
16,TRUMBULL (LYMAN),2400 E 105TH ST,18.52,Trumbull,0,0,0,0,0,0,4,1,0,0,0,0,0,0,0,0,1,0,0,0,0,1,0,0,0,0,0,0,2,0,0,0,0,0,0,3,0,0,1,0,0,1,0,0,0,0,0,0,0,1,1,1,2,1,0,0,0,0,0,0,0,0,0,0,0,0,25,41,9,20,9,REGIONAL PARK,41,10,25,60617
1079,KRAUSE (FRANCIS VERNON),10558 S AVENUE L,0.12,Krause,0,0,0,0,0,0,0,0,0,0,0,0,0,0,0,0,0,0,0,0,0,0,0,0,0,0,0,0,0,0,0,0,0,0,0,0,0,0,0,0,0,0,1,0,0,0,0,0,0,0,1,0,0,0,0,0,0,0,0,0,0,0,0,0,0,0,25,41,3,2,3,MINI-PARK,41,10,25,60617
564,PARK NO. 564,1958 E 116TH ST,304.07,Park No. 564,0,0,0,0,0,0,0,0,0,0,0,0,0,0,0,0,0,0,0,0,0,0,0,0,0,0,0,0,0,0,0,0,0,0,0,0,0,0,0,0,0,0,0,0,0,0,0,0,0,0,0,0,0,0,0,0,0,0,0,0,0,0,0,0,0,0,25,41,8,0,8,NATURE PRESERVE PARK,41,10,25,60617
1004,BRADLEY (JOSEPHINE),9729 S YATES AVE,4.07,Bradley,0,0,0,0,0,0,2,1,0,0,0,0,0,0,0,0,1,0,0,0,0,0,0,0,0,0,0,0,0,0,0,0,0,0,0,2,0,0,0,0,0,1,0,0,0,0,0,0,0,0,0,0,2,0,1,0,0,0,0,0,0,0,0,0,0,0,25,41,1,10,1,NEIGHBORHOOD PARK,41,10,25,60617
1001,RAINBOW BEACH,2873 E 75TH ST,64.14,Rainbow Beach,0,0,0,0,0,0,10,4,1,0,0,0,0,0,0,0,1,0,0,0,0,1,0,0,0,0,0,0,1,0,0,3,0,0,0,3,0,0,0,0,0,1,0,0,0,0,0,0,0,0,0,1,12,0,0,0,0,0,0,0,0,0,0,0,0,0,21,41,2,38,2,CITYWIDE PARK,41,10,21,60649
109,STANTON (EDWIN),640 W SCOTT ST,6.51,Stanton,0,0,0,0,0,0,6,3,0,0,0,0,0,0,0,0,1,0,0,0,0,0,0,0,0,0,0,0,1,0,0,0,0,0,0,1,0,0,0,0,0,1,0,0,0,0,0,0,0,0,1,1,0,0,0,0,0,0,0,0,0,0,0,0,0,0,36,42,10,15,10,COMMUNITY PARK,42,42,36,60610
105,GOUDY (WILLIAM) SQUARE,1255 N ASTOR ST,0.46,Goudy Square,0,0,0,0,0,0,0,0,0,0,0,0,0,0,0,0,0,0,0,0,0,0,0,0,0,0,0,0,0,0,0,0,0,0,0,0,0,0,0,0,0,0,1,0,0,0,0,0,0,0,0,0,0,0,0,0,0,0,0,0,0,0,0,0,0,0,36,42,3,1,3,MINI-PARK,42,42,36,60610
1244,WASHINGTON SQUARE,901 N CLARK ST,2.38,Washington Square,0,0,0,0,0,0,0,0,0,0,0,0,0,0,0,0,0,0,0,0,0,0,0,0,0,0,0,0,0,0,0,0,0,0,0,0,0,0,0,0,0,0,0,0,0,0,0,0,0,0,0,0,0,0,0,0,0,0,0,0,0,0,0,0,0,0,36,42,4,0,4,PASSIVE PARK,42,42,36,60610
1037,DURSO (JOHN),421 W LOCUST ST,1.29,Durso,0,0,0,0,0,0,4,2,0,0,0,0,0,0,0,0,0,0,0,0,0,0,0,0,0,0,0,0,0,0,0,0,0,0,0,0,0,0,0,0,0,1,0,0,0,0,0,0,0,0,0,0,0,0,0,0,0,0,0,0,0,0,0,0,0,0,36,42,1,7,1,NEIGHBORHOOD PARK,42,42,36,60610
513,PARK NO. 513,1401 S INDIANA AVE,1.02,Park No. 513,0,0,0,0,0,0,0,0,0,0,0,0,0,0,0,0,0,0,0,0,0,0,0,0,0,0,0,0,0,0,0,0,0,0,0,0,0,0,0,0,0,0,0,0,0,0,0,0,0,0,0,0,0,0,0,0,0,0,0,0,0,0,0,0,0,0,35,42,4,0,4,PASSIVE PARK,42,42,35,60605
1224,ADDAMS (JANE) MEML.,485 E OHIO ST,4.51,Addams (Jane) Memorial,0,0,0,0,0,0,0,0,0,0,0,0,0,0,0,0,0,0,0,0,0,0,0,0,0,0,0,0,0,0,0,0,0,0,0,0,0,0,0,0,0,0,0,0,0,0,0,0,0,0,0,0,0,0,0,0,0,0,0,0,0,0,0,0,0,0,9,42,4,0,4,PASSIVE PARK,42,42,9,60611
1239,MARIANO (LOUIS),1031 N RUSH ST,0.19,Mariano,0,0,0,0,0,0,0,0,0,0,0,0,0,0,0,0,0,0,0,0,0,0,0,0,0,0,0,0,0,0,0,0,0,0,0,0,0,0,0,0,0,0,0,0,0,0,0,0,0,0,0,0,0,0,0,0,0,0,0,0,0,0,0,0,0,0,9,42,4,0,4,PASSIVE PARK,42,42,9,60611
1200,CONNORS (WILLIAM),871 N WABASH AVE,0.2,Connors,0,0,0,0,0,0,0,0,0,0,0,0,0,0,0,0,0,0,0,0,0,0,0,0,0,0,0,0,0,0,0,0,0,0,0,0,0,0,0,0,0,0,0,0,0,0,0,0,0,0,0,0,0,0,0,0,0,0,0,0,0,0,0,0,0,0,9,42,4,0,4,PASSIVE PARK,42,42,9,60611
107,LAKE SHORE,254 E CHICAGO AVE,3.69,Lake Shore,0,0,0,0,0,0,0,0,0,0,0,0,0,0,0,0,0,1,0,0,0,1,0,0,0,0,0,0,1,0,0,0,0,0,0,2,0,0,0,0,0,1,0,0,0,0,0,0,0,0,0,0,2,1,0,0,0,0,0,0,0,0,0,0,0,0,9,42,1,9,1,NEIGHBORHOOD PARK,42,42,9,60611
1242,SENECA,228 E CHICAGO AVE,0.82,Seneca,0,0,0,0,0,0,0,0,0,0,0,0,0,0,0,0,0,0,0,0,0,0,0,0,0,0,0,0,0,0,0,0,0,0,0,0,0,0,0,0,0,1,0,0,0,0,0,0,0,0,0,0,0,0,0,0,0,0,0,0,0,0,0,0,0,0,9,42,1,1,1,NEIGHBORHOOD PARK,42,42,9,60611
477,OGDEN (WILLIAM) PLAZA,429 N COLUMBUS DR,1.09,Ogden Plaza,0,0,0,0,0,0,0,0,0,0,0,0,0,0,0,0,0,0,0,0,0,0,0,0,0,0,0,0,0,0,0,0,0,0,0,0,0,0,0,0,0,0,0,0,0,0,0,0,0,0,0,0,0,0,0,0,0,0,0,0,0,0,0,0,0,0,9,42,4,0,4,PASSIVE PARK,42,42,9,60611
478,DUSABLE (JEAN BAPTISTE POINTE),401 N LAKE SHORE DR,3.24,DuSable,0,0,0,0,0,0,0,0,0,0,0,0,0,0,0,0,0,0,0,0,0,0,0,0,0,0,0,0,0,0,0,0,0,0,0,0,0,0,0,0,0,0,0,0,0,0,0,0,0,0,0,0,0,0,0,0,0,0,0,0,0,0,0,0,0,0,9,42,6,0,6,UNIMPROVED PARK,42,42,9,60611
476,RIVER ESPLANADE,401 E RIVER DR,0.73,River Esplanade,0,0,0,0,0,0,0,0,0,0,0,0,0,0,0,0,0,0,0,0,0,0,0,0,0,0,0,0,0,0,0,0,0,0,0,0,0,0,0,0,0,0,0,0,0,0,0,0,0,0,0,0,0,0,0,0,0,0,0,0,0,0,0,0,0,0,9,42,4,0,4,PASSIVE PARK,42,42,9,60611
546,PARK NO. 546,450 E. BENTON PLACE,4.57,Park No. 546,0,0,0,0,0,0,0,0,0,0,0,0,0,0,0,0,0,0,0,0,1,0,0,0,0,0,0,0,0,0,0,0,0,0,0,0,0,0,0,0,0,1,0,0,0,0,0,0,0,0,0,0,0,0,0,0,0,0,0,0,0,0,0,0,0,0,9,42,1,2,1,NEIGHBORHOOD PARK,42,42,9,60611
551,PARK NO. 551,353 N DES PLAINES ST,1.02,Park No. 551,0,0,0,0,0,0,0,0,0,0,0,0,0,0,0,0,0,0,0,0,1,0,0,0,0,0,0,0,0,0,0,0,0,0,0,0,0,0,0,0,0,1,0,0,0,0,0,0,0,0,0,0,0,0,0,0,0,0,0,0,0,0,0,0,0,0,4,42,1,2,1,NEIGHBORHOOD PARK,42,42,4,60661
242,HAYES (FRANCIS),2936 W 85TH ST,20.3,Hayes,0,0,0,0,0,0,0,0,0,0,0,0,0,0,0,0,2,0,0,0,0,1,0,0,0,0,0,0,1,0,0,0,0,0,1,4,0,0,0,0,0,1,0,0,0,0,0,0,0,0,1,2,0,0,1,0,0,0,0,0,0,0,0,0,0,0,47,43,9,14,9,REGIONAL PARK,43,18,47,60652
265,SCOTTSDALE,4620 W 83RD PL,2.32,Scottsdale,0,0,0,0,0,0,0,0,0,0,0,0,0,0,0,0,1,0,0,0,0,1,0,0,0,0,0,0,1,0,0,0,0,0,0,2,0,0,0,0,0,1,0,0,0,0,0,0,0,0,0,0,0,0,0,0,0,1,0,0,0,0,0,0,0,0,47,43,10,7,10,COMMUNITY PARK,43,18,47,60652
264,BOGAN (WILLIAM),3939 W 79TH ST,19.33,Bogan,0,0,0,0,0,0,4,2,0,0,0,0,0,0,0,0,1,0,0,0,0,0,0,0,0,0,0,0,0,0,0,0,0,0,0,3,0,0,0,0,0,1,0,0,0,0,0,0,0,0,0,1,3,0,0,0,0,0,0,0,0,0,0,0,0,0,47,43,9,15,9,REGIONAL PARK,43,18,47,60652
296,DOOLEY (THOMAS),3426 W 77TH ST,1.27,Dooley,0,0,0,0,0,0,0,0,0,0,0,0,0,0,0,0,0,0,0,0,0,0,0,0,0,0,0,0,0,0,0,0,0,0,0,1,0,0,0,0,0,1,0,0,0,0,0,0,0,0,0,0,0,0,0,0,0,0,0,0,0,0,0,0,0,0,47,43,1,2,1,NEIGHBORHOOD PARK,43,18,47,60652
268,DURKIN (MARTIN),8441 S KOLIN AVE,12.8,Durkin,0,0,0,0,0,0,0,0,0,0,0,0,0,0,0,0,1,0,0,0,0,0,1,0,0,0,0,0,0,0,0,0,0,0,0,3,0,0,0,0,0,1,0,0,0,0,0,0,0,1,1,1,0,0,0,0,0,0,0,0,0,0,0,0,0,0,47,43,10,9,10,COMMUNITY PARK,43,18,47,60652
1286,LEE (JOHN),3700 W 87TH ST,0.28,Lee,0,0,0,0,0,0,0,0,0,0,0,0,0,0,0,0,0,0,0,0,0,0,0,0,0,0,0,0,0,0,0,0,0,0,0,0,0,0,0,0,0,0,1,0,0,0,0,0,0,0,0,0,0,0,0,0,0,0,0,0,0,0,0,0,0,0,47,43,3,1,3,MINI-PARK,43,18,47,60652
1012,O'HALLAREN (BERNARD),8335 S HONORE ST,8.2,O'Hallaren (Bernard),0,0,0,0,0,0,4,2,0,0,0,0,0,0,0,0,1,0,0,0,0,0,0,0,0,0,0,0,0,0,0,0,0,0,0,3,0,0,0,0,0,1,0,0,0,0,0,0,0,0,1,0,2,0,1,0,0,0,0,0,0,0,0,0,0,0,32,43,10,15,10,COMMUNITY PARK,43,18,32,60620
397,THE GROVE,8421 S MORGAN ST,0.28,The Grove,0,0,0,0,0,0,0,0,0,0,0,0,0,0,0,0,0,0,0,0,0,0,0,0,0,0,0,0,0,0,0,0,0,0,0,0,0,0,0,0,0,0,1,0,0,0,0,0,0,0,0,0,0,0,0,0,0,0,0,0,0,0,0,0,0,0,32,43,3,1,3,MINI-PARK,43,18,32,60620
239,DAWES (CHARLES),8040 S DAMEN AV,16.26,Dawes,0,0,0,0,0,0,2,1,0,0,0,0,0,0,0,0,2,0,0,0,0,0,0,0,0,0,0,0,0,0,0,0,0,0,0,4,0,0,0,0,0,1,0,0,0,0,0,0,0,0,1,1,0,0,0,0,0,0,0,0,0,0,0,0,0,0,32,43,10,12,10,COMMUNITY PARK,43,18,32,60620
26,FOSTER (J. FRANK),1400 W 84TH ST,23.2,Foster,0,0,0,0,0,0,8,3,0,0,0,0,0,0,0,0,1,0,0,0,0,1,0,0,0,0,0,0,1,0,0,0,2,0,1,4,0,0,0,0,0,1,0,0,0,0,0,0,0,0,0,1,8,1,0,1,0,0,0,0,0,0,0,0,0,0,32,43,9,33,9,REGIONAL PARK,43,18,32,60620
1199,ADAMS (JOHN C.),7535 S DOBSON AVE,0.82,Adams (John C.),0,0,0,0,0,0,0,0,0,0,0,0,0,0,0,0,0,0,0,0,0,0,0,0,0,0,0,0,0,0,0,0,0,0,0,0,0,0,0,0,0,0,0,0,0,0,0,0,0,0,0,0,0,0,0,0,0,0,0,0,0,0,0,0,0,0,49,44,4,0,4,PASSIVE PARK,44,9,49,60619
1237,PULLMAN (GEORGE),11113 S COTTAGE GROVE AVE,0.76,Pullman,0,0,0,0,0,0,0,0,0,0,0,0,0,0,0,0,0,0,0,0,0,0,0,0,0,0,0,0,0,0,0,0,0,0,0,0,0,0,0,0,0,0,0,0,0,0,0,0,0,0,0,0,0,0,0,0,0,0,0,0,0,0,0,0,0,0,48,44,4,0,4,PASSIVE PARK,44,9,48,60628
13,PALMER (POTTER),200 E 111TH ST,40.48,Palmer,0,0,0,0,0,0,4,2,0,0,0,0,0,0,0,0,1,0,0,0,0,1,0,0,0,0,0,0,1,0,0,0,0,0,0,5,0,0,1,0,0,1,0,0,0,0,0,0,0,1,1,2,9,0,0,0,1,0,0,0,0,0,0,0,0,0,48,44,9,30,9,REGIONAL PARK,44,9,48,60628
1201,ARCADE,11144 S ST LAWRENCE AVE,0.88,Arcade,0,0,0,0,0,0,0,0,0,0,0,0,0,0,0,0,0,0,0,0,0,0,0,0,0,0,0,0,0,0,0,0,0,0,0,0,0,0,0,0,0,0,0,0,0,0,0,0,0,0,0,0,0,0,0,0,0,0,0,0,0,0,0,0,0,0,48,44,4,0,4,PASSIVE PARK,44,9,48,60628
1118,LANGLEY,700 E 113TH ST,0.99,Langley,0,0,0,0,0,0,2,1,0,0,0,0,0,0,0,0,0,0,0,0,0,0,0,0,0,0,0,0,0,0,0,0,0,0,0,0,0,0,0,0,0,1,0,0,0,0,0,0,0,0,0,0,0,0,0,0,0,0,0,0,0,0,0,0,0,0,48,44,1,4,1,NEIGHBORHOOD PARK,44,9,48,60628
1041,KENSINGTON,345 E 118TH ST,4.88,Kensington,0,0,0,0,0,0,2,1,0,0,0,0,0,0,0,0,1,0,0,0,0,0,0,0,0,0,0,0,0,0,0,0,1,0,0,1,0,0,0,0,0,1,0,0,0,0,0,0,0,0,1,1,0,0,1,0,0,0,0,0,0,0,0,0,0,0,48,44,1,10,1,NEIGHBORHOOD PARK,44,9,48,60628
225,WEST PULLMAN,400 W 123RD ST,15.64,West Pullman,0,0,0,0,0,0,2,1,0,0,0,0,0,0,0,0,1,0,0,0,0,1,0,0,0,0,0,0,1,0,0,0,0,0,1,2,0,0,0,0,0,1,0,0,0,0,0,0,0,0,1,1,5,0,0,0,0,0,0,0,0,0,0,0,0,0,48,44,9,17,9,REGIONAL PARK,44,9,48,60628
288,GOLDEN GATE,500 E 130TH ST,5.2,Golden Gate,0,0,0,0,0,0,4,1,0,0,0,0,0,0,0,0,0,0,0,0,0,0,0,0,0,0,0,0,0,0,0,0,0,0,0,1,0,0,0,0,0,1,0,0,0,0,0,0,0,0,1,1,0,0,0,0,0,0,0,0,0,0,0,0,0,0,28,44,10,9,10,COMMUNITY PARK,44,9,28,60627
255,CARVER (GEORGE WASHINGTON),939 E 132ND ST,19.42,Carver,0,0,0,0,0,0,4,2,0,0,0,0,0,0,0,0,2,0,0,0,0,1,0,0,0,0,0,0,1,0,0,0,0,0,1,2,0,0,0,0,0,2,0,0,1,0,0,0,0,0,0,2,0,0,0,0,0,0,0,0,0,0,0,0,0,0,28,44,9,18,9,REGIONAL PARK,44,9,28,60627
515,PARK NO. 515,3517 W ARTHINGTON ST,5.18,Park No. 515,0,0,0,0,0,0,0,0,0,0,0,0,0,0,0,0,0,0,0,0,0,1,0,0,0,0,0,0,1,0,0,0,0,0,1,0,0,0,0,0,0,1,0,0,0,0,0,0,0,0,0,0,0,0,0,0,0,0,0,0,0,0,0,0,0,0,50,45,10,4,10,COMMUNITY PARK,45,24,50,60624
500,PARK NO. 500,730 S SPRINGFIELD AVE,1.18,Park No. 500,0,0,0,0,0,0,2,1,0,0,0,0,0,0,0,0,0,0,0,0,0,0,0,0,0,0,0,0,0,0,0,0,0,0,0,0,0,0,0,0,0,1,0,0,0,0,0,0,0,0,0,0,0,0,0,0,0,0,0,0,0,0,0,0,0,0,50,45,1,4,1,NEIGHBORHOOD PARK,45,24,50,60624
496,"BOLER (LEO ROSCOE, SR.)",3601 W ARTHINGTON ST,1.81,Boler,0,0,0,0,0,0,0,0,0,0,0,0,0,0,0,0,0,0,0,0,0,0,0,0,0,0,0,0,0,0,0,0,0,0,0,0,0,0,0,0,0,1,0,0,0,0,0,0,0,0,0,0,0,0,0,0,0,0,0,0,0,0,0,0,0,0,50,45,1,1,1,NEIGHBORHOOD PARK,45,24,50,60624
361,VIOLET,4120 W TAYLOR ST,0.52,Violet,0,0,0,0,0,0,0,0,0,0,0,0,0,0,0,0,0,0,0,0,0,0,0,0,0,0,0,0,0,0,0,0,0,0,0,0,0,0,0,0,0,1,0,0,0,0,0,0,0,0,1,0,0,0,0,0,0,0,0,0,0,0,0,0,0,0,50,45,1,2,1,NEIGHBORHOOD PARK,45,24,50,60624
333,MAGNOLIA,3228 W FLOURNOY ST,0.21,Magnolia,0,0,0,0,0,0,0,0,0,0,0,0,0,0,0,0,0,0,0,0,0,0,0,0,0,0,0,0,0,0,0,0,0,0,0,0,0,0,0,0,0,0,1,0,0,0,0,0,0,0,1,0,0,0,0,0,0,0,0,0,0,0,0,0,0,0,50,45,3,2,3,MINI-PARK,45,24,50,60624
519,PARK NO. 519,1944 S ST. LOUIS AVE,0.07,Park No. 519,0,0,0,0,0,0,0,0,0,0,0,0,0,0,0,0,0,0,0,0,0,0,0,0,0,0,0,0,0,0,0,0,0,0,0,0,0,0,0,0,0,0,1,0,0,0,0,0,0,0,0,0,0,0,0,0,0,0,0,0,0,0,0,0,0,0,40,45,3,1,3,MINI-PARK,45,24,40,60623
534,PARK NO. 534,1300 S ST LOUIS AVE,3.17,Park No. 534,0,0,0,0,0,0,0,0,0,0,0,0,0,0,0,0,0,0,0,0,0,0,0,0,0,0,0,0,0,0,0,0,0,0,0,0,0,0,0,0,0,1,0,0,0,0,0,0,0,0,1,0,0,0,0,0,0,0,0,0,0,0,0,0,0,0,40,45,1,2,1,NEIGHBORHOOD PARK,45,24,40,60623
355,NINEBARK,1447-1453 S HARDING AVE,0.22,Ninebark,0,0,0,0,0,0,0,0,0,0,0,0,0,0,0,0,0,0,0,0,0,0,0,0,0,0,0,0,0,0,0,0,0,0,0,0,0,0,0,0,0,0,1,0,0,0,0,0,0,0,1,0,0,0,0,0,0,0,0,0,0,0,0,0,0,0,40,45,3,2,3,MINI-PARK,45,24,40,60623
347,GINKGO,3432 W 15TH ST,0.11,Ginkgo,0,0,0,0,0,0,0,0,0,0,0,0,0,0,0,0,0,0,0,0,0,0,0,0,0,0,0,0,0,0,0,0,0,0,0,0,0,0,0,0,0,0,1,0,0,0,0,0,0,0,0,0,0,0,0,0,0,0,0,0,0,0,0,0,0,0,40,45,3,1,3,MINI-PARK,45,24,40,60623
359,CRAWFORD (PETER),1516 S KARLOV AVE,0.14,Crawford,0,0,0,0,0,0,0,0,0,0,0,0,0,0,0,0,0,0,0,0,0,0,0,0,0,0,0,0,0,0,0,0,0,0,0,0,0,0,0,0,0,0,1,0,0,0,0,0,0,0,1,0,0,0,0,0,0,0,0,0,0,0,0,0,0,0,40,45,3,2,3,MINI-PARK,45,24,40,60623
1114,KEELER (CYRUS),1243 S KEELER AVE,0.07,Keeler,0,0,0,0,0,0,0,0,0,0,0,0,0,0,0,0,0,0,0,0,0,0,0,0,0,0,0,0,0,0,0,0,0,0,0,0,0,0,0,0,0,0,1,0,0,0,0,0,0,0,0,0,0,0,0,0,0,0,0,0,0,0,0,0,0,0,40,45,3,1,3,MINI-PARK,45,24,40,60623
1127,MILLARD (ALDEN),1331 S MILLARD AVE,0.14,Millard,0,0,0,0,0,0,2,1,0,0,0,0,0,0,0,0,0,0,0,0,0,0,0,0,0,0,0,0,0,0,0,0,0,0,0,0,0,0,0,0,0,0,1,0,0,0,0,0,0,0,0,0,0,0,0,0,0,0,0,0,0,0,0,0,0,0,40,45,3,4,3,MINI-PARK,45,24,40,60623
202,FRANKLIN (BENJAMIN),1449 S KOLIN AVE,8.47,Franklin,0,0,0,0,0,0,6,3,0,0,0,0,0,0,0,0,1,0,0,0,0,0,0,0,0,0,0,0,1,0,0,0,0,0,0,3,0,0,1,0,0,1,0,0,0,0,0,0,0,0,0,1,0,0,1,1,0,0,0,0,0,0,0,0,0,0,40,45,10,19,10,COMMUNITY PARK,45,24,40,60623
1089,CHRISTIANA,1533 S CHRISTIANA AVE,0.14,Christiana,0,0,0,0,0,0,1,1,0,0,0,0,0,0,0,0,0,0,0,0,0,0,0,0,0,0,0,0,0,0,0,0,0,0,0,0,0,0,0,0,0,0,1,0,0,0,0,0,0,0,0,0,0,0,0,0,0,0,0,0,0,0,0,0,0,0,40,45,3,3,3,MINI-PARK,45,24,40,60623
1120,LONDON (LOUIS),3432 W 18TH ST,0.12,London,0,0,0,0,0,0,0,0,0,0,0,0,0,0,0,0,0,0,0,0,0,0,0,0,0,0,0,0,0,0,0,0,0,0,0,0,0,0,0,0,0,0,1,0,0,0,0,0,0,0,0,0,0,0,0,0,0,0,0,0,0,0,0,0,0,0,40,45,3,1,3,MINI-PARK,45,24,40,60623
1108,HOMAN (JOSEPH),2148 S HOMAN AVE,0.17,Homan,0,0,0,0,0,0,0,0,0,0,0,0,0,0,0,0,0,0,0,0,0,0,0,0,0,0,0,0,0,0,0,0,0,0,0,0,0,0,0,0,0,0,1,0,0,0,0,0,0,0,0,0,0,0,0,0,0,0,0,0,0,0,0,0,0,0,40,45,3,1,3,MINI-PARK,45,24,40,60623
256,MERRIMAC,6343 W IRVING PARK RD,9.11,Merrimac,0,0,0,0,0,0,0,0,0,0,0,0,0,0,0,0,0,0,0,0,0,0,0,0,0,0,0,0,1,0,0,0,0,0,0,3,0,0,0,0,0,1,0,0,0,0,0,0,0,0,1,0,0,0,0,0,0,0,0,0,0,0,0,0,0,0,55,46,10,6,10,COMMUNITY PARK,46,38,55,60634
258,DUNHAM (ROBERT),4640 N MELVINA AVE,14,Dunham,0,0,0,0,0,0,0,0,0,0,0,0,0,0,0,0,0,0,0,0,0,1,0,0,0,0,0,0,1,0,0,0,0,0,0,5,0,0,0,0,0,1,0,0,0,0,0,0,0,0,1,1,2,0,0,0,0,0,0,0,0,0,0,0,0,0,22,46,10,12,10,COMMUNITY PARK,46,38,22,60630
147,PORTAGE,4100 N LONG AVE,36.48,Portage,0,0,0,0,0,0,0,0,0,0,0,0,0,0,0,0,2,0,0,0,0,0,0,0,1,0,0,0,1,0,0,0,0,0,1,4,0,0,1,0,0,1,0,0,0,1,0,0,0,1,0,1,6,0,0,1,1,0,0,0,0,0,0,0,0,0,8,46,9,22,9,REGIONAL PARK,46,38,8,60641
146,CHOPIN (FREDERIC),3420 N LONG AVE,8.29,Chopin,0,0,0,0,0,0,4,1,0,0,0,0,0,0,0,0,1,0,0,0,0,0,0,0,0,0,0,0,0,0,0,0,4,0,0,3,0,0,0,0,0,1,0,0,1,0,0,0,0,0,1,1,4,0,0,0,0,0,0,0,0,0,0,0,0,0,8,46,10,21,10,COMMUNITY PARK,46,38,8,60641
18,TULEY (MURRAY),501 E 90TH PL,20.19,Tuley,0,0,0,0,0,0,4,2,0,0,0,0,0,0,0,0,1,0,0,0,0,1,0,0,0,0,0,0,1,0,0,0,0,0,0,3,0,0,1,0,0,1,0,0,0,0,0,0,0,0,1,1,13,0,0,0,0,0,0,0,0,0,0,0,0,0,49,47,9,29,9,REGIONAL PARK,47,6,49,60619
289,BROWN (SIDNEY) MEML.,644 E 86TH ST,6.8,Brown Memorial,0,0,0,0,0,0,4,1,0,0,0,0,0,0,0,0,0,0,0,0,0,0,0,0,0,0,0,0,0,0,0,0,0,0,0,2,0,0,0,0,0,1,0,0,0,0,0,0,0,0,1,0,2,0,0,0,0,0,0,0,0,0,0,0,0,0,49,47,10,11,10,COMMUNITY PARK,47,6,49,60619
419,PARK NO. 419,8001 S WABASH AVE,0.13,Park No. 419,0,0,0,0,0,0,0,0,0,0,0,0,0,0,0,0,0,0,0,0,0,0,0,0,0,0,0,0,0,0,0,0,0,0,0,0,0,0,0,0,0,0,0,0,0,0,0,0,0,0,0,0,0,0,0,0,0,0,0,0,0,0,0,0,0,0,49,47,6,0,6,UNIMPROVED PARK,47,6,49,60619
354,RAILROAD JUNCTION,7334 S MARYLAND AVE,0.23,Railroad Junction,0,0,0,0,0,0,0,0,0,0,0,0,0,0,0,0,0,0,0,0,0,0,0,0,0,0,0,0,0,0,0,0,0,0,0,0,0,0,0,0,0,0,1,0,0,0,0,0,0,0,0,0,0,0,0,0,0,0,0,0,0,0,0,0,0,0,49,47,3,1,3,MINI-PARK,47,6,49,60619
1049,MEYERING (WILLIAM),7140 S DR MARTIN LUTHER KING J,3.1,Meyering,0,0,0,0,0,0,2,1,0,0,0,0,0,0,0,0,1,0,0,0,0,0,0,0,0,0,0,0,0,0,0,0,0,0,0,1,0,0,0,0,0,1,0,0,0,0,0,0,0,0,0,0,0,0,0,1,0,0,0,0,0,0,0,0,0,0,49,47,1,7,1,NEIGHBORHOOD PARK,47,6,49,60619
387,HOARD (EDISON),7221 S DOBSON AVE,2.5,Hoard,0,0,0,0,0,0,4,2,0,0,0,0,0,0,0,0,0,0,0,0,0,0,0,0,0,0,0,0,0,0,0,0,0,0,0,1,0,0,0,0,0,1,0,0,0,0,0,0,0,0,1,0,0,0,0,0,0,0,0,0,0,0,0,0,0,0,49,47,1,9,1,NEIGHBORHOOD PARK,47,6,49,60619
1094,DOBSON,7521 S DOBSON AVE,0.29,Dobson,0,0,0,0,0,0,0,0,0,0,0,0,0,0,0,0,0,0,0,0,0,0,0,0,0,0,0,0,0,0,0,0,0,0,0,0,0,0,0,0,0,0,1,0,0,0,0,0,0,0,0,0,0,0,0,0,0,0,0,0,0,0,0,0,0,0,49,47,3,1,3,MINI-PARK,47,6,49,60619
15,GRAND CROSSING,7655 S INGLESIDE AVE,18.9,Grand Crossing,0,0,0,0,0,0,4,1,0,0,0,0,0,0,0,0,1,0,0,0,0,1,0,0,0,0,0,0,2,0,0,0,0,0,0,3,0,0,1,0,0,1,0,0,0,0,0,0,0,0,1,1,6,1,0,0,0,0,0,0,0,0,0,0,0,0,49,47,9,23,9,REGIONAL PARK,47,6,49,60619
434,ESSEX,7687 S SOUTH CHICAGO AVE,0.39,Essex,0,0,0,0,0,0,0,0,0,0,0,0,0,0,0,0,0,0,0,0,0,0,0,0,0,0,0,0,0,0,0,0,0,0,0,0,0,0,0,0,0,0,1,0,0,0,0,0,0,0,0,0,0,0,0,0,0,0,0,0,0,0,0,0,0,0,49,47,3,1,3,MINI-PARK,47,6,49,60619
270,COLE (NAT KING),361 E 85TH ST,4.68,Cole,0,0,0,0,0,0,4,2,0,0,0,0,0,0,0,0,1,0,0,0,0,0,0,0,0,0,0,0,0,0,0,0,1,0,0,2,0,0,0,0,0,1,0,0,0,0,0,0,0,0,1,0,0,0,0,0,0,0,0,0,0,0,0,0,0,0,49,47,1,12,1,NEIGHBORHOOD PARK,47,6,49,60619
259,ABBOTT (ROBERT),49 E 95TH ST,22.74,Abbott,0,0,0,0,0,0,8,3,0,0,0,0,0,0,0,0,2,0,0,0,0,0,0,0,0,0,0,0,0,0,0,0,0,0,0,3,0,0,1,0,0,1,0,0,0,1,0,0,0,0,2,2,2,1,1,0,0,0,0,0,0,0,0,0,0,0,48,47,10,27,10,COMMUNITY PARK,47,6,48,60628
1048,MEMORIAL,149 W 73RD ST,2.69,Memorial,0,0,0,0,0,0,2,1,0,0,0,0,0,0,0,0,1,0,0,0,0,0,0,0,0,0,0,0,0,0,0,0,0,0,0,1,0,0,0,0,0,1,0,0,0,0,0,0,0,0,0,0,0,0,0,0,0,0,0,0,0,0,0,0,0,0,46,47,1,6,1,NEIGHBORHOOD PARK,47,6,46,60621
417,HAZELNUT,5949 W HURON ST,0.23,Hazelnut,0,0,0,0,0,0,0,0,0,0,0,0,0,0,0,0,0,0,0,0,0,0,0,0,0,0,0,0,0,0,0,0,0,0,0,0,0,0,0,0,0,0,1,0,0,0,0,0,0,0,0,0,0,0,0,0,0,0,0,0,0,0,0,0,0,0,26,48,3,1,3,MINI-PARK,48,29,26,60644
207,AUSTIN TOWN HALL,5610 W LAKE ST,3.21,Austin Town Hall,0,0,0,0,0,0,4,1,0,0,0,0,0,0,0,0,0,0,0,0,0,1,0,0,0,0,0,0,1,0,0,0,0,0,1,0,0,0,0,0,0,1,0,0,0,0,0,0,0,0,0,0,0,0,0,0,0,0,0,0,0,0,0,0,0,0,26,48,10,9,10,COMMUNITY PARK,48,29,26,60644
1204,AUSTIN (HENRY),5951 W LAKE ST,5.48,Austin,0,0,0,0,0,0,0,0,0,0,0,0,0,0,0,0,0,0,0,0,0,0,0,0,0,0,0,0,0,0,0,0,0,0,0,0,0,0,0,0,0,1,0,0,0,0,0,0,0,0,1,0,0,0,0,1,0,0,0,0,0,0,0,0,0,0,26,48,10,3,10,COMMUNITY PARK,48,29,26,60644
1050,MOORE (MAURICE),5085 W ADAMS ST,3.2,Moore,0,0,0,0,0,0,2,1,0,0,0,0,0,0,0,0,1,1,0,0,0,0,0,0,0,0,0,0,0,0,0,0,0,0,0,1,0,0,0,0,0,1,0,0,0,0,0,0,0,0,1,0,0,0,0,0,0,0,0,0,0,0,0,0,0,0,26,48,1,8,1,NEIGHBORHOOD PARK,48,29,26,60644
209,COLUMBUS (CHRISTOPHER),500 S CENTRAL AVE,135.12,Columbus,0,0,0,0,0,0,6,3,0,0,0,0,0,0,1,0,4,0,0,0,0,1,0,0,1,1,0,0,1,0,0,0,0,0,0,3,0,0,1,0,0,2,0,0,0,0,0,0,0,0,1,2,6,0,0,0,0,0,0,1,0,0,0,0,0,0,26,48,2,34,2,CITYWIDE PARK,48,29,26,60644
448,METCALFE (RALPH),4196 S STATE ST,6.21,Metcalfe,0,0,0,0,0,0,8,2,0,0,0,0,0,0,0,0,0,0,0,0,0,0,1,0,0,0,0,0,0,0,0,0,0,0,0,1,0,0,0,0,0,1,0,0,0,0,0,0,0,0,1,0,2,0,0,0,0,0,0,0,0,0,0,0,0,0,51,49,10,16,10,COMMUNITY PARK,49,2,51,60609
266,STATEWAY,3658 S STATE ST,7.51,Stateway,0,0,0,0,0,0,6,1,0,0,0,0,0,0,0,0,1,0,0,0,0,0,0,0,0,0,0,0,0,0,0,0,0,0,0,2,0,0,0,0,0,1,0,0,0,0,0,0,0,0,0,0,0,0,0,0,0,0,0,0,0,0,0,0,0,0,51,49,10,11,10,COMMUNITY PARK,49,2,51,60609
353,HORNBEAM,1422 S HAMLIN AVE,0.31,Hornbeam,0,0,0,0,0,0,0,0,0,0,0,0,0,0,0,0,0,0,0,0,0,0,0,0,0,0,0,0,0,0,0,0,0,0,0,0,0,0,0,0,0,0,1,0,0,0,0,0,0,0,1,0,0,0,0,0,0,0,0,0,0,0,0,0,0,0,40,49,3,2,3,MINI-PARK,49,2,40,60623
1213,ELLIS (SAMUEL),600 E 37TH ST,9.86,Ellis,0,0,0,0,0,0,4,2,0,0,0,0,0,0,0,0,1,0,0,0,0,0,0,0,0,0,0,0,0,0,0,0,0,0,0,3,0,0,0,0,0,1,0,0,0,0,0,0,0,0,0,0,2,0,0,0,0,0,0,0,0,0,0,0,0,0,37,49,10,13,10,COMMUNITY PARK,49,2,37,60653
1020,ANDERSON (LOUIS),3748 S PRAIRIE AVE,0.86,Anderson,0,0,0,0,0,0,8,2,0,0,0,0,0,0,0,0,0,0,0,0,0,0,0,0,0,0,0,0,1,0,0,0,0,0,0,0,0,0,0,0,0,1,0,0,0,0,0,0,0,0,1,0,0,0,0,0,0,0,0,0,0,0,0,0,0,0,37,49,10,13,10,COMMUNITY PARK,49,2,37,60653
323,POPLAR,4046 S PRAIRIE AVE,0.25,Poplar,0,0,0,0,0,0,0,0,0,0,0,0,0,0,0,0,0,0,0,0,0,0,0,0,0,0,0,0,0,0,0,0,0,0,0,0,0,0,0,0,0,0,1,0,0,0,0,0,0,0,1,0,0,0,0,0,0,0,0,0,0,0,0,0,0,0,37,49,3,2,3,MINI-PARK,49,2,37,60653
24,GRANT (ULYSSES),331 E RANDOLPH ST,324.7,Grant,0,0,0,0,1,0,0,0,0,0,0,0,0,0,0,0,0,0,0,0,1,0,0,0,2,0,0,0,0,0,0,0,0,1,0,16,0,0,0,0,0,1,0,0,2,0,0,1,0,0,0,0,18,0,0,0,0,0,0,0,0,0,1,0,0,0,35,49,5,44,5,MAGNET PARK,49,2,35,60605
474,PARK NO. 474,3231 W DOUGLAS BLVD,0.01,Park No. 474,0,0,0,0,0,0,0,0,0,0,0,0,0,0,0,0,0,0,0,0,0,0,0,0,0,0,0,0,0,0,0,0,0,0,0,0,0,0,0,0,0,0,0,0,0,0,0,0,0,0,0,0,0,0,0,0,0,0,0,0,0,0,0,0,0,0,29,49,4,0,4,PASSIVE PARK,49,2,29,60616
360,LIN (MARGARET HIE DING),1735 S STATE ST,0.23,Lin,0,0,0,0,0,0,2,1,0,0,0,0,0,0,0,0,0,0,0,0,0,0,0,0,0,0,0,0,0,0,0,0,0,0,0,0,0,0,0,0,0,0,0,0,0,0,0,0,0,0,0,0,0,0,0,0,0,0,0,0,0,0,0,0,0,0,29,49,3,3,3,MINI-PARK,49,2,29,60616
550,CHICAGO WOMEN'S PARK AND GARDENS,1801 S INDIANA AVE,3.08,Chicago Womens' Park & Garden,0,0,0,0,0,0,0,0,0,0,0,0,0,0,0,0,0,0,0,0,0,0,0,0,1,0,0,0,0,0,0,0,0,0,0,0,0,0,0,0,0,0,0,0,0,0,0,0,0,0,0,0,0,0,0,0,0,0,0,0,0,0,0,0,0,0,29,49,1,1,1,NEIGHBORHOOD PARK,49,2,29,60616
547,BATTLE OF FORT DEARBORN,1801 S CALUMET AVE,0.46,Battle of Fort Dearborn,0,0,0,0,0,0,0,0,0,0,0,0,0,0,0,0,0,0,0,0,0,0,0,0,0,0,0,0,0,0,0,0,0,0,0,0,0,0,0,0,0,0,0,0,0,0,0,0,0,0,0,0,0,0,0,0,0,0,0,0,0,0,0,0,0,0,29,49,4,0,4,PASSIVE PARK,49,2,29,60616
261,WILLIAMS (DANIEL HALE),2710 S DEARBORN ST,8.51,Williams,0,0,0,0,0,0,2,1,0,0,0,0,0,0,0,0,1,0,0,0,0,0,0,0,0,0,0,0,0,0,0,0,0,0,0,1,0,0,0,0,0,1,0,0,0,0,0,0,0,0,1,1,0,0,0,1,0,0,0,0,0,0,0,0,0,0,29,49,10,9,10,COMMUNITY PARK,49,2,29,60616
263,LAKE MEADOWS,3113 S RHODES AVE,10.11,Lake Meadows,0,0,0,0,0,0,4,2,0,0,0,0,0,0,0,0,1,0,0,0,0,0,0,0,0,0,0,0,0,0,0,0,0,0,0,1,0,0,0,0,0,1,0,0,0,0,0,0,0,0,0,0,0,0,0,0,0,0,0,0,0,0,0,0,0,0,29,49,10,9,10,COMMUNITY PARK,49,2,29,60616
267,DUNBAR (PAUL LAURENCE),200 E 31ST ST,20.76,Dunbar,0,0,0,0,0,0,8,4,0,0,0,0,0,0,0,0,2,0,0,0,0,0,0,0,0,0,0,0,0,0,0,0,0,0,0,2,0,0,0,0,0,2,0,0,0,0,0,0,0,0,0,2,6,1,0,0,0,0,0,0,0,0,0,0,0,0,29,49,9,27,9,REGIONAL PARK,49,2,29,60616
537,HERITAGE GREEN,610-30 W ADAMS ST,0.96,Heritage Green,0,0,0,0,0,0,0,0,0,0,0,0,0,0,0,0,0,0,0,0,0,0,0,0,0,0,0,0,0,0,0,0,0,0,0,0,0,0,0,0,0,0,0,0,0,0,0,0,0,0,0,0,0,0,0,0,0,0,0,0,0,0,0,0,0,0,4,49,4,0,4,PASSIVE PARK,49,2,4,60661
542,BARTELME (MARY),115 S. SANGAMON ST,2.29,Bartelme,0,0,0,0,0,0,0,0,0,0,0,0,0,0,0,0,0,0,0,0,1,0,0,0,0,0,0,0,0,0,0,0,0,0,0,0,0,0,0,0,0,1,0,0,0,0,0,0,0,0,0,0,0,0,0,0,0,0,0,0,0,0,0,0,0,0,3,49,1,2,1,NEIGHBORHOOD PARK,49,2,3,60602
541,PRITZKER,301-52 S STATE ST,0.88,Pritzker,0,0,0,0,0,0,0,0,0,0,0,0,0,0,0,0,0,0,0,0,0,0,0,0,0,0,0,0,0,0,0,0,0,0,0,0,0,0,0,0,0,0,0,0,0,0,0,0,0,0,0,0,0,0,0,0,0,0,0,0,0,0,0,0,0,0,1,49,4,0,4,PASSIVE PARK,49,2,1,60604
257,WILDWOOD,6950 N HIAWATHA AVE,9.22,Wildwood,0,0,0,0,0,0,4,1,0,0,0,0,0,0,0,0,1,0,0,0,0,0,0,0,0,0,0,0,1,0,0,0,0,0,0,3,0,0,0,0,0,1,0,0,0,0,0,0,0,0,1,1,2,0,0,0,0,0,0,0,0,0,0,0,0,0,17,50,10,15,10,COMMUNITY PARK,50,41,17,60646
464,QUINN (MARY),6239 N MCCLELLAN AVE,0.76,Quinn,0,0,0,0,0,0,0,0,0,0,0,0,0,0,0,0,0,0,0,0,0,0,0,0,0,0,0,0,0,0,0,0,0,0,0,0,0,0,0,0,0,0,0,0,0,0,0,0,0,0,0,0,0,0,0,0,0,0,0,0,0,0,0,0,0,0,17,50,4,0,4,PASSIVE PARK,50,41,17,60646
91,ROSEDALE,6312 W ROSEDALE AVE,2.75,Rosedale,0,0,0,0,0,0,2,1,0,0,0,0,0,0,0,0,2,0,0,0,0,0,0,0,0,0,0,0,1,0,0,0,0,0,0,1,0,0,0,0,0,1,0,0,0,0,0,0,0,0,0,0,2,0,0,0,0,0,0,0,0,0,0,0,0,0,17,50,10,10,10,COMMUNITY PARK,50,41,17,60646
61,BROOKS (OSCAR),7046 N HARLEM AVE,8.79,Brooks (Oscar),0,0,0,0,0,0,0,0,0,0,0,0,0,0,0,0,1,0,0,0,0,1,0,0,0,0,0,0,1,0,0,0,3,0,0,2,0,0,0,0,0,1,0,0,0,0,0,0,0,0,1,0,2,0,0,0,0,0,0,0,0,0,0,0,0,0,16,50,10,12,10,COMMUNITY PARK,50,41,16,60631
62,EDISON (THOMAS ALVA),6755 N NORTHWEST HWY,0.71,Edison,0,0,0,0,0,0,0,0,0,0,0,0,0,0,0,0,0,0,0,0,0,0,0,0,0,0,0,0,0,0,0,0,0,0,0,0,0,0,0,0,0,1,0,0,0,0,0,0,0,0,0,0,0,0,0,0,0,0,0,0,0,0,0,1,0,0,16,50,1,2,1,NEIGHBORHOOD PARK,50,41,16,60631
57,MONUMENT,6700 N AVONDALE AVE,0.98,Monument,0,0,0,0,0,0,0,0,0,0,0,0,0,0,0,0,0,0,0,0,0,0,0,0,0,0,0,0,0,0,0,0,0,0,0,0,0,0,0,0,0,1,0,0,0,0,0,0,0,0,0,0,0,0,0,0,0,0,0,0,0,0,0,0,0,0,16,50,1,1,1,NEIGHBORHOOD PARK,50,41,16,60631
60,OLYMPIA,6566 N AVONDALE AVE,10.19,Olympia,0,0,0,0,0,0,4,1,0,0,0,0,0,0,0,0,1,0,0,0,0,0,0,0,0,0,0,0,1,0,0,0,0,0,0,2,0,0,0,0,0,1,0,0,0,0,0,0,0,0,1,1,3,0,0,0,0,0,0,0,0,0,0,0,0,0,16,50,10,15,10,COMMUNITY PARK,50,41,16,60631
140,PLEASANT POINT,6813 W IMLAY ST,1.89,Pleasant Point,0,0,0,0,0,0,4,1,0,0,0,0,0,0,0,0,0,0,0,0,0,0,0,0,0,0,0,0,0,0,0,0,0,0,0,0,0,0,0,0,0,1,0,0,0,0,0,0,0,0,1,0,0,0,0,0,0,0,0,0,0,0,0,0,0,0,16,50,1,7,1,NEIGHBORHOOD PARK,50,41,16,60631
1223,MYRTLE GROVE,6113 N NEVA AVE,1.01,Myrtle Grove,0,0,0,0,0,0,0,0,0,0,0,0,0,0,0,0,0,0,0,0,0,0,0,0,0,0,0,0,0,0,0,0,0,0,0,0,0,0,0,0,0,0,0,0,0,0,0,0,0,0,0,0,0,0,0,0,0,0,0,0,0,0,0,0,0,0,16,50,4,0,4,PASSIVE PARK,50,41,16,60631
1226,NORWOOD CIRCLE,7117 W PETERSON AVE,1.83,Norwood Circle,0,0,0,0,0,0,0,0,0,0,0,0,0,0,0,0,0,0,0,0,0,0,0,0,0,0,0,0,0,0,0,0,0,0,0,0,0,0,0,0,0,0,0,0,0,0,0,0,0,0,0,0,0,0,0,0,0,0,0,0,0,0,0,0,0,0,16,50,4,0,4,PASSIVE PARK,50,41,16,60631
141,NORWOOD,5801 N NATOMA AVE,14.04,Norwood,0,0,0,0,0,0,3,1,0,0,0,0,0,0,0,0,1,0,0,0,0,1,0,0,0,0,0,0,1,0,0,0,0,0,0,3,0,0,1,0,0,1,0,0,0,1,0,0,0,1,0,1,4,1,0,0,1,0,0,0,0,0,0,0,0,0,16,50,10,21,10,COMMUNITY PARK,50,41,16,60631
1222,MULBERRY POINT,5873 N NINA AVE,0.07,Mulberry Point,0,0,0,0,0,0,0,0,0,0,0,0,0,0,0,0,0,0,0,0,0,0,0,0,0,0,0,0,0,0,0,0,0,0,0,0,0,0,0,0,0,0,0,0,0,0,0,0,0,0,0,0,0,0,0,0,0,0,0,0,0,0,0,0,0,0,16,50,4,0,4,PASSIVE PARK,50,41,16,60631
1238,CENTENNIAL,6086 N NORTHWEST HWY,1.03,Centennial,0,0,0,0,0,0,0,0,0,0,0,0,0,0,0,0,0,0,0,0,0,0,0,0,0,0,0,0,0,0,0,0,0,0,0,0,0,0,0,0,0,0,0,0,0,0,0,0,0,0,0,0,0,0,0,0,0,0,0,0,0,0,0,0,0,0,16,50,4,0,4,PASSIVE PARK,50,41,16,60631
59,ORIOLE,5430 N OLCOTT AVE,18.57,Oriole,0,0,0,0,0,0,3,1,0,0,0,0,0,0,0,0,2,0,0,0,0,0,0,0,0,0,0,0,1,0,0,0,0,0,0,3,0,0,0,0,0,2,0,0,0,0,0,0,0,0,1,4,3,0,0,0,0,0,0,0,0,0,0,0,0,0,6,50,9,20,9,REGIONAL PARK,50,41,6,60656
472,GRANDPARENTS',5445 N CHESTER ST,1.79,Grandparents',0,0,0,0,0,0,0,0,0,0,0,0,0,0,0,0,0,0,0,0,0,0,0,0,0,0,0,0,0,0,0,0,0,0,0,0,0,0,0,0,0,1,0,0,0,0,0,0,0,0,0,0,0,0,0,0,0,0,0,0,0,0,0,0,0,0,6,50,1,1,1,NEIGHBORHOOD PARK,50,41,6,60656
1151,SUMMERDALE,7262 W SUMMERDALE AVE,0.27,Summerdale,0,0,0,0,0,0,0,0,0,0,0,0,0,0,0,0,0,0,0,0,0,0,0,0,0,0,0,0,0,0,0,0,0,0,0,0,0,0,0,0,0,0,1,0,0,0,0,0,0,0,0,0,0,0,0,0,0,0,0,0,0,0,0,0,0,0,6,50,3,1,3,MINI-PARK,50,41,6,60656
368,DOUGHERTY (DANIEL),9336 S KINGSTON AVE,2.72,Dougherty,0,0,0,0,0,0,0,0,0,0,0,0,0,0,0,0,0,0,0,0,0,0,0,0,0,0,0,0,0,0,0,0,0,0,0,1,0,0,0,0,0,0,0,0,0,0,0,0,0,0,0,1,0,0,0,0,0,0,0,0,0,0,0,0,0,0,41,51,1,2,1,NEIGHBORHOOD PARK,51,7,41,60647
562,PARK NO. 562,1735-37 E 96TH ST,140.33,Park No. 562,0,0,0,0,0,0,0,0,0,0,0,0,0,0,0,0,0,0,0,0,0,0,0,0,0,0,0,0,0,0,0,0,0,0,0,0,0,0,0,0,0,0,0,0,0,0,0,0,0,0,0,0,0,0,0,0,0,0,0,0,0,0,0,0,0,0,39,51,8,0,8,NATURE PRESERVE PARK,51,7,39,60643
12,BESSEMER (HENRY),8930 S MUSKEGON AVE,18.43,Bessemer,0,0,0,1,0,0,4,1,0,0,0,0,0,0,0,0,2,0,0,0,0,0,0,0,1,0,0,0,2,0,0,2,0,0,0,4,0,0,1,0,0,1,0,0,0,0,0,0,0,0,1,2,4,1,0,0,0,0,0,0,0,0,0,0,0,0,25,51,9,27,9,REGIONAL PARK,51,7,25,60617
232,ECKERSALL (WALTER HERBERT),2430 E 82ND ST,2.95,Eckersall,0,0,0,0,0,0,2,1,0,0,0,0,0,0,0,0,0,0,0,0,0,0,0,0,0,0,0,0,0,0,0,0,0,0,0,0,0,0,0,0,0,1,0,0,0,0,0,0,0,0,0,0,0,0,0,0,0,0,0,0,0,0,0,0,0,0,25,51,1,4,1,NEIGHBORHOOD PARK,51,7,25,60617
503,PARK NO. 503,8900 S GREEN BAY AVE,12.74,Park No. 503,0,0,0,0,0,0,0,0,0,0,0,0,0,0,0,0,0,0,0,0,0,0,0,0,0,0,0,0,0,0,0,0,0,0,0,0,0,0,0,0,0,0,0,0,0,0,0,0,0,0,0,0,0,0,0,0,0,0,0,0,0,0,0,0,0,0,25,51,6,0,6,UNIMPROVED PARK,51,7,25,60617
523,PARK NO. 523,E 87TH ST AT THE LAKE,16.56,Park No. 523,0,0,0,0,0,0,0,0,0,0,0,0,0,0,0,0,0,0,0,0,0,0,0,0,0,0,0,0,0,0,0,0,0,0,0,0,0,0,0,0,0,0,0,0,0,0,0,0,0,0,0,0,0,0,0,0,0,0,0,0,0,0,0,0,0,0,25,51,6,0,6,UNIMPROVED PARK,51,7,25,60617
566,PARK NO. 566,7901 S FARRAGUT,30.17,Park No. 566,0,0,0,0,0,0,0,0,0,0,0,0,0,0,0,0,0,0,0,0,0,0,0,0,0,0,0,0,0,0,0,0,0,0,0,0,0,0,0,0,0,0,0,0,0,0,0,0,0,0,0,0,0,0,0,0,0,0,0,0,0,0,0,0,0,0,25,51,7,0,7,UNIMPROVED,51,7,25,60617
6,RUSSELL (MARTIN) SQUARE,3045 E 83RD ST,11.47,Russell Square,0,0,0,0,0,0,4,1,0,0,0,0,0,0,0,0,1,0,0,0,0,1,0,0,0,0,0,0,1,0,0,0,0,0,0,3,0,0,1,0,0,1,0,0,0,0,0,0,0,0,0,0,3,0,2,0,0,0,0,0,0,0,0,0,0,0,25,51,10,18,10,COMMUNITY PARK,51,7,25,60617
